{
  "$schema": "https://ripota.org/schemas/v2/source-geojson.schema.json",
  "type": "FeatureCollection",
  "properties": {
    "schemaVersion": 2,
    "geometryRole": "source",
    "geometryKind": "boundary",
    "potaReference": "US-0789",
    "potaName": "Roger Williams National Memorial",
    "sourceName": "National Park Service Land Resources Division Boundary and Tract Data Service",
    "sourceUrl": "https://services1.arcgis.com/fBc8EJBxQRMcHlei/arcgis/rest/services/NPS_Land_Resources_Division_Boundary_and_Tract_Data_Service/FeatureServer/2",
    "sourceQuery": "UNIT_CODE = 'ROWI'",
    "sourceFeatureIds": [
      1837
    ]
  },
  "features": [
    {
      "type": "Feature",
      "id": 1837,
      "geometry": {
        "type": "Polygon",
        "coordinates": [
          [
            [
              -71.4107163682817,
              41.8314256764934
            ],
            [
              -71.4107027210759,
              41.8313875533265
            ],
            [
              -71.4097918823784,
              41.8287474600888
            ],
            [
              -71.4097916685793,
              41.828747012279
            ],
            [
              -71.4097914745432,
              41.8287465577754
            ],
            [
              -71.4097913038633,
              41.8287461012637
            ],
            [
              -71.4097911529464,
              41.8287456400664
            ],
            [
              -71.409791023589,
              41.8287451741835
            ],
            [
              -71.4097909148928,
              41.8287447049537
            ],
            [
              -71.4097908286545,
              41.8287442337158
            ],
            [
              -71.4097907648742,
              41.8287437618085
            ],
            [
              -71.4097907226533,
              41.8287432872238
            ],
            [
              -71.4097907028904,
              41.8287428119696
            ],
            [
              -71.409790704687,
              41.8287423367155
            ],
            [
              -71.4097907280432,
              41.8287418621307
            ],
            [
              -71.4097907738573,
              41.8287413868766
            ],
            [
              -71.4097908403326,
              41.8287409149692
            ],
            [
              -71.4097909319608,
              41.8287404437313
            ],
            [
              -71.4097910424536,
              41.8287399758403
            ],
            [
              -71.4097911754042,
              41.8287395106267
            ],
            [
              -71.4097913299145,
              41.8287390500987
            ],
            [
              -71.4097915059843,
              41.8287385929176
            ],
            [
              -71.409791701817,
              41.8287381417608
            ],
            [
              -71.4097919210059,
              41.8287376939508
            ],
            [
              -71.4097921572628,
              41.8287372528347
            ],
            [
              -71.409792416876,
              41.8287368197509
            ],
            [
              -71.4097926944554,
              41.8287363906834
            ],
            [
              -71.4097929935944,
              41.8287359709871
            ],
            [
              -71.4097933106997,
              41.8287355579845
            ],
            [
              -71.4097936466696,
              41.8287351550225
            ],
            [
              -71.4097940015041,
              41.8287347621011
            ],
            [
              -71.4097943734066,
              41.8287343758734
            ],
            [
              -71.4097947632755,
              41.828734001025
            ],
            [
              -71.4097951720089,
              41.8287336362172
            ],
            [
              -71.4097955960138,
              41.8287332827887
            ],
            [
              -71.4097960361882,
              41.8287329387314
            ],
            [
              -71.4097964925324,
              41.8287326080616
            ],
            [
              -71.4097969623513,
              41.8287322887711
            ],
            [
              -71.4097974483399,
              41.8287319821986
            ],
            [
              -71.4097979487015,
              41.8287316870055
            ],
            [
              -71.4097984625378,
              41.8287314058692
            ],
            [
              -71.4097989862556,
              41.8287311387897
            ],
            [
              -71.4097995243465,
              41.8287308850977
            ],
            [
              -71.4098000723188,
              41.8287306447931
            ],
            [
              -71.4098006346642,
              41.828730419884
            ],
            [
              -71.4098012015011,
              41.8287302097012
            ],
            [
              -71.4098017827111,
              41.8287300129058
            ],
            [
              -71.409802369311,
              41.8287298328447
            ],
            [
              -71.4098029666906,
              41.8287296681791
            ],
            [
              -71.4106243969662,
              41.828589134677
            ],
            [
              -71.4106250338718,
              41.8285890858127
            ],
            [
              -71.4106256716756,
              41.8285890536828
            ],
            [
              -71.4106263121744,
              41.8285890376178
            ],
            [
              -71.4106269517749,
              41.8285890396259
            ],
            [
              -71.4106275895788,
              41.828589057699
            ],
            [
              -71.4106282309759,
              41.8285890931759
            ],
            [
              -71.4106288660848,
              41.8285891447176
            ],
            [
              -71.4106295002954,
              41.8285892129937
            ],
            [
              -71.4106301291161,
              41.8285892966654
            ],
            [
              -71.4106307552418,
              41.8285893977409
            ],
            [
              -71.4106313759777,
              41.82858951622
            ],
            [
              -71.410631989527,
              41.8285896487559
            ],
            [
              -71.4106325985848,
              41.8285897986956
            ],
            [
              -71.4106331986594,
              41.8285899626922
            ],
            [
              -71.4106337915475,
              41.8285901427537
            ],
            [
              -71.4106343754524,
              41.8285903388802
            ],
            [
              -71.4106349512725,
              41.8285905510716
            ],
            [
              -71.4106355145162,
              41.8285907766505
            ],
            [
              -71.4106360678784,
              41.8285910169556
            ],
            [
              -71.4106366095625,
              41.8285912726564
            ],
            [
              -71.4106371386702,
              41.8285915410752
            ],
            [
              -71.4106376560998,
              41.8285918242202
            ],
            [
              -71.410638160953,
              41.8285921187446
            ],
            [
              -71.4106386487382,
              41.8285924279952
            ],
            [
              -71.410639123947,
              41.8285927486252
            ],
            [
              -71.4106395820878,
              41.8285930826426
            ],
            [
              -71.4106400267539,
              41.8285934280394
            ],
            [
              -71.410640451657,
              41.8285937848155
            ],
            [
              -71.4106408630854,
              41.8285941516322
            ],
            [
              -71.4106412547509,
              41.8285945298283
            ],
            [
              -71.4106416302466,
              41.828594918065
            ],
            [
              -71.4106419859795,
              41.8285953156729
            ],
            [
              -71.4106423237461,
              41.8285957219826
            ],
            [
              -71.4106426417497,
              41.8285961376636
            ],
            [
              -71.4106429417869,
              41.8285965607077
            ],
            [
              -71.410643221163,
              41.8285969911149
            ],
            [
              -71.4106434798778,
              41.8285974288852
            ],
            [
              -71.4106437179314,
              41.8285978726799
            ],
            [
              -71.4106439344254,
              41.8285983238376
            ],
            [
              -71.410644132953,
              41.828598779681
            ],
            [
              -71.4106443054296,
              41.82859924021
            ],
            [
              -71.4106444599398,
              41.8285997040858
            ],
            [
              -71.4106445910938,
              41.8286001726473
            ],
            [
              -71.4106447006883,
              41.828600645225
            ],
            [
              -71.4106447878249,
              41.8286011191415
            ],
            [
              -71.4107169261354,
              41.8288369858513
            ],
            [
              -71.4107334677131,
              41.8288946742301
            ],
            [
              -71.4107479063346,
              41.828952675822
            ],
            [
              -71.4107602267288,
              41.8290109518027
            ],
            [
              -71.4111411842745,
              41.8309117233428
            ],
            [
              -71.4111607630561,
              41.8310221190361
            ],
            [
              -71.4111753409165,
              41.8311329476066
            ],
            [
              -71.4111849007878,
              41.8312440805375
            ],
            [
              -71.4111894309917,
              41.8313553913212
            ],
            [
              -71.4111894291951,
              41.8313558692333
            ],
            [
              -71.411189403144,
              41.8313563484841
            ],
            [
              -71.4111893564316,
              41.8313568243882
            ],
            [
              -71.4111892881596,
              41.8313573002923
            ],
            [
              -71.4111891965315,
              41.8313577741883
            ],
            [
              -71.4111890824454,
              41.8313582447376
            ],
            [
              -71.4111889467998,
              41.8313587126095
            ],
            [
              -71.4111887904929,
              41.8313591764654
            ],
            [
              -71.4111886108299,
              41.8313596342972
            ],
            [
              -71.4111884123022,
              41.8313600894515
            ],
            [
              -71.4111881913167,
              41.8313605392511
            ],
            [
              -71.4111879487715,
              41.8313609823573
            ],
            [
              -71.4111876864635,
              41.8313614194394
            ],
            [
              -71.4111874052908,
              41.8313618484893
            ],
            [
              -71.4111871025585,
              41.8313622701764
            ],
            [
              -71.4111867800633,
              41.8313626831621
            ],
            [
              -71.4111864396018,
              41.8313630881155
            ],
            [
              -71.4111860802757,
              41.8313634843676
            ],
            [
              -71.411185702085,
              41.8313638712488
            ],
            [
              -71.4111853068263,
              41.8313642460817
            ],
            [
              -71.4111848944996,
              41.8313646122133
            ],
            [
              -71.4111844651049,
              41.8313649662966
            ],
            [
              -71.4111840186421,
              41.8313653096703
            ],
            [
              -71.4111835569081,
              41.8313656403266
            ],
            [
              -71.4111830799027,
              41.8313659602733
            ],
            [
              -71.4111825894225,
              41.8313662661638
            ],
            [
              -71.4111820845693,
              41.8313665593367
            ],
            [
              -71.4111815644448,
              41.8313668391228
            ],
            [
              -71.4111810335405,
              41.8313671061912
            ],
            [
              -71.4111804900597,
              41.8313673585342
            ],
            [
              -71.4111799349009,
              41.8313675961515
            ],
            [
              -71.4111793689622,
              41.8313678197126
            ],
            [
              -71.4111787931421,
              41.8313680285481
            ],
            [
              -71.4111782092372,
              41.8313682213193
            ],
            [
              -71.4111776145525,
              41.831368399365
            ],
            [
              -71.4111770135796,
              41.8313685626851
            ],
            [
              -71.4111764045218,
              41.8313687092715
            ],
            [
              -71.4111757900741,
              41.8313688391244
            ],
            [
              -71.4111751675417,
              41.8313689542516
            ],
            [
              -71.4107392079478,
              41.8314411242812
            ],
            [
              -71.4107385908052,
              41.831441219328
            ],
            [
              -71.4107379709676,
              41.8314412963025
            ],
            [
              -71.4107373511301,
              41.8314413585515
            ],
            [
              -71.4107367250043,
              41.8314414033976
            ],
            [
              -71.4107360988786,
              41.8314414341874
            ],
            [
              -71.4107354709562,
              41.8314414482436
            ],
            [
              -71.4107348439321,
              41.8314414455662
            ],
            [
              -71.4107342160097,
              41.8314414274939
            ],
            [
              -71.410733589884,
              41.8314413933574
            ],
            [
              -71.4107329664532,
              41.8314413424873
            ],
            [
              -71.410732344819,
              41.8314412775609
            ],
            [
              -71.4107317249814,
              41.8314411945623
            ],
            [
              -71.4107311123304,
              41.8314410961687
            ],
            [
              -71.410730504171,
              41.831440983719
            ],
            [
              -71.4107298987065,
              41.8314408545356
            ],
            [
              -71.4107293031234,
              41.831440709288
            ],
            [
              -71.410728712032,
              41.8314405506536
            ],
            [
              -71.4107281290254,
              41.8314403752855
            ],
            [
              -71.4107275541036,
              41.8314401865305
            ],
            [
              -71.4107269881649,
              41.8314399823806
            ],
            [
              -71.4107264330061,
              41.8314397635052
            ],
            [
              -71.4107258868304,
              41.8314395312429
            ],
            [
              -71.4107253541294,
              41.831439284255
            ],
            [
              -71.4107248304116,
              41.8314390252189
            ],
            [
              -71.4107243201686,
              41.8314387514573
            ],
            [
              -71.4107238207053,
              41.8314384663168
            ],
            [
              -71.4107233374116,
              41.8314381671202
            ],
            [
              -71.4107228648978,
              41.8314378572139
            ],
            [
              -71.4107224103503,
              41.8314375345902
            ],
            [
              -71.4107219692775,
              41.8314371992489
            ],
            [
              -71.410721543476,
              41.8314368552062
            ],
            [
              -71.4107211329459,
              41.8314364984459
            ],
            [
              -71.4107207412805,
              41.8314361336535
            ],
            [
              -71.410720363988,
              41.8314357574822
            ],
            [
              -71.4107200064586,
              41.8314353712709
            ],
            [
              -71.4107196650988,
              41.8314349776966
            ],
            [
              -71.4107193435019,
              41.8314345747516
            ],
            [
              -71.410719038973,
              41.8314341637744
            ],
            [
              -71.4107187533087,
              41.8314337454345
            ],
            [
              -71.4107184883057,
              41.8314333197318
            ],
            [
              -71.4107182430656,
              41.8314328873357
            ],
            [
              -71.4107180148936,
              41.8314324495847
            ],
            [
              -71.410717810976,
              41.8314320064791
            ],
            [
              -71.4107176250247,
              41.8314315573493
            ],
            [
              -71.4107174597347,
              41.8314311042035
            ],
            [
              -71.4107163682817,
              41.8314256764934
            ]
          ]
        ]
      },
      "properties": {
        "AreaID": 38,
        "DATE_EDIT": 1317340800000,
        "GlobalID": "01cdac87-f699-47bb-bbfc-1498f770f0e0",
        "IRMAReference": "https://irma.nps.gov/DataStore/Reference/Profile/2224545?lnv=True",
        "METADATA": "https://landsnet.nps.gov/tractsnet/documents/ROWI/Metadata/rowi_metadata.xml",
        "OBJECTID": 1837,
        "PARKNAME": "ROGER WILLIAMS NMEM",
        "REGION": "NER",
        "Shape__Area": 33122.53515625,
        "Shape__Length": 986.148565584467,
        "STATE": "RI",
        "Status": "Official",
        "UNIT_CODE": "ROWI",
        "UNIT_NAME": "Roger Williams National Memorial",
        "UNIT_TYPE": "National Memorials"
      }
    }
  ]
}
