{
  "$schema": "https://ripota.org/schemas/v2/source-geojson.schema.json",
  "type": "FeatureCollection",
  "properties": {
    "schemaVersion": 2,
    "geometryRole": "source",
    "geometryKind": "activation-zone",
    "potaReference": "US-4582",
    "potaName": "Washington-Rochambeau Revolutionary Route National Historic Trail",
    "sourceName": "Washington Rochambeau National Historic Trail Route",
    "sourceUrl": "https://services.arcgis.com/hRUr1F8lE8Jq2uJo/arcgis/rest/services/Washington_Rochambeau_National_Historic_Trail_Route/FeatureServer/2",
    "sourceQuery": "Name = 'Trail in RI'",
    "sourceFeatureIds": [
      2
    ],
    "notes": "Buffered from the NPS Rhode Island route segment using POTA's 100-foot trail activation-zone rule.",
    "sourceGeometryType": "LineString"
  },
  "features": [
    {
      "type": "Feature",
      "id": 2,
      "geometry": {
        "type": "LineString",
        "coordinates": [
          [
            -71.3237019997198,
            41.477078999839
          ],
          [
            -71.3231290003327,
            41.4758349998385
          ],
          [
            -71.314079000258,
            41.477078999839
          ],
          [
            -71.3150559998761,
            41.4874220001533
          ],
          [
            -71.3168319997356,
            41.4884089998456
          ],
          [
            -71.3174629997473,
            41.4941600003292
          ],
          [
            -71.3167179999327,
            41.49497499975
          ],
          [
            -71.3171189997907,
            41.4996960001371
          ],
          [
            -71.3175199996487,
            41.5068199998637
          ],
          [
            -71.3178129995517,
            41.5124850002918
          ],
          [
            -71.3140299998541,
            41.5178060002519
          ],
          [
            -71.3110489998726,
            41.5192649998771
          ],
          [
            -71.3001590003643,
            41.5182349996982
          ],
          [
            -71.2976360001422,
            41.5257019999674
          ],
          [
            -71.2934450000157,
            41.5317540001387
          ],
          [
            -71.2913870001239,
            41.5402079998376
          ],
          [
            -71.2921319999385,
            41.5483619999401
          ],
          [
            -71.2916740001791,
            41.5510229998039
          ],
          [
            -71.2907560001122,
            41.5547129999188
          ],
          [
            -71.2851359995575,
            41.5641980000763
          ],
          [
            -71.2811240004295,
            41.5662999998022
          ],
          [
            -71.2724030002427,
            41.5745830001472
          ],
          [
            -71.2682149995909,
            41.5896889996741
          ],
          [
            -71.2624200000324,
            41.5973709998165
          ],
          [
            -71.2584599998845,
            41.6038079998892
          ],
          [
            -71.260123999591,
            41.6116190002166
          ],
          [
            -71.2558809995859,
            41.6150090000406
          ],
          [
            -71.2569109998058,
            41.6208890000954
          ],
          [
            -71.2536379997462,
            41.6325189997569
          ],
          [
            -71.2618509999449,
            41.6463799997175
          ],
          [
            -71.2619079998463,
            41.648183000198
          ],
          [
            -71.2666179998316,
            41.6598129996798
          ],
          [
            -71.272016999555,
            41.6620449998561
          ],
          [
            -71.2745930003789,
            41.6651770003355
          ],
          [
            -71.2787490003453,
            41.6776660002258
          ],
          [
            -71.2804740001511,
            41.711569000003
          ],
          [
            -71.2809639996976,
            41.7218689998043
          ],
          [
            -71.2836090001185,
            41.7344430002673
          ],
          [
            -71.2882089996006,
            41.7374900001444
          ],
          [
            -71.3028139999326,
            41.735945000318
          ],
          [
            -71.3045320000657,
            41.7377039998095
          ],
          [
            -71.3080989998532,
            41.7399360001941
          ],
          [
            -71.3106870003727,
            41.7422529998035
          ],
          [
            -71.3144829995907,
            41.7443129998799
          ],
          [
            -71.3206959996239,
            41.7513510001237
          ],
          [
            -71.3238590000787,
            41.7529390003101
          ],
          [
            -71.3255849997094,
            41.7552999998184
          ],
          [
            -71.3257570001368,
            41.7575309998801
          ],
          [
            -71.3244530002805,
            41.7596340002016
          ],
          [
            -71.3219030002942,
            41.761393999804
          ],
          [
            -71.3208739998992,
            41.7654279998748
          ],
          [
            -71.3273770003606,
            41.7755559998652
          ],
          [
            -71.329626999873,
            41.7778730000193
          ],
          [
            -71.3346850000129,
            41.7815640000354
          ],
          [
            -71.3327290002284,
            41.7878719997257
          ],
          [
            -71.3345700003851,
            41.7909189999835
          ],
          [
            -71.3418799996871,
            41.7913479999563
          ],
          [
            -71.3460819996843,
            41.7924640000749
          ],
          [
            -71.3501680002289,
            41.7951680000108
          ],
          [
            -71.3628889998482,
            41.7980430000127
          ],
          [
            -71.3585189996215,
            41.8110469999816
          ],
          [
            -71.3699739999176,
            41.8135789996896
          ],
          [
            -71.3820660000732,
            41.8177840003241
          ],
          [
            -71.3828719999872,
            41.8190719999302
          ],
          [
            -71.3909339996748,
            41.8192429998787
          ],
          [
            -71.3980160002695,
            41.8182129998781
          ],
          [
            -71.4005500003623,
            41.8184070001045
          ],
          [
            -71.4012120003362,
            41.8188570002789
          ],
          [
            -71.4063940003246,
            41.8167970000832
          ],
          [
            -71.4089860001437,
            41.8155099998279
          ],
          [
            -71.4127570001457,
            41.8150810002444
          ],
          [
            -71.4166729999126,
            41.8141579997373
          ],
          [
            -71.4173640001988,
            41.8135570002506
          ],
          [
            -71.4205019996409,
            41.8149730000417
          ],
          [
            -71.4221460001542,
            41.8171620000618
          ],
          [
            -71.4221460001542,
            41.8171620000618
          ],
          [
            -71.4246500001097,
            41.8149730000417
          ],
          [
            -71.4310849999008,
            41.8115940002947
          ],
          [
            -71.4337620001087,
            41.8093089998621
          ],
          [
            -71.4393779995671,
            41.803483000241
          ],
          [
            -71.4444299998592,
            41.8020990001836
          ],
          [
            -71.4470640004094,
            41.799780999714
          ],
          [
            -71.4483160003872,
            41.7974640003065
          ],
          [
            -71.4485749999549,
            41.7962090002469
          ],
          [
            -71.4520320001375,
            41.7909619997044
          ],
          [
            -71.4523340002613,
            41.7894170002488
          ],
          [
            -71.45142799989,
            41.7878079997094
          ],
          [
            -71.4507800001598,
            41.7837520000553
          ],
          [
            -71.4540180000592,
            41.7845250000546
          ],
          [
            -71.4655439996022,
            41.7820139997708
          ],
          [
            -71.4717600000085,
            41.7805979997088
          ],
          [
            -71.4752129999931,
            41.7797609999186
          ],
          [
            -71.4768559997831,
            41.778248999768
          ],
          [
            -71.4816040003016,
            41.7777010000123
          ],
          [
            -71.4898040000814,
            41.7788280002083
          ],
          [
            -71.4947669997867,
            41.7811779998213
          ],
          [
            -71.50197300023,
            41.7801480000846
          ],
          [
            -71.5107350004247,
            41.7818529999589
          ],
          [
            -71.5192389999782,
            41.7788599996822
          ],
          [
            -71.5358600003691,
            41.7714249998117
          ],
          [
            -71.538750999939,
            41.7688820000426
          ],
          [
            -71.5449649997972,
            41.7662430001781
          ],
          [
            -71.5573070001981,
            41.7650520000103
          ],
          [
            -71.5669270001852,
            41.7637490002179
          ],
          [
            -71.5712770003204,
            41.7615060001918
          ],
          [
            -71.5778429996328,
            41.7577000002607
          ],
          [
            -71.5901430002009,
            41.7501469999337
          ],
          [
            -71.591492000263,
            41.7467540001872
          ],
          [
            -71.594458000176,
            41.7445710002769
          ],
          [
            -71.6046170001134,
            41.7476180001754
          ],
          [
            -71.6145090000871,
            41.745214000075
          ],
          [
            -71.6308409998747,
            41.7368030001469
          ],
          [
            -71.6369369997321,
            41.7296789996775
          ],
          [
            -71.6406180002207,
            41.7277910003116
          ],
          [
            -71.6422280003988,
            41.7257309999008
          ],
          [
            -71.6484389998839,
            41.7242719998736
          ],
          [
            -71.6553399998303,
            41.7192079997145
          ],
          [
            -71.6775380002199,
            41.7180919997631
          ],
          [
            -71.6857039996646,
            41.7208390000831
          ],
          [
            -71.6950209997031,
            41.7160320001954
          ],
          [
            -71.7268809999126,
            41.7221260001574
          ],
          [
            -71.7353409999835,
            41.7171050001301
          ],
          [
            -71.7462649998269,
            41.7145729998884
          ],
          [
            -71.7549459998307,
            41.7101100003214
          ],
          [
            -71.7571879998455,
            41.7076210000724
          ],
          [
            -71.7721410003321,
            41.7039730001557
          ],
          [
            -71.7887529996039,
            41.6984369999225
          ]
        ]
      },
      "properties": {
        "AltMode": -1,
        "Base": 1500,
        "Clamped": 0,
        "Extruded": -1,
        "FolderPath": "M21 in2 RI",
        "Name": "Trail in RI",
        "OBJECTID": 2,
        "PopupInfo": "Tseg 1002 and Tseg1003",
        "Shape__Length": 0.9307843104908438,
        "Snippet": "",
        "SymbolID": 0
      }
    }
  ]
}
