{
  "$schema": "https://ripota.org/schemas/v2/display-geojson.schema.json",
  "type": "FeatureCollection",
  "properties": {
    "schemaVersion": 2,
    "geometryRole": "display",
    "geometryKind": "boundary",
    "potaReference": "US-2880",
    "potaName": "Snake Den State Park",
    "sourceName": "Rhode Island DEM State Conservation Land",
    "sourceUrl": "https://risegis.ri.gov/hosting/rest/services/RIDEM/State_Conservation_Land/MapServer/0",
    "sourceQuery": "DEM_AREA = 'Snake Den State Park'",
    "sourceFeatureIds": [
      751,
      752,
      753,
      754,
      756,
      757,
      758
    ]
  },
  "features": [
    {
      "type": "Feature",
      "properties": {
        "potaReference": "US-2880",
        "potaName": "Snake Den State Park",
        "geometryKind": "boundary",
        "geometryRole": "display"
      },
      "geometry": {
        "type": "MultiPolygon",
        "coordinates": [
          [
            [
              [
                -71.53882893754924,
                41.82911360917367
              ],
              [
                -71.5387856661983,
                41.829224938126806
              ],
              [
                -71.53877321771778,
                41.82930846949369
              ],
              [
                -71.53877329332633,
                41.82943375886126
              ],
              [
                -71.53866807053346,
                41.829684292081176
              ],
              [
                -71.53941259183559,
                41.82991138273528
              ],
              [
                -71.5394187305644,
                41.82982793990617
              ],
              [
                -71.53953032126098,
                41.829679369016525
              ],
              [
                -71.539641919312,
                41.82954940712114
              ],
              [
                -71.53972243857218,
                41.82940556543479
              ],
              [
                -71.53963560065927,
                41.829340677381076
              ],
              [
                -71.53954864204744,
                41.82927107242569
              ],
              [
                -71.53943072959255,
                41.8292015626661
              ],
              [
                -71.53934391330287,
                41.82916908929309
              ],
              [
                -71.53926315723717,
                41.82911346156101
              ],
              [
                -71.53908951831653,
                41.82903925630921
              ],
              [
                -71.53891580400145,
                41.829034683052505
              ],
              [
                -71.53882893754924,
                41.82911360917367
              ]
            ]
          ],
          [
            [
              [
                -71.53851903990525,
                41.83093211854698
              ],
              [
                -71.53833073492508,
                41.83093055804188
              ],
              [
                -71.538153117028,
                41.83092908480315
              ],
              [
                -71.53814093812785,
                41.82988089170911
              ],
              [
                -71.53813900194302,
                41.82971582058619
              ],
              [
                -71.537791312603,
                41.82961321222353
              ],
              [
                -71.53780301787218,
                41.830711202405766
              ],
              [
                -71.53710391873113,
                41.83071143037268
              ],
              [
                -71.53673629874146,
                41.83071154854171
              ],
              [
                -71.53671640726367,
                41.82956195342919
              ],
              [
                -71.53634467277443,
                41.82959949065301
              ],
              [
                -71.53455449200817,
                41.82978024154124
              ],
              [
                -71.53509237625329,
                41.83053843941363
              ],
              [
                -71.5348081725565,
                41.83063595067226
              ],
              [
                -71.53509901447353,
                41.83127077034244
              ],
              [
                -71.53453557685279,
                41.83145324174676
              ],
              [
                -71.53471209966597,
                41.8317514770758
              ],
              [
                -71.53432100767185,
                41.83188273434818
              ],
              [
                -71.53288743616447,
                41.832363850916714
              ],
              [
                -71.53294285627194,
                41.832725387623704
              ],
              [
                -71.5329373637565,
                41.83349680017017
              ],
              [
                -71.53235802315183,
                41.83444980649989
              ],
              [
                -71.53270501982925,
                41.83495464134427
              ],
              [
                -71.53287946961981,
                41.835363730437685
              ],
              [
                -71.53427122780313,
                41.83862723768532
              ],
              [
                -71.53119197715363,
                41.83893775215976
              ],
              [
                -71.5308859338341,
                41.83796136279707
              ],
              [
                -71.529661355622,
                41.83824625534003
              ],
              [
                -71.52916040759352,
                41.83704756397792
              ],
              [
                -71.52788661786515,
                41.83672617426475
              ],
              [
                -71.5275899910035,
                41.83660210730127
              ],
              [
                -71.52739276419791,
                41.836519615122604
              ],
              [
                -71.52698726783281,
                41.83635001000542
              ],
              [
                -71.52691890463676,
                41.83632141510621
              ],
              [
                -71.5248959012284,
                41.8363423145195
              ],
              [
                -71.5245506244289,
                41.83645433687772
              ],
              [
                -71.52435551057275,
                41.8368336277971
              ],
              [
                -71.52436585989847,
                41.83705676626125
              ],
              [
                -71.52435888629564,
                41.83750322639963
              ],
              [
                -71.52434156903307,
                41.837726122211215
              ],
              [
                -71.5242220352447,
                41.83780838794183
              ],
              [
                -71.52421848215263,
                41.83781410853731
              ],
              [
                -71.52592361783545,
                41.840819045156955
              ],
              [
                -71.52506754718851,
                41.84352297552019
              ],
              [
                -71.52437008361147,
                41.84572576617821
              ],
              [
                -71.5232262109393,
                41.84933811009498
              ],
              [
                -71.52329000261854,
                41.85182442493861
              ],
              [
                -71.5219906918392,
                41.85188872556197
              ],
              [
                -71.521964560758,
                41.853515454005105
              ],
              [
                -71.5224099533219,
                41.85379780764981
              ],
              [
                -71.52243811417259,
                41.85423071846301
              ],
              [
                -71.5226727514704,
                41.854232670222906
              ],
              [
                -71.52266916877839,
                41.85456332533899
              ],
              [
                -71.52223053423415,
                41.85489696005337
              ],
              [
                -71.5223146770166,
                41.8549476686156
              ],
              [
                -71.52290528614432,
                41.854484324493384
              ],
              [
                -71.52332557734964,
                41.85449568045601
              ],
              [
                -71.52484562663163,
                41.85494434889938
              ],
              [
                -71.52574705724221,
                41.85521772976693
              ],
              [
                -71.52575695244559,
                41.855331042819806
              ],
              [
                -71.52568561846921,
                41.8554031567275
              ],
              [
                -71.52601713153037,
                41.855537616467174
              ],
              [
                -71.5254890352062,
                41.85617381165102
              ],
              [
                -71.5257020747475,
                41.85628703800705
              ],
              [
                -71.52598053760697,
                41.85645810110242
              ],
              [
                -71.52619561373086,
                41.85661144049643
              ],
              [
                -71.52695784049428,
                41.856354399461665
              ],
              [
                -71.52783602833198,
                41.85687002151325
              ],
              [
                -71.52871631428299,
                41.85738685983318
              ],
              [
                -71.52928431277036,
                41.85772033812951
              ],
              [
                -71.53164989854814,
                41.85705378787626
              ],
              [
                -71.53181769849584,
                41.85659060297465
              ],
              [
                -71.53202195727472,
                41.85620751583096
              ],
              [
                -71.532236011635,
                41.856052187786254
              ],
              [
                -71.53255044577344,
                41.85597310911044
              ],
              [
                -71.53285375330047,
                41.85589979670076
              ],
              [
                -71.53319375956524,
                41.85581041451337
              ],
              [
                -71.53454074798721,
                41.8547715555301
              ],
              [
                -71.53378422730381,
                41.85287629567266
              ],
              [
                -71.53725565716515,
                41.849056119374104
              ],
              [
                -71.53733178703712,
                41.8486949698569
              ],
              [
                -71.53858546720397,
                41.847720799622905
              ],
              [
                -71.5389433065871,
                41.84749554706076
              ],
              [
                -71.53918494310152,
                41.84727200860608
              ],
              [
                -71.53978064809927,
                41.84649917475369
              ],
              [
                -71.54029699312156,
                41.845905561363566
              ],
              [
                -71.54044490561128,
                41.845735511426646
              ],
              [
                -71.54216665008292,
                41.8450889178029
              ],
              [
                -71.54275693765224,
                41.844757924875346
              ],
              [
                -71.54457091775836,
                41.84400335986623
              ],
              [
                -71.54462125520062,
                41.84341832843268
              ],
              [
                -71.5449481124446,
                41.8427781235219
              ],
              [
                -71.54500140041208,
                41.842537074327836
              ],
              [
                -71.54511854960953,
                41.84236791265396
              ],
              [
                -71.54529192395265,
                41.8422364591244
              ],
              [
                -71.54530113349367,
                41.84224148387502
              ],
              [
                -71.54530020166794,
                41.84222966551744
              ],
              [
                -71.54546390582335,
                41.84207111719206
              ],
              [
                -71.54554159362748,
                41.841990347781056
              ],
              [
                -71.54563569791988,
                41.841824643890874
              ],
              [
                -71.5456923287187,
                41.84169731820055
              ],
              [
                -71.54576488830044,
                41.841627278191055
              ],
              [
                -71.54597421525483,
                41.84151497476195
              ],
              [
                -71.54625058362872,
                41.84140147893567
              ],
              [
                -71.54682904363138,
                41.84115982901025
              ],
              [
                -71.54705023730952,
                41.841085076342154
              ],
              [
                -71.54710737577557,
                41.84104396062725
              ],
              [
                -71.54718427173293,
                41.840302851491
              ],
              [
                -71.54719507361703,
                41.839763342347425
              ],
              [
                -71.5472116700383,
                41.83912391940869
              ],
              [
                -71.54721841389184,
                41.838864095408674
              ],
              [
                -71.54724625322137,
                41.837665819058046
              ],
              [
                -71.5473521054824,
                41.83765688735645
              ],
              [
                -71.54809187273426,
                41.83511012966364
              ],
              [
                -71.54740951229248,
                41.83499864626
              ],
              [
                -71.54768577879753,
                41.83402521755937
              ],
              [
                -71.54707774848634,
                41.83395546707686
              ],
              [
                -71.54680408096557,
                41.83392133004836
              ],
              [
                -71.54323844227281,
                41.83347256386724
              ],
              [
                -71.54332776084328,
                41.83295183112769
              ],
              [
                -71.54359508960928,
                41.832018370514994
              ],
              [
                -71.54141368633108,
                41.83194535269237
              ],
              [
                -71.54126583897919,
                41.831475601936965
              ],
              [
                -71.54074251190784,
                41.83155758994576
              ],
              [
                -71.54041988929058,
                41.8305447227709
              ],
              [
                -71.54005171609656,
                41.83027769056184
              ],
              [
                -71.5391186435475,
                41.82998592145631
              ],
              [
                -71.53874258489701,
                41.829851324885645
              ],
              [
                -71.53852310658446,
                41.82979733334714
              ],
              [
                -71.53852207622471,
                41.83089772079133
              ],
              [
                -71.53851903990525,
                41.83093211854698
              ]
            ]
          ]
        ]
      }
    }
  ]
}
