{
  "$schema": "https://ripota.org/schemas/v2/display-geojson.schema.json",
  "type": "FeatureCollection",
  "properties": {
    "schemaVersion": 2,
    "geometryRole": "display",
    "geometryKind": "activation-zone",
    "potaReference": "US-4582",
    "potaName": "Washington-Rochambeau Revolutionary Route National Historic Trail",
    "sourceName": "Washington Rochambeau National Historic Trail Route",
    "sourceUrl": "https://services.arcgis.com/hRUr1F8lE8Jq2uJo/arcgis/rest/services/Washington_Rochambeau_National_Historic_Trail_Route/FeatureServer/2",
    "sourceQuery": "Name = 'Trail in RI'",
    "sourceFeatureIds": [
      2
    ],
    "notes": "Buffered from the NPS Rhode Island route segment using POTA's 100-foot trail activation-zone rule.",
    "bufferDistanceFeet": 100,
    "bufferDistanceMeters": 30.48,
    "bufferRuleSourceUrl": "https://docs.pota.app/docs/activator_reference/activator_guide-english.html#special-considerations-for-trails"
  },
  "features": [
    {
      "type": "Feature",
      "properties": {
        "potaReference": "US-4582",
        "potaName": "Washington-Rochambeau Revolutionary Route National Historic Trail",
        "geometryKind": "activation-zone",
        "geometryRole": "display"
      },
      "geometry": {
        "type": "Polygon",
        "coordinates": [
          [
            [
              -71.32306305906098,
              41.475567675162054
            ],
            [
              -71.32306257721069,
              41.475565721750044
            ],
            [
              -71.314012577136,
              41.47680972175055
            ],
            [
              -71.31401305898629,
              41.47681167516256
            ],
            [
              -71.31398406856393,
              41.476814524280385
            ],
            [
              -71.31389560630791,
              41.47684187754016
            ],
            [
              -71.31381964204652,
              41.476885390292736
            ],
            [
              -71.31376135261864,
              41.47694209721593
            ],
            [
              -71.31372471035245,
              41.47700813382665
            ],
            [
              -71.31371221235781,
              41.477078999839
            ],
            [
              -71.31371558605132,
              41.47709812932435
            ],
            [
              -71.3137131208441,
              41.47709825908852
            ],
            [
              -71.31469012046219,
              41.48744125940282
            ],
            [
              -71.3146925856694,
              41.48744112963865
            ],
            [
              -71.31470170997054,
              41.48749286616565
            ],
            [
              -71.31473835223673,
              41.48755890277637
            ],
            [
              -71.31479664166461,
              41.48761560969957
            ],
            [
              -71.31483882060536,
              41.48763977003206
            ],
            [
              -71.31483696974736,
              41.48764162592338
            ],
            [
              -71.31647997121095,
              41.488554712672986
            ],
            [
              -71.31708683568314,
              41.49408573931057
            ],
            [
              -71.31641502884187,
              41.49482066860289
            ],
            [
              -71.31641715428951,
              41.4948217512896
            ],
            [
              -71.31640035229334,
              41.49483809712693
            ],
            [
              -71.31636371002715,
              41.49490413373765
            ],
            [
              -71.31635121203252,
              41.49497499975
            ],
            [
              -71.31635424851476,
              41.4949922171832
            ],
            [
              -71.31635194714156,
              41.49499232611402
            ],
            [
              -71.31675269947834,
              41.49971041241609
            ],
            [
              -71.31715350891318,
              41.50683102916241
            ],
            [
              -71.31744267086894,
              41.51242182488081
            ],
            [
              -71.31375015154786,
              41.517615559147444
            ],
            [
              -71.31096096474782,
              41.51898067908074
            ],
            [
              -71.30020510445091,
              41.51796336608439
            ],
            [
              -71.30020471056599,
              41.517965686754685
            ],
            [
              -71.3001590003643,
              41.51796119445206
            ],
            [
              -71.30006406867022,
              41.517970524139585
            ],
            [
              -71.29997560641421,
              41.51799787739936
            ],
            [
              -71.29989964215282,
              41.518041390151936
            ],
            [
              -71.29984135272494,
              41.51809809707513
            ],
            [
              -71.29980471045874,
              41.51816413368585
            ],
            [
              -71.29980400086062,
              41.518168157242535
            ],
            [
              -71.29980335128405,
              41.5181680349345
            ],
            [
              -71.29729071454427,
              41.52560436373385
            ],
            [
              -71.2931191733187,
              41.53162826434221
            ],
            [
              -71.29312080645255,
              41.531628894564925
            ],
            [
              -71.29309071011014,
              41.53168313412635
            ],
            [
              -71.29308678222051,
              41.53170540600937
            ],
            [
              -71.29308412239305,
              41.53170504518978
            ],
            [
              -71.29102612250126,
              41.54015904488868
            ],
            [
              -71.29102878232872,
              41.54015940570827
            ],
            [
              -71.29102021222371,
              41.5402079998376
            ],
            [
              -71.29102347640352,
              41.540226508359424
            ],
            [
              -71.29102106237744,
              41.54022663126765
            ],
            [
              -71.29176360987664,
              41.548353790853334
            ],
            [
              -71.29131150809918,
              41.550980523168164
            ],
            [
              -71.29040320991243,
              41.55463152553117
            ],
            [
              -71.28484181224013,
              41.56401762029828
            ],
            [
              -71.28091328853603,
              41.56607588489051
            ],
            [
              -71.28091490211511,
              41.56607760110657
            ],
            [
              -71.28086464221802,
              41.56610639025593
            ],
            [
              -71.28083807182476,
              41.5661322392873
            ],
            [
              -71.2808356240556,
              41.56613080312803
            ],
            [
              -71.2721146238688,
              41.574413803473036
            ],
            [
              -71.27211707163796,
              41.5744152396323
            ],
            [
              -71.27208535260334,
              41.57444609752413
            ],
            [
              -71.27204871033715,
              41.57451213413485
            ],
            [
              -71.27204594101106,
              41.57452783674175
            ],
            [
              -71.27204382381105,
              41.574527509647666
            ],
            [
              -71.26786739204687,
              41.58959178052512
            ],
            [
              -71.26210040224636,
              41.59723665021347
            ],
            [
              -71.26210083486741,
              41.597236832074756
            ],
            [
              -71.26208929567002,
              41.59725762799065
            ],
            [
              -71.26208668044734,
              41.59725673144194
            ],
            [
              -71.25812668029943,
              41.60369373151464
            ],
            [
              -71.25812929552211,
              41.60369462806335
            ],
            [
              -71.25810570997893,
              41.60373713387685
            ],
            [
              -71.2580932119843,
              41.6038079998892
            ],
            [
              -71.25810073373196,
              41.603850649632484
            ],
            [
              -71.25809776383748,
              41.60385100219906
            ],
            [
              -71.25973361042048,
              41.61152984862279
            ],
            [
              -71.25561299058808,
              41.61482207122233
            ],
            [
              -71.25561402942746,
              41.614822795783894
            ],
            [
              -71.25556335194653,
              41.61487209741753
            ],
            [
              -71.25552670968034,
              41.61493813402825
            ],
            [
              -71.2555142116857,
              41.6150090000406
            ],
            [
              -71.25552041920317,
              41.61504419784809
            ],
            [
              -71.25551730790814,
              41.61504450155503
            ],
            [
              -71.25653921554773,
              41.62087830319969
            ],
            [
              -71.25327904755423,
              41.6324627064904
            ],
            [
              -71.25328108346838,
              41.63246302577598
            ],
            [
              -71.25327121184601,
              41.6325189997569
            ],
            [
              -71.25328370984064,
              41.63258986576925
            ],
            [
              -71.25330533638714,
              41.63262884108329
            ],
            [
              -71.25330256045612,
              41.63262975766138
            ],
            [
              -71.26148603614469,
              41.64644092939555
            ],
            [
              -71.26154131404328,
              41.64818946009937
            ],
            [
              -71.26154234800774,
              41.64818944188402
            ],
            [
              -71.26155370994074,
              41.648253866210354
            ],
            [
              -71.26155819267463,
              41.6482619449834
            ],
            [
              -71.26155690580823,
              41.64826223540452
            ],
            [
              -71.26626690579353,
              41.65989223488632
            ],
            [
              -71.26626819265992,
              41.6598919444652
            ],
            [
              -71.26630035219223,
              41.65994990230287
            ],
            [
              -71.26635864162012,
              41.660006609226066
            ],
            [
              -71.2664346058815,
              41.66005012197864
            ],
            [
              -71.26644069035197,
              41.66005200334714
            ],
            [
              -71.26644030211334,
              41.660052526672
            ],
            [
              -71.27175490388511,
              41.66224963589579
            ],
            [
              -71.27425071924641,
              41.66528414381813
            ],
            [
              -71.27838391234438,
              41.67770460786158
            ],
            [
              -71.28010745937107,
              41.71157905484119
            ],
            [
              -71.28059744286813,
              41.72187871727649
            ],
            [
              -71.28059891867974,
              41.72187867815252
            ],
            [
              -71.28060464090112,
              41.721911124238694
            ],
            [
              -71.28060165197994,
              41.72191147460333
            ],
            [
              -71.28324665240083,
              41.73448547506633
            ],
            [
              -71.28324964132202,
              41.73448512470169
            ],
            [
              -71.28325471021294,
              41.73451386627965
            ],
            [
              -71.28329135247914,
              41.73457990289037
            ],
            [
              -71.28334964190702,
              41.73463660981356
            ],
            [
              -71.28336702595963,
              41.73464656749585
            ],
            [
              -71.28336555765334,
              41.734647802747766
            ],
            [
              -71.28796555713544,
              41.737694802624866
            ],
            [
              -71.28796702544173,
              41.73769356737295
            ],
            [
              -71.2880256056505,
              41.73772712244324
            ],
            [
              -71.28811406790652,
              41.737754475703014
            ],
            [
              -71.2882089996006,
              41.737763805390536
            ],
            [
              -71.2882600251109,
              41.737758790710544
            ],
            [
              -71.28826046289977,
              41.737761096880874
            ],
            [
              -71.3026473840443,
              41.73623916670864
            ],
            [
              -71.30423562259841,
              41.73786530791504
            ],
            [
              -71.30423806985657,
              41.73786397595624
            ],
            [
              -71.30427264185423,
              41.73789760935576
            ],
            [
              -71.30429817484591,
              41.7379122347958
            ],
            [
              -71.30429637644013,
              41.73791383638096
            ],
            [
              -71.30783827026846,
              41.740130127061654
            ],
            [
              -71.31040529163853,
              41.742428344340574
            ],
            [
              -71.31040747226565,
              41.742426987048425
            ],
            [
              -71.31042764216122,
              41.74244660934976
            ],
            [
              -71.31047309892392,
              41.74247264723695
            ],
            [
              -71.31047132554961,
              41.74247446824899
            ],
            [
              -71.31421341027726,
              41.74450521019128
            ],
            [
              -71.32038973286146,
              41.75150166272967
            ],
            [
              -71.32039156800388,
              41.75150075996328
            ],
            [
              -71.32043664141241,
              41.75154460966996
            ],
            [
              -71.32049265934396,
              41.751576697053565
            ],
            [
              -71.32049130432787,
              41.751578201049576
            ],
            [
              -71.32357995597083,
              41.75312887404341
            ],
            [
              -71.32522355321655,
              41.75537715510901
            ],
            [
              -71.3253855379285,
              41.75747824234372
            ],
            [
              -71.32415065664283,
              41.75946977303922
            ],
            [
              -71.32165399652449,
              41.761192957682056
            ],
            [
              -71.32165508441248,
              41.76119383602743
            ],
            [
              -71.32164364208272,
              41.761200390257734
            ],
            [
              -71.32158535265484,
              41.76125709718093
            ],
            [
              -71.32154871038864,
              41.76132313379165
            ],
            [
              -71.32154518249732,
              41.76134313760808
            ],
            [
              -71.32154268649455,
              41.76134278281248
            ],
            [
              -71.32051368609956,
              41.76537678288328
            ],
            [
              -71.32051618210232,
              41.76537713767888
            ],
            [
              -71.32050721199901,
              41.7654279998748
            ],
            [
              -71.32051970999365,
              41.76549886588715
            ],
            [
              -71.32054558955952,
              41.76554550598326
            ],
            [
              -71.32054324322091,
              41.76554634550956
            ],
            [
              -71.3270462436823,
              41.77567434549996
            ],
            [
              -71.32704859002091,
              41.77567350597366
            ],
            [
              -71.32705935272124,
              41.77569290248827
            ],
            [
              -71.32708246337074,
              41.775715385704764
            ],
            [
              -71.32708003211819,
              41.77571670135354
            ],
            [
              -71.32933003163059,
              41.77803370150764
            ],
            [
              -71.32933246288314,
              41.778032385858864
            ],
            [
              -71.32936764166152,
              41.77806660956556
            ],
            [
              -71.32937096884585,
              41.778068515395304
            ],
            [
              -71.3293706026905,
              41.77806879500595
            ],
            [
              -71.33428116362916,
              41.78165220346826
            ],
            [
              -71.33237166065722,
              41.78781025330605
            ],
            [
              -71.33237305935877,
              41.7878104949944
            ],
            [
              -71.3323622123282,
              41.7878719997257
            ],
            [
              -71.33237471032284,
              41.78794286573805
            ],
            [
              -71.33239734874782,
              41.78798366465725
            ],
            [
              -71.33239464779965,
              41.78798457404921
            ],
            [
              -71.33423564795635,
              41.791031574307006
            ],
            [
              -71.33423834890452,
              41.79103066491504
            ],
            [
              -71.33425235274574,
              41.791055902606566
            ],
            [
              -71.33431064217362,
              41.79111260952976
            ],
            [
              -71.334386606435,
              41.79115612228234
            ],
            [
              -71.33447506869102,
              41.79118347554211
            ],
            [
              -71.33454146023192,
              41.79119000036332
            ],
            [
              -71.33454125353869,
              41.79119196299975
            ],
            [
              -71.34180282260284,
              41.79161812076014
            ],
            [
              -71.3458919673069,
              41.792704147884784
            ],
            [
              -71.34992468523573,
              41.795372886888124
            ],
            [
              -71.34992616076795,
              41.79537164439507
            ],
            [
              -71.34998460627881,
              41.79540512230964
            ],
            [
              -71.3500621116054,
              41.79542908759639
            ],
            [
              -71.35006171787762,
              41.79543005840357
            ],
            [
              -71.36244818911005,
              41.79822945356767
            ],
            [
              -71.35816323519002,
              41.81098037753845
            ],
            [
              -71.35816393810161,
              41.81098050916962
            ],
            [
              -71.3581522117213,
              41.8110469999816
            ],
            [
              -71.35816470971594,
              41.81111786599395
            ],
            [
              -71.35820135198213,
              41.81118390260467
            ],
            [
              -71.35825964141002,
              41.811240609527864
            ],
            [
              -71.3583356056714,
              41.81128412228044
            ],
            [
              -71.35841518326545,
              41.811308728329394
            ],
            [
              -71.35841486218197,
              41.81130953780347
            ],
            [
              -71.36984377626476,
              41.813835771445746
            ],
            [
              -71.38179015871756,
              41.81799013343282
            ],
            [
              -71.38253968313836,
              41.819187884377925
            ],
            [
              -71.3825422023651,
              41.81918700588139
            ],
            [
              -71.38255435234784,
              41.81920890255327
            ],
            [
              -71.38261264177572,
              41.81926560947647
            ],
            [
              -71.3826886060371,
              41.81930912222904
            ],
            [
              -71.38277706829312,
              41.81933647548882
            ],
            [
              -71.38286161705797,
              41.819344784763864
            ],
            [
              -71.38286158242268,
              41.81934569471717
            ],
            [
              -71.39092358211028,
              41.81951669466567
            ],
            [
              -71.39092361674557,
              41.819515784712365
            ],
            [
              -71.3909339996748,
              41.81951680512484
            ],
            [
              -71.39100367362148,
              41.81950995771569
            ],
            [
              -71.39100414189491,
              41.81951175191953
            ],
            [
              -71.39803272126548,
              41.81848952145525
            ],
            [
              -71.40039238455809,
              41.818670174650286
            ],
            [
              -71.40096504801043,
              41.819059447556015
            ],
            [
              -71.40096629142903,
              41.819058428222796
            ],
            [
              -71.4010286063861,
              41.819094122577745
            ],
            [
              -71.40111706864212,
              41.81912147583752
            ],
            [
              -71.4012120003362,
              41.81913080552504
            ],
            [
              -71.40130693203028,
              41.81912147583752
            ],
            [
              -71.4013837298067,
              41.81909772933112
            ],
            [
              -71.40138440358692,
              41.81909867383105
            ],
            [
              -71.40656640357531,
              41.817038673635345
            ],
            [
              -71.40656572979509,
              41.817037729135414
            ],
            [
              -71.40657739427469,
              41.81703412238204
            ],
            [
              -71.40659585849285,
              41.8170235459749
            ],
            [
              -71.4065971359894,
              41.817024979712244
            ],
            [
              -71.40912152885227,
              41.81577154819769
            ],
            [
              -71.4128122591557,
              41.81535168032122
            ],
            [
              -71.412811797734,
              41.81534942009864
            ],
            [
              -71.41285193183978,
              41.815345475803014
            ],
            [
              -71.41286690600025,
              41.81534084566899
            ],
            [
              -71.41286743642621,
              41.815342099731026
            ],
            [
              -71.41678343619311,
              41.814419099223926
            ],
            [
              -71.41678290576715,
              41.81441784516189
            ],
            [
              -71.4168563938627,
              41.81439512203614
            ],
            [
              -71.41693235812409,
              41.81435160928356
            ],
            [
              -71.41694936257362,
              41.8143350664893
            ],
            [
              -71.41695132908318,
              41.814336326440475
            ],
            [
              -71.41744005048423,
              41.81391125959601
            ],
            [
              -71.42022940516415,
              41.815169935933255
            ],
            [
              -71.42182606263424,
              41.81729589830727
            ],
            [
              -71.4218265680759,
              41.817295686772994
            ],
            [
              -71.42182835251484,
              41.81729890268487
            ],
            [
              -71.42188664194272,
              41.817355609608065
            ],
            [
              -71.4219626062041,
              41.81739912236064
            ],
            [
              -71.42205106846012,
              41.817426475620415
            ],
            [
              -71.4221460001542,
              41.81743580530794
            ],
            [
              -71.42224093184828,
              41.817426475620415
            ],
            [
              -71.4223293941043,
              41.81739912236064
            ],
            [
              -71.42240535836568,
              41.817355609608065
            ],
            [
              -71.4224229223491,
              41.81733852247074
            ],
            [
              -71.42242493050087,
              41.81733980255517
            ],
            [
              -71.42489887842564,
              41.815177074059434
            ],
            [
              -71.4312960263889,
              41.81181795019757
            ],
            [
              -71.4312944011743,
              41.81181622545365
            ],
            [
              -71.43134435811228,
              41.81178760984096
            ],
            [
              -71.43135929727761,
              41.81177307626032
            ],
            [
              -71.4313610963218,
              41.81177425077238
            ],
            [
              -71.43403809652969,
              41.80948925033978
            ],
            [
              -71.4340362974855,
              41.80948807582772
            ],
            [
              -71.4340573119189,
              41.80946763191698
            ],
            [
              -71.43405971936514,
              41.80946892512006
            ],
            [
              -71.43960999688446,
              41.80371110499133
            ],
            [
              -71.44455636431724,
              41.80235604315145
            ],
            [
              -71.44455538850004,
              41.80235405820287
            ],
            [
              -71.44461339380929,
              41.802336122482444
            ],
            [
              -71.44468935807068,
              41.80229260972987
            ],
            [
              -71.44470765006163,
              41.80227481434975
            ],
            [
              -71.4447097099761,
              41.802276118732536
            ],
            [
              -71.4473437105263,
              41.799958118262936
            ],
            [
              -71.44734165061183,
              41.79995681388015
            ],
            [
              -71.44738164804876,
              41.79991790233707
            ],
            [
              -71.44740126199434,
              41.79988255412792
            ],
            [
              -71.44740415753334,
              41.79988342601721
            ],
            [
              -71.44865615751114,
              41.797566426609706
            ],
            [
              -71.44865326197214,
              41.797565554720414
            ],
            [
              -71.44867029029275,
              41.79753486631885
            ],
            [
              -71.44867549697126,
              41.797505343459044
            ],
            [
              -71.44867851165986,
              41.797505690157
            ],
            [
              -71.44892894971511,
              41.796292175489576
            ],
            [
              -71.45236113375807,
              41.791082840637365
            ],
            [
              -71.4523589956395,
              41.79108205563022
            ],
            [
              -71.45238629004307,
              41.79103286571675
            ],
            [
              -71.45239187473068,
              41.791001199473264
            ],
            [
              -71.45239494453025,
              41.79100153385484
            ],
            [
              -71.45269694465405,
              41.789456534399235
            ],
            [
              -71.45269387485448,
              41.78945620001766
            ],
            [
              -71.4527007881615,
              41.7894170002488
            ],
            [
              -71.45268829016686,
              41.789346134236446
            ],
            [
              -71.45266924309313,
              41.78931180764249
            ],
            [
              -71.45267213128979,
              41.78931090138319
            ],
            [
              -71.45178610308412,
              41.78773737017282
            ],
            [
              -71.45121178191916,
              41.7841425439131
            ],
            [
              -71.45390627599117,
              41.78478579406149
            ],
            [
              -71.45390684750697,
              41.784784459989986
            ],
            [
              -71.45392306836511,
              41.784789475613216
            ],
            [
              -71.4540180000592,
              41.78479880530074
            ],
            [
              -71.45411293175327,
              41.784789475613216
            ],
            [
              -71.45412048245869,
              41.78478714087277
            ],
            [
              -71.45412075617068,
              41.78478784100359
            ],
            [
              -71.46564675571369,
              41.78227684071979
            ],
            [
              -71.4656464820017,
              41.78227614058897
            ],
            [
              -71.46565063484152,
              41.78227485649661
            ],
            [
              -71.46565105441935,
              41.78227588288995
            ],
            [
              -71.47186705482565,
              41.780859882827954
            ],
            [
              -71.47186663524782,
              41.78085885643462
            ],
            [
              -71.47187265884195,
              41.78085699388959
            ],
            [
              -71.47187327902945,
              41.78085841965401
            ],
            [
              -71.47532627901406,
              41.78002141986381
            ],
            [
              -71.47532565882655,
              41.7800199940994
            ],
            [
              -71.4753963939432,
              41.77999812221744
            ],
            [
              -71.47547235820458,
              41.779954609464866
            ],
            [
              -71.47549552053151,
              41.779932075973946
            ],
            [
              -71.47549785439777,
              41.7799334892115
            ],
            [
              -71.47705177903357,
              41.77850346207598
            ],
            [
              -71.48159866656708,
              41.77797867416834
            ],
            [
              -71.48966761512341,
              41.77908766280842
            ],
            [
              -71.49457053484339,
              41.78140921431532
            ],
            [
              -71.49457143748462,
              41.78140815202027
            ],
            [
              -71.49458360583661,
              41.781415122120144
            ],
            [
              -71.49467206809263,
              41.78144247537992
            ],
            [
              -71.4947669997867,
              41.78145180506744
            ],
            [
              -71.49483550425693,
              41.78144507259198
            ],
            [
              -71.49483597804004,
              41.78144691969144
            ],
            [
              -71.50196062931343,
              41.78042854771194
            ],
            [
              -71.51064248079321,
              41.78211795142717
            ],
            [
              -71.51064256143344,
              41.782117720495116
            ],
            [
              -71.5107350004247,
              41.78212680520504
            ],
            [
              -71.51082993211878,
              41.782117475517516
            ],
            [
              -71.5108902575437,
              41.78209882239817
            ],
            [
              -71.51089141788017,
              41.782100659587606
            ],
            [
              -71.51939541743367,
              41.7791076593109
            ],
            [
              -71.5193942570972,
              41.779105822121466
            ],
            [
              -71.5194223939283,
              41.77909712198104
            ],
            [
              -71.51942715590442,
              41.77909439429455
            ],
            [
              -71.51942753374831,
              41.7790948649923
            ],
            [
              -71.53604853413921,
              41.771659865121805
            ],
            [
              -71.53604815629532,
              41.771659394424056
            ],
            [
              -71.53611935858058,
              41.771618609357965
            ],
            [
              -71.5361376003172,
              41.771600862867814
            ],
            [
              -71.53613965674685,
              41.771602165641845
            ],
            [
              -71.53898871343287,
              41.76909605994397
            ],
            [
              -71.54508362142921,
              41.76650763674739
            ],
            [
              -71.55735402378673,
              41.76532354577412
            ],
            [
              -71.55735362162127,
              41.76532122340088
            ],
            [
              -71.5573719989846,
              41.765319417312206
            ],
            [
              -71.55737248247414,
              41.76532140647956
            ],
            [
              -71.56699248246125,
              41.76401840668716
            ],
            [
              -71.56699199897172,
              41.764016417519805
            ],
            [
              -71.56702193187928,
              41.764013475776515
            ],
            [
              -71.5671103941353,
              41.76398612251674
            ],
            [
              -71.56713393451385,
              41.76397263845662
            ],
            [
              -71.56713545913146,
              41.76397428614263
            ],
            [
              -71.57148545926667,
              41.76173128611653
            ],
            [
              -71.57148393464905,
              41.76172963843052
            ],
            [
              -71.57150003465881,
              41.761720416255145
            ],
            [
              -71.57150195549741,
              41.76172226287057
            ],
            [
              -71.5780679548098,
              41.75791626293947
            ],
            [
              -71.5780660339712,
              41.75791441632404
            ],
            [
              -71.57807415122261,
              41.75790976671716
            ],
            [
              -71.57807601209856,
              41.75791145543302
            ],
            [
              -71.59037601266667,
              41.75035845510602
            ],
            [
              -71.59037415179071,
              41.75035676639016
            ],
            [
              -71.59040235841238,
              41.75034060947996
            ],
            [
              -71.59046064784026,
              41.75028390255677
            ],
            [
              -71.5904935205213,
              41.75022465948403
            ],
            [
              -71.59049462805547,
              41.75022490486383
            ],
            [
              -71.59181676022567,
              41.74689948313528
            ],
            [
              -71.59454432732292,
              41.74489197170464
            ],
            [
              -71.60448025467824,
              41.74787206520102
            ],
            [
              -71.6044814168595,
              41.74786990593616
            ],
            [
              -71.60452206841931,
              41.747882475734016
            ],
            [
              -71.6046170001134,
              41.74789180542154
            ],
            [
              -71.60471193180747,
              41.747882475734016
            ],
            [
              -71.60472991565673,
              41.74787691497937
            ],
            [
              -71.60473054402652,
              41.747878355828306
            ],
            [
              -71.61462254400023,
              41.74547435572791
            ],
            [
              -71.61462191563044,
              41.745472914878974
            ],
            [
              -71.61469239403719,
              41.745451122373844
            ],
            [
              -71.61471576884945,
              41.74543773315102
            ],
            [
              -71.6147172862446,
              41.74543937504065
            ],
            [
              -71.63104928603221,
              41.737028375112544
            ],
            [
              -71.63104776863706,
              41.73702673322292
            ],
            [
              -71.63110035808619,
              41.736996609693165
            ],
            [
              -71.63114860047243,
              41.73694967704361
            ],
            [
              -71.63115010666559,
              41.736950395259825
            ],
            [
              -71.6372060456635,
              41.72987321132396
            ],
            [
              -71.64082571052819,
              41.728016671236425
            ],
            [
              -71.64082421760452,
              41.72801504922031
            ],
            [
              -71.64087735843218,
              41.72798460985786
            ],
            [
              -71.64093462500419,
              41.72792889802093
            ],
            [
              -71.6409348111654,
              41.72792897909861
            ],
            [
              -71.64247335585057,
              41.725960406221034
            ],
            [
              -71.6485490977095,
              41.7245331789996
            ],
            [
              -71.64854857819275,
              41.72453194657803
            ],
            [
              -71.64862239383399,
              41.72450912217244
            ],
            [
              -71.64869584523939,
              41.72446704879779
            ],
            [
              -71.6486961256257,
              41.724467261723774
            ],
            [
              -71.65550022197522,
              41.7194743700756
            ],
            [
              -71.67747102699204,
              41.718369792325326
            ],
            [
              -71.68555330696978,
              41.72108862984614
            ],
            [
              -71.68555452582154,
              41.72108661075904
            ],
            [
              -71.68560906797052,
              41.72110347564172
            ],
            [
              -71.6857039996646,
              41.72111280532924
            ],
            [
              -71.68579893135868,
              41.72110347564172
            ],
            [
              -71.68588739361469,
              41.721076122381945
            ],
            [
              -71.68591101434973,
              41.72106259229319
            ],
            [
              -71.68591254245166,
              41.721064242763966
            ],
            [
              -71.69509196475967,
              41.71632822453691
            ],
            [
              -71.72678995894991,
              41.722391236907306
            ],
            [
              -71.72679008473399,
              41.722390870450724
            ],
            [
              -71.7268809999126,
              41.72239980540354
            ],
            [
              -71.72697593160667,
              41.72239047571602
            ],
            [
              -71.72706439386269,
              41.722363122456244
            ],
            [
              -71.72710734316871,
              41.72233852085423
            ],
            [
              -71.7271092624466,
              41.72234032292371
            ],
            [
              -71.73551543613395,
              41.71735126879134
            ],
            [
              -71.74637376360998,
              41.71483449030471
            ],
            [
              -71.74637328751079,
              41.714833345664715
            ],
            [
              -71.746448393777,
              41.71481012218724
            ],
            [
              -71.74647153480633,
              41.71479686687658
            ],
            [
              -71.74647304190411,
              41.714798500447046
            ],
            [
              -71.7551540419079,
              41.71033550088005
            ],
            [
              -71.75515253481012,
              41.710333867309586
            ],
            [
              -71.75520535804218,
              41.710303609867665
            ],
            [
              -71.75524836275139,
              41.710261772697
            ],
            [
              -71.75525037586478,
              41.71026278318797
            ],
            [
              -71.75742193445504,
              41.707851984866736
            ],
            [
              -71.77225494100348,
              41.704233259200166
            ],
            [
              -71.7722543004401,
              41.70423179604911
            ],
            [
              -71.77228929601796,
              41.70422097512756
            ],
            [
              -71.77229052042172,
              41.70422302253363
            ],
            [
              -71.78890251969352,
              41.69868702230043
            ],
            [
              -71.78890129528976,
              41.69868497489436
            ],
            [
              -71.788936393554,
              41.69867412222134
            ],
            [
              -71.78901235781538,
              41.698630609468765
            ],
            [
              -71.78907064724326,
              41.69857390254557
            ],
            [
              -71.78910728950946,
              41.69850786593485
            ],
            [
              -71.78911978750409,
              41.6984369999225
            ],
            [
              -71.78910728950946,
              41.69836613391015
            ],
            [
              -71.78907064724326,
              41.69830009729943
            ],
            [
              -71.78901235781538,
              41.698243390376234
            ],
            [
              -71.788936393554,
              41.69819987762366
            ],
            [
              -71.78884793129798,
              41.69817252436388
            ],
            [
              -71.7887529996039,
              41.69816319467636
            ],
            [
              -71.78865806790982,
              41.69817252436388
            ],
            [
              -71.78860470391804,
              41.698189024950636
            ],
            [
              -71.78860347951428,
              41.698186977544566
            ],
            [
              -71.77200891307531,
              41.7037171682322
            ],
            [
              -71.75707405917412,
              41.707360741027934
            ],
            [
              -71.7570746997375,
              41.70736220417899
            ],
            [
              -71.7570046058954,
              41.70738387777356
            ],
            [
              -71.75692864163402,
              41.707427390526135
            ],
            [
              -71.7568856369248,
              41.7074692276968
            ],
            [
              -71.75688362381142,
              41.70746821720583
            ],
            [
              -71.75468053160249,
              41.70991402319173
            ],
            [
              -71.746102928439,
              41.714323865282246
            ],
            [
              -71.73523223620043,
              41.71684350971378
            ],
            [
              -71.73523271229962,
              41.71684465435378
            ],
            [
              -71.73515760603341,
              41.716867877831255
            ],
            [
              -71.73511465672739,
              41.71689247943327
            ],
            [
              -71.7351127374495,
              41.716890677363786
            ],
            [
              -71.72679543918387,
              41.721826984038586
            ],
            [
              -71.69511204066579,
              41.715766763445494
            ],
            [
              -71.6951119148817,
              41.715767129902076
            ],
            [
              -71.6950209997031,
              41.71575819494926
            ],
            [
              -71.69492606800902,
              41.71576752463678
            ],
            [
              -71.69483760575301,
              41.715794877896556
            ],
            [
              -71.69481398501797,
              41.715808407985314
            ],
            [
              -71.69481245691604,
              41.715806757514535
            ],
            [
              -71.68566585034644,
              41.72052584483569
            ],
            [
              -71.67768869291471,
              41.71784237000006
            ],
            [
              -71.67768747406295,
              41.71784438908716
            ],
            [
              -71.67763293191398,
              41.71782752420448
            ],
            [
              -71.6775380002199,
              41.71781819451696
            ],
            [
              -71.67751351495247,
              41.717820600877616
            ],
            [
              -71.67751335368538,
              41.717818813365774
            ],
            [
              -71.65531535329579,
              41.718934813317176
            ],
            [
              -71.65531551456287,
              41.71893660082902
            ],
            [
              -71.65524506813622,
              41.71894352415588
            ],
            [
              -71.65515660588021,
              41.71897087741566
            ],
            [
              -71.65508315447481,
              41.71901295079031
            ],
            [
              -71.65508287408849,
              41.719012737864325
            ],
            [
              -71.64824477152519,
              41.72403058350082
            ],
            [
              -71.64211790257319,
              41.7254698207748
            ],
            [
              -71.64211842208995,
              41.725471053196365
            ],
            [
              -71.6420446064487,
              41.725493877601956
            ],
            [
              -71.64196864218732,
              41.72553739035453
            ],
            [
              -71.64191137561531,
              41.72559310219147
            ],
            [
              -71.6419111894541,
              41.72559302111379
            ],
            [
              -71.64034258508381,
              41.72760005545523
            ],
            [
              -71.63672928942461,
              41.729453328752676
            ],
            [
              -71.63673078234828,
              41.72945495076879
            ],
            [
              -71.63667764152062,
              41.72948539013124
            ],
            [
              -71.63662939913438,
              41.72953232278079
            ],
            [
              -71.63662789294122,
              41.72953160456458
            ],
            [
              -71.63057175805554,
              41.7366090174218
            ],
            [
              -71.61434467354273,
              41.74496598585466
            ],
            [
              -71.60463013121434,
              41.747326859368094
            ],
            [
              -71.59459474561116,
              41.74431693525128
            ],
            [
              -71.5945935834299,
              41.744319094516136
            ],
            [
              -71.59455293187008,
              41.74430652471828
            ],
            [
              -71.594458000176,
              41.74429719503076
            ],
            [
              -71.59436306848193,
              41.74430652471828
            ],
            [
              -71.59427460622591,
              41.74433387797806
            ],
            [
              -71.59420071616753,
              41.744376202615584
            ],
            [
              -71.59420048301142,
              41.7443760260859
            ],
            [
              -71.59123448309842,
              41.746559025996206
            ],
            [
              -71.59123471625453,
              41.74655920252589
            ],
            [
              -71.59123264205152,
              41.74656039064094
            ],
            [
              -71.59117435262364,
              41.74661709756413
            ],
            [
              -71.59114147994259,
              41.74667634063687
            ],
            [
              -71.59114037240843,
              41.74667609525707
            ],
            [
              -71.58982330737642,
              41.74998877213922
            ],
            [
              -71.5776139705297,
              41.75748609904462
            ],
            [
              -71.57106012470489,
              41.76128505417254
            ],
            [
              -71.56678365368408,
              41.763490140221535
            ],
            [
              -71.5572507107666,
              41.76478134839816
            ],
            [
              -71.54491797620857,
              41.76597145441428
            ],
            [
              -71.54491837837402,
              41.76597377678752
            ],
            [
              -71.54487006810312,
              41.765978524619484
            ],
            [
              -71.54478377632455,
              41.76600520674972
            ],
            [
              -71.54478362835235,
              41.766005012587144
            ],
            [
              -71.53856962849414,
              41.768644012451645
            ],
            [
              -71.53856977646635,
              41.76864420661422
            ],
            [
              -71.5385676059889,
              41.76864487774376
            ],
            [
              -71.53849164172752,
              41.76868839049634
            ],
            [
              -71.53847339999089,
              41.76870613698649
            ],
            [
              -71.53847134356124,
              41.76870483421246
            ],
            [
              -71.53561952504066,
              41.77121336929314
            ],
            [
              -71.51906609857775,
              41.77861814161211
            ],
            [
              -71.51069885283248,
              41.781563011102435
            ],
            [
              -71.50206551986149,
              41.779883048616334
            ],
            [
              -71.50206543922125,
              41.779883279548386
            ],
            [
              -71.50197300023,
              41.77987419483846
            ],
            [
              -71.50190449575977,
              41.779880927313926
            ],
            [
              -71.50190402197666,
              41.779879080214464
            ],
            [
              -71.49484074907838,
              41.780888678990195
            ],
            [
              -71.49000046502472,
              41.778596785714285
            ],
            [
              -71.48999956238349,
              41.77859784800933
            ],
            [
              -71.4899873940315,
              41.77859087790946
            ],
            [
              -71.48989893177549,
              41.778563524649684
            ],
            [
              -71.48986993221511,
              41.778560674633795
            ],
            [
              -71.48987041408463,
              41.778558720866485
            ],
            [
              -71.48167041430483,
              41.777431720670485
            ],
            [
              -71.48166993243531,
              41.777433674437795
            ],
            [
              -71.4816040003016,
              41.77742719476616
            ],
            [
              -71.48154842183898,
              41.77743265690074
            ],
            [
              -71.48154795644064,
              41.77743040987135
            ],
            [
              -71.47679995592213,
              41.77797840962705
            ],
            [
              -71.47680042132048,
              41.777980656656446
            ],
            [
              -71.47676106808902,
              41.77798452420939
            ],
            [
              -71.476672605833,
              41.77801187746916
            ],
            [
              -71.47659664157162,
              41.77805539022174
            ],
            [
              -71.47657347924469,
              41.77807792371266
            ],
            [
              -71.47657114537843,
              41.7780765104751
            ],
            [
              -71.4749965084553,
              41.77952559846611
            ],
            [
              -71.47164982437113,
              41.78033682751008
            ],
            [
              -71.46543909021524,
              41.781751627924315
            ],
            [
              -71.45402290324982,
              41.78423870495422
            ],
            [
              -71.45089172422782,
              41.78349120604841
            ],
            [
              -71.45089115271202,
              41.783492540119916
            ],
            [
              -71.45087493185387,
              41.783487524496685
            ],
            [
              -71.4507800001598,
              41.78347819480916
            ],
            [
              -71.45068506846572,
              41.783487524496685
            ],
            [
              -71.4505966062097,
              41.78351487775646
            ],
            [
              -71.45052064194832,
              41.783558390509036
            ],
            [
              -71.45046235252043,
              41.78361509743223
            ],
            [
              -71.45042571025424,
              41.78368113404295
            ],
            [
              -71.4504132122596,
              41.7837520000553
            ],
            [
              -71.45041888224341,
              41.783784149944516
            ],
            [
              -71.45041579326788,
              41.78378442495225
            ],
            [
              -71.45106379299808,
              41.78784042460635
            ],
            [
              -71.45106688197362,
              41.787840149598615
            ],
            [
              -71.45107370998444,
              41.78787886572175
            ],
            [
              -71.45109275705818,
              41.787913192315706
            ],
            [
              -71.45108986886152,
              41.78791409857501
            ],
            [
              -71.45195631870227,
              41.78945285982202
            ],
            [
              -71.4516773904569,
              41.79087982608235
            ],
            [
              -71.44824586633433,
              41.79608815931393
            ],
            [
              -71.4482480044529,
              41.79608894432108
            ],
            [
              -71.44822071004934,
              41.796138134234546
            ],
            [
              -71.44821550337083,
              41.79616765709435
            ],
            [
              -71.44821248868223,
              41.79616731039639
            ],
            [
              -71.44795995571175,
              41.797390976118365
            ],
            [
              -71.44674599130008,
              41.7996375854414
            ],
            [
              -71.44421284793673,
              41.80186682852389
            ],
            [
              -71.43925163510906,
              41.803225957273156
            ],
            [
              -71.43925261092626,
              41.80322794222173
            ],
            [
              -71.439194605617,
              41.80324587794216
            ],
            [
              -71.43911864135562,
              41.80328939069474
            ],
            [
              -71.4390826877569,
              41.80332436818612
            ],
            [
              -71.43908028031066,
              41.80332307498304
            ],
            [
              -71.43347444629666,
              41.8091385290413
            ],
            [
              -71.43083792098462,
              41.81138898141736
            ],
            [
              -71.42443897362159,
              41.81474905013882
            ],
            [
              -71.4244405988362,
              41.81475077488275
            ],
            [
              -71.42439064189821,
              41.81477939049543
            ],
            [
              -71.4243730779148,
              41.814796477632754
            ],
            [
              -71.42437106976303,
              41.81479519754833
            ],
            [
              -71.422208680162,
              41.81668556135194
            ],
            [
              -71.42082193716087,
              41.814839101796224
            ],
            [
              -71.4208214317192,
              41.8148393133305
            ],
            [
              -71.42081964728027,
              41.81483609741863
            ],
            [
              -71.42076135785238,
              41.81477939049543
            ],
            [
              -71.42069128114717,
              41.81473925016786
            ],
            [
              -71.42069174396941,
              41.81473867861366
            ],
            [
              -71.41755374452731,
              41.81332267882256
            ],
            [
              -71.41755328170507,
              41.81332325037676
            ],
            [
              -71.4175473941489,
              41.813319877951756
            ],
            [
              -71.41745893189288,
              41.81329252469198
            ],
            [
              -71.4173640001988,
              41.81328319500446
            ],
            [
              -71.41726906850472,
              41.81329252469198
            ],
            [
              -71.4171806062487,
              41.813319877951756
            ],
            [
              -71.41710464198732,
              41.81336339070433
            ],
            [
              -71.41708763753779,
              41.813379933498595
            ],
            [
              -71.41708567102823,
              41.81337867354742
            ],
            [
              -71.41646280456352,
              41.81392041344688
            ],
            [
              -71.41267365546102,
              41.814813515273045
            ],
            [
              -71.4089307411337,
              41.81523931975108
            ],
            [
              -71.40893120255541,
              41.81524157997366
            ],
            [
              -71.40889106844962,
              41.81524552426929
            ],
            [
              -71.4088026061936,
              41.81527287752906
            ],
            [
              -71.40878414197545,
              41.8152834539362
            ],
            [
              -71.4087828644789,
              41.81528202019886
            ],
            [
              -71.40620578282632,
              41.81656161316809
            ],
            [
              -71.4012677943352,
              41.818524611485515
            ],
            [
              -71.40079695268807,
              41.81820455282739
            ],
            [
              -71.40079570926947,
              41.81820557216061
            ],
            [
              -71.4007333943124,
              41.81816987780566
            ],
            [
              -71.40064493205638,
              41.818142524545884
            ],
            [
              -71.40058711619754,
              41.8181368425247
            ],
            [
              -71.40058742105269,
              41.81813462355459
            ],
            [
              -71.39805342095988,
              41.81794062332819
            ],
            [
              -71.39805311610473,
              41.8179428422983
            ],
            [
              -71.3980160002695,
              41.81793919463196
            ],
            [
              -71.39794632632281,
              41.817946042041115
            ],
            [
              -71.39794585804938,
              41.817944247837275
            ],
            [
              -71.39090377031883,
              41.81896844294567
            ],
            [
              -71.38310856450259,
              41.81880310185849
            ],
            [
              -71.38239831692204,
              41.81766811587638
            ],
            [
              -71.3823957976953,
              41.817668994372916
            ],
            [
              -71.38238364771256,
              41.817647097701034
            ],
            [
              -71.38232535828467,
              41.81759039077784
            ],
            [
              -71.38224939402329,
              41.81754687802526
            ],
            [
              -71.38221970358485,
              41.81753769749662
            ],
            [
              -71.38222088489314,
              41.817535804504274
            ],
            [
              -71.37012888473755,
              41.81333080386977
            ],
            [
              -71.37012770342926,
              41.81333269686211
            ],
            [
              -71.37007781627365,
              41.8133172713418
            ],
            [
              -71.37007813735713,
              41.81331646186773
            ],
            [
              -71.3589603316336,
              41.81085899524897
            ],
            [
              -71.36324476427967,
              41.79810962245585
            ],
            [
              -71.36324406136808,
              41.79810949082468
            ],
            [
              -71.36325578774839,
              41.7980430000127
            ],
            [
              -71.36324328975375,
              41.79797213400035
            ],
            [
              -71.36320664748756,
              41.79790609738963
            ],
            [
              -71.36314835805968,
              41.79784939046643
            ],
            [
              -71.36307239379829,
              41.797805877713856
            ],
            [
              -71.3629948884717,
              41.797781912427105
            ],
            [
              -71.36299528219948,
              41.797780941619926
            ],
            [
              -71.35035118785409,
              41.79492332253692
            ],
            [
              -71.34632531467747,
              41.792259113197574
            ],
            [
              -71.34632383914526,
              41.79226035569063
            ],
            [
              -71.3462653936344,
              41.79222687777606
            ],
            [
              -71.34620405215857,
              41.79220791048539
            ],
            [
              -71.34620494600483,
              41.79220603502383
            ],
            [
              -71.34200294600763,
              41.79109003490523
            ],
            [
              -71.34200205216136,
              41.79109191036679
            ],
            [
              -71.34197493138117,
              41.791083524397685
            ],
            [
              -71.34190853984028,
              41.791076999576475
            ],
            [
              -71.3419087465335,
              41.79107503694005
            ],
            [
              -71.33481511802867,
              41.790658735062316
            ],
            [
              -71.33311426488866,
              41.78784368915523
            ],
            [
              -71.33504233958408,
              41.781625746455056
            ],
            [
              -71.33504094088252,
              41.7816255047667
            ],
            [
              -71.33505178791309,
              41.7815640000354
            ],
            [
              -71.33503928991846,
              41.78149313402305
            ],
            [
              -71.33500264765226,
              41.78142709741233
            ],
            [
              -71.33494435822438,
              41.78137039048914
            ],
            [
              -71.33494103104005,
              41.781368484659396
            ],
            [
              -71.3349413971954,
              41.78136820504875
            ],
            [
              -71.32990567949216,
              41.77769346530781
            ],
            [
              -71.32769342715135,
              41.775415336363196
            ],
            [
              -71.32125686482993,
              41.765390809451894
            ],
            [
              -71.322240714455,
              41.7615338143754
            ],
            [
              -71.32470200405021,
              41.759835042323544
            ],
            [
              -71.32470091616221,
              41.75983416397817
            ],
            [
              -71.32471235849198,
              41.759827609747866
            ],
            [
              -71.32477064791986,
              41.75977090282467
            ],
            [
              -71.32478328651625,
              41.759748125574326
            ],
            [
              -71.32478585915543,
              41.75974901451057
            ],
            [
              -71.32608985901173,
              41.75764601418907
            ],
            [
              -71.32608728637256,
              41.75764512525283
            ],
            [
              -71.32611129004236,
              41.757601865892454
            ],
            [
              -71.326123788037,
              41.7575309998801
            ],
            [
              -71.3261210298567,
              41.757515360471935
            ],
            [
              -71.32612318210873,
              41.7575152680071
            ],
            [
              -71.32595118168133,
              41.75528426794539
            ],
            [
              -71.3259490294293,
              41.75528436041023
            ],
            [
              -71.32593928961496,
              41.75522913380605
            ],
            [
              -71.3259060415453,
              41.755169214208756
            ],
            [
              -71.32590696495905,
              41.75516883802965
            ],
            [
              -71.32418096532834,
              41.75280783852135
            ],
            [
              -71.32418004191459,
              41.75280821470046
            ],
            [
              -71.32417664771806,
              41.75280209768703
            ],
            [
              -71.32411835829018,
              41.752745390763835
            ],
            [
              -71.32406234035864,
              41.75271330338023
            ],
            [
              -71.32406369537472,
              41.75271179938422
            ],
            [
              -71.32096176758046,
              41.75115446103228
            ],
            [
              -71.31478926635313,
              41.74416233727393
            ],
            [
              -71.3147874312107,
              41.74416324004032
            ],
            [
              -71.31474235780217,
              41.74411939033364
            ],
            [
              -71.31469690103947,
              41.74409335244645
            ],
            [
              -71.31469867441378,
              41.74409153143441
            ],
            [
              -71.31093952990638,
              41.74205153154828
            ],
            [
              -71.30838070858736,
              41.73976065565702
            ],
            [
              -71.30837852796024,
              41.73976201294917
            ],
            [
              -71.30835835806468,
              41.739742390647834
            ],
            [
              -71.308332825073,
              41.739727765207796
            ],
            [
              -71.30833462347877,
              41.739726163622635
            ],
            [
              -71.3048019725009,
              41.737515656526746
            ],
            [
              -71.30311037739989,
              41.73578369221246
            ],
            [
              -71.30310793014173,
              41.73578502417126
            ],
            [
              -71.30307335814408,
              41.73575139077173
            ],
            [
              -71.30299739388269,
              41.735707878019156
            ],
            [
              -71.30290893162667,
              41.73568052475938
            ],
            [
              -71.3028139999326,
              41.73567119507186
            ],
            [
              -71.3027629744223,
              41.73567620975185
            ],
            [
              -71.30276253663342,
              41.73567390358152
            ],
            [
              -71.28832552983332,
              41.73720113209866
            ],
            [
              -71.28395092349021,
              41.73430343068769
            ],
            [
              -71.28132977284923,
              41.721842809088955
            ],
            [
              -71.28084055698058,
              41.711559282530814
            ],
            [
              -71.28083908116896,
              41.71155932165478
            ],
            [
              -71.28083896308206,
              41.711558652079525
            ],
            [
              -71.28084052376734,
              41.71155860782886
            ],
            [
              -71.27911552396154,
              41.67765560805166
            ],
            [
              -71.27911396327626,
              41.67765565230232
            ],
            [
              -71.27910417261491,
              41.67760013738586
            ],
            [
              -71.27910496938645,
              41.67759998963323
            ],
            [
              -71.27494896942005,
              41.66511098974293
            ],
            [
              -71.27494817264851,
              41.66511113749556
            ],
            [
              -71.27494729028446,
              41.665106134323146
            ],
            [
              -71.27491064801826,
              41.66504009771243
            ],
            [
              -71.27490457986204,
              41.6650341943011
            ],
            [
              -71.27490557479797,
              41.66503373829272
            ],
            [
              -71.27232957397408,
              41.661901737813324
            ],
            [
              -71.27232857903815,
              41.6619021938217
            ],
            [
              -71.27227635776649,
              41.661851390309835
            ],
            [
              -71.2722003935051,
              41.66180787755726
            ],
            [
              -71.27219430903463,
              41.66180599618876
            ],
            [
              -71.27219469727326,
              41.661805472863904
            ],
            [
              -71.26692599248165,
              41.659627337908134
            ],
            [
              -71.26227351030494,
              41.64813936222381
            ],
            [
              -71.26221768574791,
              41.64637353981614
            ],
            [
              -71.26221665178346,
              41.646373558031485
            ],
            [
              -71.26220528985046,
              41.64630913370515
            ],
            [
              -71.26218366330396,
              41.64627015839111
            ],
            [
              -71.26218643923498,
              41.64626924181302
            ],
            [
              -71.25402125427637,
              41.632488939164595
            ],
            [
              -71.25726995199777,
              41.6209452933619
            ],
            [
              -71.25726791608362,
              41.62094497407632
            ],
            [
              -71.25727778770599,
              41.6208890000954
            ],
            [
              -71.25727158018853,
              41.62085380228791
            ],
            [
              -71.25727469148356,
              41.62085349858097
            ],
            [
              -71.25626712367814,
              41.61510155927395
            ],
            [
              -71.26039200858882,
              41.61180592903487
            ],
            [
              -71.26039096974944,
              41.611805204473306
            ],
            [
              -71.26044164723037,
              41.61175590283967
            ],
            [
              -71.26047828949656,
              41.61168986622895
            ],
            [
              -71.2604907874912,
              41.6116190002166
            ],
            [
              -71.26048326574353,
              41.611576350473314
            ],
            [
              -71.26048623563801,
              41.61157599790674
            ],
            [
              -71.25883968427331,
              41.60384690204306
            ],
            [
              -71.26274701288257,
              41.59749551982022
            ],
            [
              -71.26853459737694,
              41.58982334927713
            ],
            [
              -71.26853416475589,
              41.589823167415844
            ],
            [
              -71.26856928949645,
              41.58975986568645
            ],
            [
              -71.26857205882254,
              41.58974416307955
            ],
            [
              -71.26857417602255,
              41.589744490173636
            ],
            [
              -71.27274469133906,
              41.57470155975509
            ],
            [
              -71.28137896672278,
              41.56650092858315
            ],
            [
              -71.28534671145097,
              41.56442211498799
            ],
            [
              -71.28534509787188,
              41.56442039877193
            ],
            [
              -71.28539535776898,
              41.56439160962257
            ],
            [
              -71.28545364719686,
              41.56433490269937
            ],
            [
              -71.28546866389567,
              41.56430783963814
            ],
            [
              -71.28547143989088,
              41.56430875622
            ],
            [
              -71.29109144044558,
              41.5548237560625
            ],
            [
              -71.29108866445037,
              41.554822839480636
            ],
            [
              -71.29111029001776,
              41.55478386593115
            ],
            [
              -71.29111403421292,
              41.554762635630674
            ],
            [
              -71.2911166219055,
              41.554762994372936
            ],
            [
              -71.2920346219724,
              41.551072994258035
            ],
            [
              -71.29203203427983,
              41.55107263551577
            ],
            [
              -71.2920346870018,
              41.551057594076454
            ],
            [
              -71.29203779758765,
              41.551057892419635
            ],
            [
              -71.29249579734706,
              41.548396892555836
            ],
            [
              -71.29249268676121,
              41.548396594212655
            ],
            [
              -71.2924987878387,
              41.5483619999401
            ],
            [
              -71.29249552365889,
              41.54834349141827
            ],
            [
              -71.29249793768497,
              41.54834336851005
            ],
            [
              -71.2917560469206,
              41.54022339686687
            ],
            [
              -71.2937960550443,
              41.53184330504456
            ],
            [
              -71.2979618268392,
              41.52582773576389
            ],
            [
              -71.29796019370535,
              41.525827105541175
            ],
            [
              -71.29799029004776,
              41.525772865979754
            ],
            [
              -71.29799099964589,
              41.52576884242307
            ],
            [
              -71.29799164922245,
              41.52576896473111
            ],
            [
              -71.30043519452784,
              41.51853711699157
            ],
            [
              -71.31100289578599,
              41.519536633490915
            ],
            [
              -71.31100328967091,
              41.51953431282062
            ],
            [
              -71.3110489998726,
              41.51953880512324
            ],
            [
              -71.31114393156668,
              41.51952947543572
            ],
            [
              -71.31123239382269,
              41.51950212217594
            ],
            [
              -71.31124893907582,
              41.519492644962675
            ],
            [
              -71.31125010993695,
              41.51949397807183
            ],
            [
              -71.31423110991845,
              41.51803497844663
            ],
            [
              -71.31422993905733,
              41.518033645337475
            ],
            [
              -71.31428935806558,
              41.51799960979817
            ],
            [
              -71.31434764749346,
              41.51794290287497
            ],
            [
              -71.31435267656283,
              41.517933839497324
            ],
            [
              -71.31435398641571,
              41.51793435843965
            ],
            [
              -71.31813698611332,
              41.51261335847955
            ],
            [
              -71.31813567626044,
              41.51261283953722
            ],
            [
              -71.31816728945726,
              41.51255586630415
            ],
            [
              -71.3181797874519,
              41.5124850002918
            ],
            [
              -71.31817793248376,
              41.51247448226882
            ],
            [
              -71.31817951437284,
              41.51247443667594
            ],
            [
              -71.31788651446983,
              41.50680943624784
            ],
            [
              -71.31788493258075,
              41.506809481840726
            ],
            [
              -71.31788476966892,
              41.50680855809956
            ],
            [
              -71.31788646417529,
              41.50680850494787
            ],
            [
              -71.31748546431729,
              41.49968450522127
            ],
            [
              -71.31748376981092,
              41.499684558372955
            ],
            [
              -71.31748275120866,
              41.499678782703896
            ],
            [
              -71.31748505258184,
              41.499678673773076
            ],
            [
              -71.317092030376,
              41.49505159486286
            ],
            [
              -71.31776597083814,
              41.49431433147631
            ],
            [
              -71.3177638453905,
              41.4943132487896
            ],
            [
              -71.31778064738667,
              41.49429690295227
            ],
            [
              -71.31781728965287,
              41.49423086634155
            ],
            [
              -71.3178297876475,
              41.4941600003292
            ],
            [
              -71.31782587474633,
              41.494137813433596
            ],
            [
              -71.31782856350478,
              41.49413764903758
            ],
            [
              -71.31719756349307,
              41.488386648553984
            ],
            [
              -71.31719487473462,
              41.48838681295
            ],
            [
              -71.31718628964116,
              41.48833813383325
            ],
            [
              -71.31714964737496,
              41.488272097222534
            ],
            [
              -71.31709135794708,
              41.48821539029934
            ],
            [
              -71.31704917900633,
              41.488191229966844
            ],
            [
              -71.31705102986433,
              41.488189374075525
            ],
            [
              -71.31541004009209,
              41.487277405309534
            ],
            [
              -71.31446794714743,
              41.47730394427403
            ],
            [
              -71.3228848329532,
              41.4761469712508
            ],
            [
              -71.32335514326567,
              41.47716802998509
            ],
            [
              -71.3233574588915,
              41.477167435616714
            ],
            [
              -71.32338435208044,
              41.47721590246207
            ],
            [
              -71.32344264150832,
              41.47727260938527
            ],
            [
              -71.3235186057697,
              41.47731612213784
            ],
            [
              -71.32360706802572,
              41.47734347539762
            ],
            [
              -71.3237019997198,
              41.47735280508514
            ],
            [
              -71.32379693141388,
              41.47734347539762
            ],
            [
              -71.3238853936699,
              41.47731612213784
            ],
            [
              -71.32396135793128,
              41.47727260938527
            ],
            [
              -71.32401964735917,
              41.47721590246207
            ],
            [
              -71.32405628962536,
              41.47714986585135
            ],
            [
              -71.32406878761999,
              41.477078999839
            ],
            [
              -71.32405628962536,
              41.47700813382665
            ],
            [
              -71.32404654054811,
              41.47699056406129
            ],
            [
              -71.32404885617393,
              41.476989969692916
            ],
            [
              -71.32347585678683,
              41.47574596969241
            ],
            [
              -71.32347354116101,
              41.475746564060785
            ],
            [
              -71.32344664797206,
              41.47569809721543
            ],
            [
              -71.32338835854418,
              41.47564139029223
            ],
            [
              -71.3233123942828,
              41.475597877539656
            ],
            [
              -71.32322393202678,
              41.47557052427988
            ],
            [
              -71.3231290003327,
              41.47556119459236
            ],
            [
              -71.32306305906098,
              41.475567675162054
            ]
          ]
        ]
      }
    }
  ]
}
