{
  "$schema": "https://ripota.org/schemas/v2/display-geojson.schema.json",
  "type": "FeatureCollection",
  "properties": {
    "schemaVersion": 2,
    "geometryRole": "display",
    "geometryKind": "boundary",
    "potaReference": "US-6990",
    "potaName": "Nicholas Farm Wildlife Management Area",
    "sourceName": "Rhode Island DEM State Conservation Land",
    "sourceUrl": "https://risegis.ri.gov/hosting/rest/services/RIDEM/State_Conservation_Land/MapServer/0",
    "sourceQuery": "DEM_AREA = 'Nicholas Farm Management Area'",
    "sourceFeatureIds": [
      67,
      100,
      101,
      103,
      107,
      363,
      393,
      394,
      395,
      787,
      40720
    ]
  },
  "features": [
    {
      "type": "Feature",
      "properties": {
        "potaReference": "US-6990",
        "potaName": "Nicholas Farm Wildlife Management Area",
        "geometryKind": "boundary",
        "geometryRole": "display"
      },
      "geometry": {
        "type": "MultiPolygon",
        "coordinates": [
          [
            [
              [
                -71.75702147255895,
                41.69453879894078
              ],
              [
                -71.75668156329387,
                41.69431045859283
              ],
              [
                -71.75645083962382,
                41.69423653016545
              ],
              [
                -71.75607640513552,
                41.69421537651736
              ],
              [
                -71.75594543151563,
                41.694023258780206
              ],
              [
                -71.7558142907317,
                41.69401461649848
              ],
              [
                -71.75545300586299,
                41.694077953684875
              ],
              [
                -71.75380927124738,
                41.69434661547663
              ],
              [
                -71.75371920957372,
                41.694352607253045
              ],
              [
                -71.75379501867562,
                41.69476353312628
              ],
              [
                -71.75251282600706,
                41.69502633355985
              ],
              [
                -71.75216552288359,
                41.69726260400867
              ],
              [
                -71.75372042179178,
                41.69656196986073
              ],
              [
                -71.75408041259833,
                41.69641524704669
              ],
              [
                -71.75427494417445,
                41.6963715806591
              ],
              [
                -71.75443346013458,
                41.69633880069328
              ],
              [
                -71.7546280776983,
                41.69631674933709
              ],
              [
                -71.7548154636574,
                41.69628931063123
              ],
              [
                -71.7550245249833,
                41.696272634133656
              ],
              [
                -71.75518308304393,
                41.696250662750955
              ],
              [
                -71.7553849981472,
                41.696250214230595
              ],
              [
                -71.75557252975425,
                41.696260606153274
              ],
              [
                -71.75580339491988,
                41.69628711588988
              ],
              [
                -71.7560055030281,
                41.696335309546896
              ],
              [
                -71.75614272828341,
                41.69638904963148
              ],
              [
                -71.75632333043811,
                41.696469718889105
              ],
              [
                -71.75646068867641,
                41.696555887425895
              ],
              [
                -71.7566487167424,
                41.69669058634577
              ],
              [
                -71.75675012757914,
                41.696803859079054
              ],
              [
                -71.75686210557981,
                41.696854953624474
              ],
              [
                -71.75693716744824,
                41.696689941812785
              ],
              [
                -71.75696474370447,
                41.69637100091498
              ],
              [
                -71.75694939478204,
                41.69613863095938
              ],
              [
                -71.75678685686316,
                41.69516073605299
              ],
              [
                -71.75681411075064,
                41.69476072387748
              ],
              [
                -71.75697914660307,
                41.694554974909614
              ],
              [
                -71.75702147255895,
                41.69453879894078
              ]
            ]
          ],
          [
            [
              [
                -71.78263911930377,
                41.66561459103195
              ],
              [
                -71.78077317902573,
                41.66671646981208
              ],
              [
                -71.78152709785566,
                41.66769965017732
              ],
              [
                -71.78157257428616,
                41.66777537007527
              ],
              [
                -71.78049546046616,
                41.66817863658587
              ],
              [
                -71.77930439182461,
                41.66860855240015
              ],
              [
                -71.7784326283167,
                41.66941132985561
              ],
              [
                -71.77730965344632,
                41.66990530355276
              ],
              [
                -71.77694291574998,
                41.67004267653385
              ],
              [
                -71.77586940118842,
                41.670372209703054
              ],
              [
                -71.77489648512632,
                41.67058930525423
              ],
              [
                -71.7746221029698,
                41.67064632029519
              ],
              [
                -71.77435348442867,
                41.67068724854516
              ],
              [
                -71.77415408069623,
                41.67068732729334
              ],
              [
                -71.77403791535347,
                41.670661559524895
              ],
              [
                -71.77395023286604,
                41.67064694047413
              ],
              [
                -71.77383325178121,
                41.67065618145293
              ],
              [
                -71.7737426731858,
                41.670688667127
              ],
              [
                -71.77367673440574,
                41.670743026001155
              ],
              [
                -71.77361102066615,
                41.67086473414545
              ],
              [
                -71.77353478763469,
                41.671052303617174
              ],
              [
                -71.77349081696727,
                41.67124298985489
              ],
              [
                -71.77345626969206,
                41.671491717144825
              ],
              [
                -71.77344834331305,
                41.67161835221779
              ],
              [
                -71.77343713643205,
                41.67184974779331
              ],
              [
                -71.77344097290629,
                41.67222424272517
              ],
              [
                -71.77345759160323,
                41.67243592796341
              ],
              [
                -71.77348180180793,
                41.67263020192339
              ],
              [
                -71.77351870841348,
                41.67281925596783
              ],
              [
                -71.77357137237424,
                41.67302602493695
              ],
              [
                -71.77363893581533,
                41.67321009357689
              ],
              [
                -71.77372575316407,
                41.67341596361309
              ],
              [
                -71.7739857574226,
                41.67389887833645
              ],
              [
                -71.77407405550174,
                41.67404001570274
              ],
              [
                -71.76653876832191,
                41.67407841703081
              ],
              [
                -71.7655656670333,
                41.67408409997356
              ],
              [
                -71.76549897167499,
                41.674124604702904
              ],
              [
                -71.76545073942087,
                41.67418019104046
              ],
              [
                -71.76545805267858,
                41.67424825145218
              ],
              [
                -71.76546111297333,
                41.67429540986856
              ],
              [
                -71.76544618009132,
                41.67434514706338
              ],
              [
                -71.76540608254219,
                41.67439607142349
              ],
              [
                -71.76532462723459,
                41.67445077283285
              ],
              [
                -71.76524117807921,
                41.67452297012518
              ],
              [
                -71.76524731086079,
                41.67461593819375
              ],
              [
                -71.76528045881041,
                41.67473194360558
              ],
              [
                -71.76536275753398,
                41.674732499120886
              ],
              [
                -71.76546124607607,
                41.67476006226864
              ],
              [
                -71.7654961510356,
                41.674795616183815
              ],
              [
                -71.76553917031192,
                41.674858875297744
              ],
              [
                -71.76553910456946,
                41.6749387141769
              ],
              [
                -71.76553903150406,
                41.67502991924539
              ],
              [
                -71.76554822724552,
                41.675069461718905
              ],
              [
                -71.76556130083873,
                41.67512568434654
              ],
              [
                -71.76558573355956,
                41.67518914124553
              ],
              [
                -71.76559718113539,
                41.67528887763094
              ],
              [
                -71.76562719839616,
                41.675334859988695
              ],
              [
                -71.76562293612287,
                41.67539409386633
              ],
              [
                -71.7656385853541,
                41.67543998427502
              ],
              [
                -71.76570670592051,
                41.67545253902596
              ],
              [
                -71.76575360762892,
                41.675435328207044
              ],
              [
                -71.76580621632085,
                41.67538987151223
              ],
              [
                -71.76589409603964,
                41.67534595835406
              ],
              [
                -71.76598281399424,
                41.675341160326276
              ],
              [
                -71.76604758642009,
                41.67533214454249
              ],
              [
                -71.76617060724045,
                41.67533494614994
              ],
              [
                -71.76623686407036,
                41.675274086665134
              ],
              [
                -71.76635042359175,
                41.67523979076214
              ],
              [
                -71.76644940088634,
                41.67522425698881
              ],
              [
                -71.76652834560029,
                41.67523283987146
              ],
              [
                -71.76656736019446,
                41.67527753250834
              ],
              [
                -71.76661564618517,
                41.675296693661544
              ],
              [
                -71.76666183366154,
                41.67534277869323
              ],
              [
                -71.76669695206968,
                41.67541438314788
              ],
              [
                -71.76678763473507,
                41.67549711405428
              ],
              [
                -71.7668097457199,
                41.67556975166855
              ],
              [
                -71.7668698398939,
                41.67569427089366
              ],
              [
                -71.76693070022758,
                41.675713512559284
              ],
              [
                -71.76702625301205,
                41.67568314197233
              ],
              [
                -71.76711603506214,
                41.6756864051416
              ],
              [
                -71.76718808954337,
                41.67572053515333
              ],
              [
                -71.76729494890397,
                41.67575083957454
              ],
              [
                -71.76730875706062,
                41.67580075955301
              ],
              [
                -71.76728310729668,
                41.675845042293375
              ],
              [
                -71.76726204492232,
                41.67590642934423
              ],
              [
                -71.7672224782848,
                41.67596452357332
              ],
              [
                -71.76724580287569,
                41.67612628962248
              ],
              [
                -71.76732617958739,
                41.67616720422962
              ],
              [
                -71.76740299399819,
                41.67618479868659
              ],
              [
                -71.76750570175257,
                41.676177770050344
              ],
              [
                -71.76756320049265,
                41.67615302390988
              ],
              [
                -71.76762495601382,
                41.67611657212498
              ],
              [
                -71.76767009073171,
                41.67609665635126
              ],
              [
                -71.76775694452952,
                41.676049550579194
              ],
              [
                -71.76786891187419,
                41.675988824958814
              ],
              [
                -71.76801128954145,
                41.67594797494181
              ],
              [
                -71.76812267360577,
                41.67594733429925
              ],
              [
                -71.7682445016946,
                41.67597638922683
              ],
              [
                -71.76832611063128,
                41.67601981767198
              ],
              [
                -71.76837108287437,
                41.676062039592516
              ],
              [
                -71.76840371526599,
                41.67612353015063
              ],
              [
                -71.76846431290812,
                41.676237715697305
              ],
              [
                -71.76850693874036,
                41.67628108380246
              ],
              [
                -71.7685848694707,
                41.67637989472123
              ],
              [
                -71.7686365207215,
                41.67641927919203
              ],
              [
                -71.76870803998467,
                41.67644936146879
              ],
              [
                -71.7687868952103,
                41.67646602285526
              ],
              [
                -71.76895034591891,
                41.67647186468885
              ],
              [
                -71.76913533072386,
                41.67647226719936
              ],
              [
                -71.76917694600425,
                41.67652572957818
              ],
              [
                -71.76921144999874,
                41.676572413566504
              ],
              [
                -71.7692358628434,
                41.67663788832913
              ],
              [
                -71.76918309182513,
                41.67675270724957
              ],
              [
                -71.76914201711605,
                41.67683595007105
              ],
              [
                -71.76914850587274,
                41.676897943704994
              ],
              [
                -71.76917286516105,
                41.67696813199749
              ],
              [
                -71.76918988863522,
                41.67705174295474
              ],
              [
                -71.76921972923056,
                41.677113885368044
              ],
              [
                -71.76926202208058,
                41.677186880374755
              ],
              [
                -71.7692666391188,
                41.677255597784054
              ],
              [
                -71.76926319205388,
                41.677294986789136
              ],
              [
                -71.76924764546324,
                41.67734706052668
              ],
              [
                -71.76924430285406,
                41.67748441496066
              ],
              [
                -71.76928347351407,
                41.677515638677626
              ],
              [
                -71.76937165992591,
                41.67756703896643
              ],
              [
                -71.76943688787156,
                41.67761988226941
              ],
              [
                -71.76950444524498,
                41.67767461353348
              ],
              [
                -71.7695328089009,
                41.67770846275008
              ],
              [
                -71.76953762223292,
                41.67775967304641
              ],
              [
                -71.7695202807193,
                41.67786394139878
              ],
              [
                -71.76941377501635,
                41.677909733210114
              ],
              [
                -71.76936498580743,
                41.67793501357978
              ],
              [
                -71.76932598553219,
                41.677986206811944
              ],
              [
                -71.7692825888568,
                41.678073215018095
              ],
              [
                -71.76928900146717,
                41.67814194261462
              ],
              [
                -71.76925575849567,
                41.6782225407516
              ],
              [
                -71.76923136087177,
                41.678315317159
              ],
              [
                -71.76918213717686,
                41.67844046929125
              ],
              [
                -71.7691536862,
                41.678512807057295
              ],
              [
                -71.7691542240502,
                41.67862459650718
              ],
              [
                -71.7691626305573,
                41.67867582900873
              ],
              [
                -71.76915277032958,
                41.6787538819451
              ],
              [
                -71.76913022828568,
                41.678841281519105
              ],
              [
                -71.76916360001015,
                41.67888542913374
              ],
              [
                -71.76916320687391,
                41.6834139223412
              ],
              [
                -71.76930602293908,
                41.68333536352055
              ],
              [
                -71.76939346625358,
                41.68328213723175
              ],
              [
                -71.76954171543419,
                41.683186336073966
              ],
              [
                -71.7696390309675,
                41.68311928571061
              ],
              [
                -71.7697714318902,
                41.68300833594643
              ],
              [
                -71.76986587727906,
                41.6829173497262
              ],
              [
                -71.76997146664627,
                41.682794110628045
              ],
              [
                -71.77004820160623,
                41.68269642485242
              ],
              [
                -71.77012643673851,
                41.68259306682485
              ],
              [
                -71.77023567662914,
                41.68246446354984
              ],
              [
                -71.77041724521733,
                41.682294564216136
              ],
              [
                -71.77051694366017,
                41.682215731670645
              ],
              [
                -71.77061831565054,
                41.68214768322418
              ],
              [
                -71.77082229856109,
                41.682035957718476
              ],
              [
                -71.7709657262928,
                41.68196011717013
              ],
              [
                -71.77107340239745,
                41.681903126098284
              ],
              [
                -71.77113612885968,
                41.681882556143385
              ],
              [
                -71.77113337558019,
                41.682275831377844
              ],
              [
                -71.77112878574063,
                41.68293143470246
              ],
              [
                -71.77112000042992,
                41.684186131751886
              ],
              [
                -71.77109593944819,
                41.687622532431014
              ],
              [
                -71.76977699899135,
                41.68762981550152
              ],
              [
                -71.76985833955506,
                41.6914094932822
              ],
              [
                -71.76980776067727,
                41.68905927482882
              ],
              [
                -71.76977986691846,
                41.689040806398374
              ],
              [
                -71.76973162800255,
                41.68900771164433
              ],
              [
                -71.76969480188129,
                41.688979334085616
              ],
              [
                -71.76965535659549,
                41.68893008871252
              ],
              [
                -71.76962993019103,
                41.688903581443384
              ],
              [
                -71.76960076915447,
                41.68889226480104
              ],
              [
                -71.76954382125274,
                41.68889524441577
              ],
              [
                -71.76951224821063,
                41.688912397391356
              ],
              [
                -71.76949079689636,
                41.68892857674457
              ],
              [
                -71.76947444526637,
                41.68895328405164
              ],
              [
                -71.76947708300222,
                41.688978895811765
              ],
              [
                -71.76949239949141,
                41.68900922183923
              ],
              [
                -71.76951524236615,
                41.68902340026419
              ],
              [
                -71.76953684023808,
                41.68904232560161
              ],
              [
                -71.76956361585349,
                41.68908875469397
              ],
              [
                -71.7695713137389,
                41.68911340560304
              ],
              [
                -71.76956400691412,
                41.68914675226955
              ],
              [
                -71.76955363225457,
                41.68918728200032
              ],
              [
                -71.76952343824904,
                41.689216002270484
              ],
              [
                -71.76949056644757,
                41.689234850061574
              ],
              [
                -71.76944709435442,
                41.68923989226581
              ],
              [
                -71.76940620812964,
                41.689233072451174
              ],
              [
                -71.76935867879286,
                41.68921342545644
              ],
              [
                -71.76930967816328,
                41.689157228172576
              ],
              [
                -71.76926604132142,
                41.68912275299189
              ],
              [
                -71.76921059546481,
                41.6891011481927
              ],
              [
                -71.76911964247488,
                41.68909839812433
              ],
              [
                -71.76908276820791,
                41.68910539923041
              ],
              [
                -71.76903145773453,
                41.689127254045445
              ],
              [
                -71.76899996232162,
                41.68915992980554
              ],
              [
                -71.76897765472066,
                41.68918369209812
              ],
              [
                -71.76895660013618,
                41.6891916447332
              ],
              [
                -71.7689368796736,
                41.68920354592261
              ],
              [
                -71.76889205988518,
                41.68920167450488
              ],
              [
                -71.76884718371795,
                41.68918597277101
              ],
              [
                -71.76882733985292,
                41.689168237078974
              ],
              [
                -71.76881936152114,
                41.689151460424675
              ],
              [
                -71.76880595213719,
                41.68909616826553
              ],
              [
                -71.76879121157171,
                41.68903791523232
              ],
              [
                -71.76878582045106,
                41.68900927748332
              ],
              [
                -71.76876986917257,
                41.68897671365053
              ],
              [
                -71.76875918976286,
                41.68894413658674
              ],
              [
                -71.76876035529102,
                41.68890758104265
              ],
              [
                -71.76876416145089,
                41.68887200611767
              ],
              [
                -71.7687799029865,
                41.68885418719231
              ],
              [
                -71.76881008481308,
                41.688822502258276
              ],
              [
                -71.7688072632278,
                41.688778052677584
              ],
              [
                -71.76878999844406,
                41.688746478713135
              ],
              [
                -71.76876616354524,
                41.688719861287076
              ],
              [
                -71.76872385316831,
                41.68868735818557
              ],
              [
                -71.76869736655566,
                41.68865679436425
              ],
              [
                -71.76868144418076,
                41.6886311452153
              ],
              [
                -71.7686681612455,
                41.68860647848923
              ],
              [
                -71.76866144434148,
                41.68857586844136
              ],
              [
                -71.7686666462934,
                41.6885590618632
              ],
              [
                -71.76866915829295,
                41.68852941793576
              ],
              [
                -71.76865983074654,
                41.688504741061195
              ],
              [
                -71.76864129246694,
                41.68848403829714
              ],
              [
                -71.7686122270028,
                41.68846731181574
              ],
              [
                -71.76856738307968,
                41.68845951235594
              ],
              [
                -71.76852084496154,
                41.68846977175922
              ],
              [
                -71.76787229340927,
                41.689307452349716
              ],
              [
                -71.76780969059533,
                41.68936648359377
              ],
              [
                -71.76766853052582,
                41.689425696892016
              ],
              [
                -71.76754293621646,
                41.68944954365474
              ],
              [
                -71.76738584386031,
                41.68945579760325
              ],
              [
                -71.76718932728714,
                41.68942681197254
              ],
              [
                -71.76698478487044,
                41.68935662526823
              ],
              [
                -71.76684269937756,
                41.68919207772441
              ],
              [
                -71.76681835287243,
                41.689003702393556
              ],
              [
                -71.76658209714199,
                41.68886292652693
              ],
              [
                -71.76647194727568,
                41.688821961688205
              ],
              [
                -71.76640173105193,
                41.68893989517449
              ],
              [
                -71.76629970382278,
                41.68896368504893
              ],
              [
                -71.76608762374828,
                41.68897006552301
              ],
              [
                -71.76599376722649,
                41.68907038662339
              ],
              [
                -71.76585301826954,
                41.68922970237728
              ],
              [
                -71.76577479946583,
                41.68931232205595
              ],
              [
                -71.76569643508584,
                41.68935961098875
              ],
              [
                -71.76556269396931,
                41.689312812365415
              ],
              [
                -71.76553097987224,
                41.68924222358546
              ],
              [
                -71.76556206432737,
                41.68915971299463
              ],
              [
                -71.76577305445791,
                41.688888353733674
              ],
              [
                -71.76585905553947,
                41.68878805008205
              ],
              [
                -71.76584288390346,
                41.688676206039034
              ],
              [
                -71.76575605897837,
                41.68857630210161
              ],
              [
                -71.76563778698072,
                41.68847058243072
              ],
              [
                -71.76559807243237,
                41.688364681116006
              ],
              [
                -71.76569183163727,
                41.68824080622819
              ],
              [
                -71.76573062546322,
                41.68812294671909
              ],
              [
                -71.76569871914491,
                41.68800524976615
              ],
              [
                -71.76555693049683,
                41.68791136197873
              ],
              [
                -71.76518735384498,
                41.687823887300596
              ],
              [
                -71.7649436371497,
                41.68777734165024
              ],
              [
                -71.76462170232575,
                41.68781341439616
              ],
              [
                -71.7643942995918,
                41.687914042524746
              ],
              [
                -71.76429270703622,
                41.68804382273256
              ],
              [
                -71.76425417569615,
                41.68822645487181
              ],
              [
                -71.76421562004785,
                41.688403198692626
              ],
              [
                -71.76412995412058,
                41.68858594003121
              ],
              [
                -71.76401286564285,
                41.688768752588764
              ],
              [
                -71.76377085399578,
                41.689140283666504
              ],
              [
                -71.76350618468655,
                41.689735629937736
              ],
              [
                -71.76335091762692,
                41.69018940080671
              ],
              [
                -71.76337288583352,
                41.690669344026965
              ],
              [
                -71.7634111810546,
                41.69068050715742
              ],
              [
                -71.76348427549863,
                41.690701814084505
              ],
              [
                -71.76496436684104,
                41.69150440700839
              ],
              [
                -71.76693255330106,
                41.692191078360956
              ],
              [
                -71.76727486366575,
                41.69228449640863
              ],
              [
                -71.76906126465674,
                41.69265670530302
              ],
              [
                -71.76914706686668,
                41.69267700917955
              ],
              [
                -71.77009916443045,
                41.69293375038606
              ],
              [
                -71.77118134389649,
                41.69322456514322
              ],
              [
                -71.77159953349951,
                41.693346105714554
              ],
              [
                -71.77179718686358,
                41.693402416897406
              ],
              [
                -71.77329808539481,
                41.69370287100742
              ],
              [
                -71.77600553794503,
                41.69418324108444
              ],
              [
                -71.77615055131233,
                41.694208968028576
              ],
              [
                -71.77651526967317,
                41.694239474895014
              ],
              [
                -71.77681203413265,
                41.69426689670451
              ],
              [
                -71.7782781500596,
                41.69439037597891
              ],
              [
                -71.77888614670128,
                41.69444970432254
              ],
              [
                -71.77960837362036,
                41.69454801894765
              ],
              [
                -71.78259994620551,
                41.6948400133609
              ],
              [
                -71.7850513291445,
                41.69509763478332
              ],
              [
                -71.78825141078245,
                41.69542523381685
              ],
              [
                -71.78888428483071,
                41.69549001106069
              ],
              [
                -71.78867742002912,
                41.686610442019
              ],
              [
                -71.7876091475396,
                41.68669731033588
              ],
              [
                -71.78550978932765,
                41.6854931348602
              ],
              [
                -71.78254635865797,
                41.68550406085183
              ],
              [
                -71.78248918591335,
                41.682701726931185
              ],
              [
                -71.788277825339,
                41.68261058114297
              ],
              [
                -71.78836780112164,
                41.67431393075499
              ],
              [
                -71.7882564911706,
                41.67023921064934
              ],
              [
                -71.78788769907345,
                41.656100938412564
              ],
              [
                -71.78455623185347,
                41.65618885171906
              ],
              [
                -71.7846379621192,
                41.658951244241244
              ],
              [
                -71.7847795803508,
                41.66196378194674
              ],
              [
                -71.78185691883752,
                41.66241578041867
              ],
              [
                -71.78175305401356,
                41.66243184096391
              ],
              [
                -71.7819285067062,
                41.66310344067612
              ],
              [
                -71.7819528658965,
                41.66319668204432
              ],
              [
                -71.7820107501443,
                41.6633118028327
              ],
              [
                -71.78206731194761,
                41.663424288768454
              ],
              [
                -71.78214265614353,
                41.66357413058842
              ],
              [
                -71.78219180823268,
                41.66367188308357
              ],
              [
                -71.78220648025106,
                41.663764721398984
              ],
              [
                -71.78222583724896,
                41.66388721339675
              ],
              [
                -71.78225234514518,
                41.6640549446181
              ],
              [
                -71.78227880754066,
                41.664222397727684
              ],
              [
                -71.78229640762251,
                41.664333765521704
              ],
              [
                -71.78235025343422,
                41.66449073143754
              ],
              [
                -71.78240343249688,
                41.664648655148206
              ],
              [
                -71.78246337620844,
                41.66482048903196
              ],
              [
                -71.78245946748561,
                41.66496188365411
              ],
              [
                -71.78255352047192,
                41.665268826860384
              ],
              [
                -71.78259339730228,
                41.66551285162232
              ],
              [
                -71.78263911930377,
                41.66561459103195
              ]
            ]
          ],
          [
            [
              [
                -71.76471179707869,
                41.69873949448974
              ],
              [
                -71.75671496246669,
                41.69957475110448
              ],
              [
                -71.7564311622431,
                41.70010392124328
              ],
              [
                -71.75619217106302,
                41.700839153903026
              ],
              [
                -71.7561674517069,
                41.70122701132755
              ],
              [
                -71.75616585621913,
                41.7014882394202
              ],
              [
                -71.75622612824458,
                41.70347842307285
              ],
              [
                -71.75712024864646,
                41.70340477738974
              ],
              [
                -71.75806105125568,
                41.70332728254649
              ],
              [
                -71.75837312420114,
                41.70614282546055
              ],
              [
                -71.76162120505563,
                41.706086240857914
              ],
              [
                -71.76167779465075,
                41.7060841060179
              ],
              [
                -71.76167981125906,
                41.70618616234388
              ],
              [
                -71.76167920334038,
                41.70626024603755
              ],
              [
                -71.7616401690538,
                41.7064163200349
              ],
              [
                -71.761649482911,
                41.70646815761446
              ],
              [
                -71.76192974812972,
                41.70640976033479
              ],
              [
                -71.7625342369976,
                41.706283800311404
              ],
              [
                -71.76341516253574,
                41.70610023548341
              ],
              [
                -71.76491074031459,
                41.705780447137855
              ],
              [
                -71.7662573847705,
                41.70549333612559
              ],
              [
                -71.76676085495794,
                41.705386533188296
              ],
              [
                -71.76724657780281,
                41.70527653973473
              ],
              [
                -71.7675208918616,
                41.70520547192114
              ],
              [
                -71.76778209451994,
                41.70513662187354
              ],
              [
                -71.76809745145104,
                41.70503973022201
              ],
              [
                -71.76876043490623,
                41.70483210508972
              ],
              [
                -71.76870098466267,
                41.70441550098093
              ],
              [
                -71.7689969047981,
                41.704315523553674
              ],
              [
                -71.76906020410804,
                41.70473822382869
              ],
              [
                -71.76939256737283,
                41.70463413365902
              ],
              [
                -71.76888541268636,
                41.70379530298912
              ],
              [
                -71.77037695936677,
                41.703056745957525
              ],
              [
                -71.77097544673,
                41.702778421357934
              ],
              [
                -71.77177688538859,
                41.7040250936798
              ],
              [
                -71.7728131727517,
                41.70374872785581
              ],
              [
                -71.77358278891008,
                41.70345185193438
              ],
              [
                -71.77450656139364,
                41.70310266018241
              ],
              [
                -71.7751394585828,
                41.70289067902075
              ],
              [
                -71.77641143137011,
                41.70255900865986
              ],
              [
                -71.77638687934952,
                41.70162422155199
              ],
              [
                -71.77692421157084,
                41.701596557421944
              ],
              [
                -71.7767205627334,
                41.70136180512283
              ],
              [
                -71.77800426661938,
                41.70051004736033
              ],
              [
                -71.7776121191361,
                41.70023728012662
              ],
              [
                -71.7775250535726,
                41.70017031198522
              ],
              [
                -71.77741904375651,
                41.70013269166861
              ],
              [
                -71.7772862344209,
                41.70007226591938
              ],
              [
                -71.77694490525113,
                41.699862978669564
              ],
              [
                -71.77674989181557,
                41.69975053182074
              ],
              [
                -71.77660730683174,
                41.69963367095354
              ],
              [
                -71.77647603780336,
                41.699709740279324
              ],
              [
                -71.77633887735131,
                41.6997965621944
              ],
              [
                -71.7761989563124,
                41.694454699279035
              ],
              [
                -71.7753345382531,
                41.694309887993164
              ],
              [
                -71.77511485195133,
                41.69427764913255
              ],
              [
                -71.77319335136417,
                41.69399800298951
              ],
              [
                -71.77282303248171,
                41.6939377474017
              ],
              [
                -71.77167626795041,
                41.69375063766355
              ],
              [
                -71.77133035396437,
                41.693679194727494
              ],
              [
                -71.77120762861102,
                41.69365301384454
              ],
              [
                -71.77050717602143,
                41.69349863691291
              ],
              [
                -71.76989548402273,
                41.69336313220843
              ],
              [
                -71.76956931434009,
                41.693290875890284
              ],
              [
                -71.76927082320303,
                41.69322466093515
              ],
              [
                -71.76910445513862,
                41.69318991769222
              ],
              [
                -71.76893800492792,
                41.69313223864461
              ],
              [
                -71.76714960746929,
                41.69251423976932
              ],
              [
                -71.76705153733967,
                41.69248130205209
              ],
              [
                -71.76639272179841,
                41.692271685026476
              ],
              [
                -71.76593389592283,
                41.692097935631324
              ],
              [
                -71.76542092252708,
                41.69190367592207
              ],
              [
                -71.76495325437801,
                41.691726572071715
              ],
              [
                -71.76461855372021,
                41.69161461817959
              ],
              [
                -71.7643353209222,
                41.691519876867304
              ],
              [
                -71.76328465498464,
                41.691282814564914
              ],
              [
                -71.76327925284741,
                41.691369053493425
              ],
              [
                -71.76327615012265,
                41.69141854437256
              ],
              [
                -71.76325602462106,
                41.69145614898115
              ],
              [
                -71.76301172786914,
                41.6916353027745
              ],
              [
                -71.76294705077036,
                41.69172788529982
              ],
              [
                -71.76287518524192,
                41.69182042840768
              ],
              [
                -71.76271754643291,
                41.69195695116669
              ],
              [
                -71.76267211104599,
                41.69201057960241
              ],
              [
                -71.76266272738485,
                41.69205228139815
              ],
              [
                -71.76269658018005,
                41.69208209236121
              ],
              [
                -71.76283265747016,
                41.69213265965843
              ],
              [
                -71.76296189470297,
                41.69214682649968
              ],
              [
                -71.7630478417922,
                41.69217826574775
              ],
              [
                -71.76313933774982,
                41.69219357488907
              ],
              [
                -71.76323993631384,
                41.69219613742532
              ],
              [
                -71.7633117752331,
                41.69219989301996
              ],
              [
                -71.76334919510245,
                41.69223241830448
              ],
              [
                -71.7633169574572,
                41.692283872092766
              ],
              [
                -71.76336995820246,
                41.69231603303889
              ],
              [
                -71.76342197127578,
                41.69232574035571
              ],
              [
                -71.76349531786288,
                41.69235980658666
              ],
              [
                -71.7635810204003,
                41.69241683421439
              ],
              [
                -71.76365796012716,
                41.692450919110776
              ],
              [
                -71.76390700208204,
                41.69252633604461
              ],
              [
                -71.76402206096233,
                41.69252022213783
              ],
              [
                -71.76442537996802,
                41.692434851050145
              ],
              [
                -71.76455116869218,
                41.69243418070949
              ],
              [
                -71.76464973278335,
                41.692461647938956
              ],
              [
                -71.76472472128528,
                41.69251188456234
              ],
              [
                -71.76480128495587,
                41.6925850244544
              ],
              [
                -71.76482932705022,
                41.69265925030465
              ],
              [
                -71.76481932986816,
                41.69314000948655
              ],
              [
                -71.76483970712465,
                41.69326402575858
              ],
              [
                -71.76484210213007,
                41.69338929354838
              ],
              [
                -71.76491612126982,
                41.693540534588955
              ],
              [
                -71.7649674111662,
                41.69362633314211
              ],
              [
                -71.7649774372618,
                41.69370517700471
              ],
              [
                -71.76496229042422,
                41.69378590303292
              ],
              [
                -71.76498503052478,
                41.69385067377455
              ],
              [
                -71.76501870567166,
                41.69389934067812
              ],
              [
                -71.76522257704568,
                41.69400144650348
              ],
              [
                -71.76523772863239,
                41.69406112516588
              ],
              [
                -71.76516995261922,
                41.694055036675564
              ],
              [
                -71.76511644890242,
                41.69401299808827
              ],
              [
                -71.76506869626648,
                41.69399568088247
              ],
              [
                -71.7650702814791,
                41.694049114451715
              ],
              [
                -71.76509595916535,
                41.694149065334386
              ],
              [
                -71.76508500753847,
                41.6942000365258
              ],
              [
                -71.76505010579697,
                41.69425292759824
              ],
              [
                -71.76502565739571,
                41.69429938129481
              ],
              [
                -71.76498178667292,
                41.69432967780456
              ],
              [
                -71.76494391460643,
                41.69477172805637
              ],
              [
                -71.76486535001847,
                41.6960532723033
              ],
              [
                -71.76505734865545,
                41.69605714776526
              ],
              [
                -71.76505063099712,
                41.69619583384774
              ],
              [
                -71.76485701693358,
                41.69618920880014
              ],
              [
                -71.76477547686326,
                41.69751963910581
              ],
              [
                -71.76471179707869,
                41.69873949448974
              ]
            ]
          ]
        ]
      }
    }
  ]
}
