{
  "$schema": "https://ripota.org/schemas/web/v1/display-geojson.schema.json",
  "type": "FeatureCollection",
  "properties": {
    "schemaVersion": 1,
    "geometryRole": "display",
    "geometryKind": "boundary",
    "potaReference": "US-0515",
    "potaName": "Ninigret National Wildlife Refuge",
    "sourceName": "U.S. Fish and Wildlife Service National Wildlife Refuge System Boundaries",
    "sourceUrl": "https://services.arcgis.com/QVENGdaPbd4LUkLV/arcgis/rest/services/National_Wildlife_Refuge_System_Boundaries/FeatureServer/0",
    "sourceQuery": "ORGNAME = 'NINIGRET NATIONAL WILDLIFE REFUGE'",
    "sourceFeatureIds": [
      709
    ],
    "fidelity": "web",
    "detailedArtifact": "@ripota/parks/boundaries/us-0515.geojson"
  },
  "features": [
    {
      "type": "Feature",
      "properties": {
        "potaReference": "US-0515",
        "potaName": "Ninigret National Wildlife Refuge",
        "geometryKind": "boundary",
        "geometryRole": "display",
        "fidelity": "web"
      },
      "geometry": {
        "type": "MultiPolygon",
        "coordinates": [
          [
            [
              [
                -71.6498997854025,
                41.3577421787338
              ],
              [
                -71.6501178640141,
                41.3577956958552
              ],
              [
                -71.6501835739806,
                41.3577671619367
              ],
              [
                -71.6503357485897,
                41.3574304077558
              ],
              [
                -71.6500954636243,
                41.3571522414239
              ],
              [
                -71.6502481017641,
                41.3569370735002
              ],
              [
                -71.6502698625535,
                41.3568014744654
              ],
              [
                -71.6502406232893,
                41.3567346002977
              ],
              [
                -71.6500802605364,
                41.3566122053833
              ],
              [
                -71.649985568224,
                41.3564882971383
              ],
              [
                -71.6500002853232,
                41.3563078293155
              ],
              [
                -71.6501161554185,
                41.3560980023586
              ],
              [
                -71.6502469303609,
                41.3559058533475
              ],
              [
                -71.6505375461351,
                41.3555839213653
              ],
              [
                -71.6510034645437,
                41.3555866832839
              ],
              [
                -71.6512360527438,
                41.3554822501761
              ],
              [
                -71.6513791310124,
                41.355298823435
              ],
              [
                -71.6505952350443,
                41.3531418269488
              ],
              [
                -71.6500114765351,
                41.3532723714837
              ],
              [
                -71.649414882897,
                41.3533626818178
              ],
              [
                -71.648076542244,
                41.3535196126508
              ],
              [
                -71.6473125098235,
                41.3536813152417
              ],
              [
                -71.646214901497,
                41.353999303137
              ],
              [
                -71.6469227029739,
                41.3559779521107
              ],
              [
                -71.647329404439,
                41.3560496401504
              ],
              [
                -71.6475260034339,
                41.3561351793952
              ],
              [
                -71.6475552885122,
                41.3563506594683
              ],
              [
                -71.6478756403189,
                41.3566044713235
              ],
              [
                -71.6478688472587,
                41.3568973366693
              ],
              [
                -71.6479270104784,
                41.3569500365808
              ],
              [
                -71.6481525504968,
                41.3570213985461
              ],
              [
                -71.6481962167045,
                41.3570113868111
              ],
              [
                -71.6482909467461,
                41.356869604754
              ],
              [
                -71.6483487901656,
                41.3568772794454
              ],
              [
                -71.6485021640256,
                41.3570944056786
              ],
              [
                -71.6486258171245,
                41.3571590968315
              ],
              [
                -71.6487712211313,
                41.3571152187042
              ],
              [
                -71.6488656268812,
                41.3569103995517
              ],
              [
                -71.6490476138796,
                41.3568566726745
              ],
              [
                -71.6488000651368,
                41.3567858196131
              ],
              [
                -71.6487924707794,
                41.3567094393614
              ],
              [
                -71.6488505998631,
                41.3566045266149
              ],
              [
                -71.6491417285753,
                41.3565527791905
              ],
              [
                -71.6493307161447,
                41.3563773033033
              ],
              [
                -71.6494109240215,
                41.3564114816218
              ],
              [
                -71.649461781243,
                41.3565138843093
              ],
              [
                -71.6493384443512,
                41.3567238737767
              ],
              [
                -71.6493240048313,
                41.3568007617472
              ],
              [
                -71.6495204520109,
                41.3570574227086
              ],
              [
                -71.6494771397394,
                41.357297090834
              ],
              [
                -71.6495138278339,
                41.3573908134987
              ],
              [
                -71.6496518324178,
                41.3574776988606
              ],
              [
                -71.64968125404,
                41.3575490717101
              ],
              [
                -71.6496519033847,
                41.3576172969633
              ],
              [
                -71.6497177148607,
                41.3576743217655
              ],
              [
                -71.649805049971,
                41.3576723097292
              ],
              [
                -71.6498997854025,
                41.3577421787338
              ]
            ]
          ],
          [
            [
              [
                -71.6509608287037,
                41.3567990504146
              ],
              [
                -71.6509173098198,
                41.3568585957306
              ],
              [
                -71.6508451634244,
                41.3572070064479
              ],
              [
                -71.6509976542405,
                41.35717196884
              ],
              [
                -71.6510046988289,
                41.3567755226196
              ],
              [
                -71.6509608287037,
                41.3567990504146
              ]
            ]
          ],
          [
            [
              [
                -71.6496161585213,
                41.3579423609967
              ],
              [
                -71.6492889148396,
                41.358098506726
              ],
              [
                -71.6491942135441,
                41.3582132775798
              ],
              [
                -71.6492089171687,
                41.3582624735994
              ],
              [
                -71.6492889274161,
                41.358301159761
              ],
              [
                -71.6493617089204,
                41.358290467886
              ],
              [
                -71.6495726629935,
                41.3581775305076
              ],
              [
                -71.6497253280828,
                41.3581469935004
              ],
              [
                -71.6497981922321,
                41.3580552509098
              ],
              [
                -71.6498051604638,
                41.357969519998
              ],
              [
                -71.6497176861147,
                41.3579310156929
              ],
              [
                -71.6496161585213,
                41.3579423609967
              ]
            ]
          ],
          [
            [
              [
                -71.6478777037491,
                41.3586804272203
              ],
              [
                -71.6481756821154,
                41.3584934277887
              ],
              [
                -71.648346808482,
                41.3584759777715
              ],
              [
                -71.648554286075,
                41.3585162321493
              ],
              [
                -71.6486309995053,
                41.3584919491225
              ],
              [
                -71.6486778780884,
                41.3584323277599
              ],
              [
                -71.6486632148881,
                41.3583561105905
              ],
              [
                -71.6483503181999,
                41.3583137807159
              ],
              [
                -71.6481248796911,
                41.3583369849804
              ],
              [
                -71.647993908916,
                41.358312981708
              ],
              [
                -71.6477462155443,
                41.3581835969118
              ],
              [
                -71.6478777037491,
                41.3586804272203
              ]
            ]
          ],
          [
            [
              [
                -71.6521332460322,
                41.3576591445099
              ],
              [
                -71.6519662501192,
                41.3578791493025
              ],
              [
                -71.6518353997183,
                41.3579317027763
              ],
              [
                -71.6517188729546,
                41.3580334699314
              ],
              [
                -71.6516825468811,
                41.3581874166491
              ],
              [
                -71.6518719072514,
                41.358241591491
              ],
              [
                -71.6519086007358,
                41.358308294869
              ],
              [
                -71.651799629702,
                41.3585404706655
              ],
              [
                -71.6522945762707,
                41.3586596416657
              ],
              [
                -71.6524546030537,
                41.3587550217314
              ],
              [
                -71.6526508903332,
                41.3587775138163
              ],
              [
                -71.6522325628717,
                41.3576028155468
              ],
              [
                -71.6521332460322,
                41.3576591445099
              ]
            ]
          ],
          [
            [
              [
                -71.6690274528472,
                41.3675534968556
              ],
              [
                -71.6688182738451,
                41.3678465563062
              ],
              [
                -71.6705281280552,
                41.3682166358886
              ],
              [
                -71.6716476642578,
                41.3697442376056
              ],
              [
                -71.6713793150245,
                41.3703899351267
              ],
              [
                -71.6716745921567,
                41.3707118093745
              ],
              [
                -71.675340562034,
                41.3688612631749
              ],
              [
                -71.6750553388465,
                41.3685751899165
              ],
              [
                -71.6748440263455,
                41.3683054099645
              ],
              [
                -71.6729722418223,
                41.3657935523548
              ],
              [
                -71.6725317807705,
                41.3658057895906
              ],
              [
                -71.6723952179827,
                41.3657126575006
              ],
              [
                -71.6723453453148,
                41.3655895365098
              ],
              [
                -71.6723699429839,
                41.3652962565442
              ],
              [
                -71.6723289582473,
                41.3651530976213
              ],
              [
                -71.6723264600326,
                41.3649279955227
              ],
              [
                -71.6724286092601,
                41.3648040350153
              ],
              [
                -71.6728870599738,
                41.3645501985037
              ],
              [
                -71.6731399761505,
                41.3644497521927
              ],
              [
                -71.6738611301858,
                41.364315885339
              ],
              [
                -71.6741520612687,
                41.3643316361399
              ],
              [
                -71.6743647769381,
                41.3643807284264
              ],
              [
                -71.6746565811834,
                41.3645000228989
              ],
              [
                -71.6750863217406,
                41.3645755883347
              ],
              [
                -71.6752940562517,
                41.3645212111105
              ],
              [
                -71.6753295711465,
                41.3644033008201
              ],
              [
                -71.6751618466998,
                41.3643126363398
              ],
              [
                -71.6746662344795,
                41.3642341088077
              ],
              [
                -71.6745242467656,
                41.3641608568563
              ],
              [
                -71.6743894446758,
                41.3639073090945
              ],
              [
                -71.67428720382,
                41.3638736612709
              ],
              [
                -71.6741437958698,
                41.3640391197771
              ],
              [
                -71.6740239543226,
                41.3641139582774
              ],
              [
                -71.6738513484307,
                41.3640864492291
              ],
              [
                -71.6737271653258,
                41.3638731832555
              ],
              [
                -71.673656599067,
                41.3635460891208
              ],
              [
                -71.673426826187,
                41.3632812390907
              ],
              [
                -71.6731065022281,
                41.3631040526476
              ],
              [
                -71.6730039739114,
                41.3628992887499
              ],
              [
                -71.6730197600059,
                41.3626737621848
              ],
              [
                -71.6731431310337,
                41.3622475836874
              ],
              [
                -71.6733173431134,
                41.3620318824374
              ],
              [
                -71.6734977023646,
                41.3618565595399
              ],
              [
                -71.673688849484,
                41.3617260254789
              ],
              [
                -71.6741692963457,
                41.3614806783959
              ],
              [
                -71.6743737627859,
                41.3612192417185
              ],
              [
                -71.6744856542427,
                41.3609779604191
              ],
              [
                -71.6745101315376,
                41.3605360764111
              ],
              [
                -71.674570898075,
                41.3602779714436
              ],
              [
                -71.6747891311968,
                41.3600702515064
              ],
              [
                -71.6750092004751,
                41.3599435375422
              ],
              [
                -71.6751784215151,
                41.3596153704693
              ],
              [
                -71.6755323828899,
                41.3592558763727
              ],
              [
                -71.6759327656053,
                41.3589808619234
              ],
              [
                -71.6761001918113,
                41.3589004117041
              ],
              [
                -71.6765526786098,
                41.3589213947405
              ],
              [
                -71.6766861233452,
                41.3588777598614
              ],
              [
                -71.6768733969292,
                41.3586257160287
              ],
              [
                -71.6762693472742,
                41.358279527204
              ],
              [
                -71.6748495932054,
                41.3577181428768
              ],
              [
                -71.6746896975764,
                41.3576993548908
              ],
              [
                -71.674158581241,
                41.3578287898717
              ],
              [
                -71.6737510560208,
                41.3578202616624
              ],
              [
                -71.6729580655088,
                41.3577306270671
              ],
              [
                -71.6721423997224,
                41.3574703930695
              ],
              [
                -71.6715968276975,
                41.3574020186469
              ],
              [
                -71.6709271965353,
                41.3572779831182
              ],
              [
                -71.670716002612,
                41.3572108356825
              ],
              [
                -71.670286684263,
                41.3571442599673
              ],
              [
                -71.6695735108606,
                41.357160825686
              ],
              [
                -71.6693118864156,
                41.3571939180025
              ],
              [
                -71.6685991783405,
                41.3573680788687
              ],
              [
                -71.6677027917393,
                41.3576365711255
              ],
              [
                -71.6677243773573,
                41.3577441469401
              ],
              [
                -71.6676369694835,
                41.3578812712389
              ],
              [
                -71.6674260504447,
                41.3579942502619
              ],
              [
                -71.6671052818197,
                41.3583169140406
              ],
              [
                -71.6668939926749,
                41.3584208942125
              ],
              [
                -71.6670177383003,
                41.3586702040214
              ],
              [
                -71.6670542233755,
                41.3588314730772
              ],
              [
                -71.6670614799664,
                41.3591735493553
              ],
              [
                -71.6666316585608,
                41.3596158343566
              ],
              [
                -71.6663622600953,
                41.3598337403294
              ],
              [
                -71.66606324148,
                41.3599487495053
              ],
              [
                -71.6659470012788,
                41.3599379432781
              ],
              [
                -71.665808563707,
                41.3598961207955
              ],
              [
                -71.6656552904583,
                41.3597105387672
              ],
              [
                -71.6655971919173,
                41.3595137446843
              ],
              [
                -71.6656264293849,
                41.35931492521
              ],
              [
                -71.665713866903,
                41.3591417674577
              ],
              [
                -71.6661801203833,
                41.3586220871341
              ],
              [
                -71.6663332103757,
                41.3585014542557
              ],
              [
                -71.6664279017898,
                41.3583596504966
              ],
              [
                -71.6663261235664,
                41.3581818808955
              ],
              [
                -71.6663258217325,
                41.3580738108896
              ],
              [
                -71.6659982169281,
                41.3579733383994
              ],
              [
                -71.6659327513035,
                41.3579073069278
              ],
              [
                -71.6659106123233,
                41.3578042463187
              ],
              [
                -71.6657010973513,
                41.3577505613101
              ],
              [
                -71.665590572232,
                41.3575414719425
              ],
              [
                -71.6655757572163,
                41.3573706930448
              ],
              [
                -71.6654336581114,
                41.3572208777294
              ],
              [
                -71.6647785015033,
                41.3569658680555
              ],
              [
                -71.6644217005539,
                41.3567174599799
              ],
              [
                -71.6635925456653,
                41.3568942889103
              ],
              [
                -71.6632066554703,
                41.356912241018
              ],
              [
                -71.6630614931103,
                41.3568975901997
              ],
              [
                -71.6627628140581,
                41.3568009323411
              ],
              [
                -71.662297019617,
                41.356609080068
              ],
              [
                -71.6619986855179,
                41.3565574439045
              ],
              [
                -71.6619038818144,
                41.3565776509184
              ],
              [
                -71.6618239524153,
                41.3566785813799
              ],
              [
                -71.6616790730246,
                41.3570737140169
              ],
              [
                -71.6613448242804,
                41.357423703415
              ],
              [
                -71.6605158535464,
                41.3578436872643
              ],
              [
                -71.6603629378271,
                41.3579688126869
              ],
              [
                -71.660297562034,
                41.3580693950902
              ],
              [
                -71.6603489088373,
                41.358293368589
              ],
              [
                -71.660349141501,
                41.3584915047809
              ],
              [
                -71.660204144431,
                41.3587740663071
              ],
              [
                -71.660175093813,
                41.358959370513
              ],
              [
                -71.6603501467158,
                41.3591849854675
              ],
              [
                -71.6605213440494,
                41.3593341334665
              ],
              [
                -71.6605720162179,
                41.359459051724
              ],
              [
                -71.6605785541566,
                41.3597200868747
              ],
              [
                -71.6607244657115,
                41.3597257175672
              ],
              [
                -71.6608916278129,
                41.3597848947606
              ],
              [
                -71.6611321014245,
                41.3601395879768
              ],
              [
                -71.6612705183351,
                41.3601994296032
              ],
              [
                -71.6613654495994,
                41.3602827950131
              ],
              [
                -71.6614378879473,
                41.3605017755231
              ],
              [
                -71.6615764144523,
                41.3606741947312
              ],
              [
                -71.6616127063897,
                41.3608219611662
              ],
              [
                -71.6616051695245,
                41.3609212061851
              ],
              [
                -71.6615177149384,
                41.361103358951
              ],
              [
                -71.6615105571622,
                41.361211601251
              ],
              [
                -71.6612191275143,
                41.3616866893694
              ],
              [
                -71.6611170726098,
                41.3619142197988
              ],
              [
                -71.6608038740877,
                41.3620205378465
              ],
              [
                -71.6607164751971,
                41.362112624098
              ],
              [
                -71.6603957883188,
                41.362246142189
              ],
              [
                -71.6602212869816,
                41.3622636882841
              ],
              [
                -71.6600459151768,
                41.3622047088707
              ],
              [
                -71.6598641231128,
                41.361997263427
              ],
              [
                -71.6598570030659,
                41.3617767608127
              ],
              [
                -71.6599592897357,
                41.36147267994
              ],
              [
                -71.660133836887,
                41.3613650691597
              ],
              [
                -71.660549003177,
                41.3614230042681
              ],
              [
                -71.6605997786518,
                41.3614038161811
              ],
              [
                -71.6608258639476,
                41.3612499701163
              ],
              [
                -71.6610591411555,
                41.3609608697641
              ],
              [
                -71.66106637978,
                41.3607355421254
              ],
              [
                -71.6609791120434,
                41.3606474966929
              ],
              [
                -71.6607313863325,
                41.3605181327196
              ],
              [
                -71.660665961132,
                41.3604160721068
              ],
              [
                -71.6606658551308,
                41.3603034937455
              ],
              [
                -71.6606147652457,
                41.3602416308185
              ],
              [
                -71.6604617965258,
                41.3601641117701
              ],
              [
                -71.6604833965169,
                41.3602356637206
              ],
              [
                -71.6604090690119,
                41.3603184418146
              ],
              [
                -71.6603161679402,
                41.3602845649138
              ],
              [
                -71.6602615413877,
                41.3602092736341
              ],
              [
                -71.6596318367466,
                41.3600842475882
              ],
              [
                -71.6593509973377,
                41.3600862386482
              ],
              [
                -71.6585830150249,
                41.3602346071734
              ],
              [
                -71.6579209404908,
                41.3604885899745
              ],
              [
                -71.6575648635835,
                41.3605238469495
              ],
              [
                -71.6572371949988,
                41.3605134062589
              ],
              [
                -71.6569967204888,
                41.3604334009139
              ],
              [
                -71.656814866441,
                41.360316015872
              ],
              [
                -71.6562976129072,
                41.359796593724
              ],
              [
                -71.6559191940005,
                41.3597783140506
              ],
              [
                -71.6555483380101,
                41.3598724491559
              ],
              [
                -71.6552936773052,
                41.3600404442519
              ],
              [
                -71.654995776194,
                41.3601464019406
              ],
              [
                -71.6546536959372,
                41.3601948372948
              ],
              [
                -71.6542534407826,
                41.3601725526942
              ],
              [
                -71.6541007694051,
                41.3602121021071
              ],
              [
                -71.6541227116543,
                41.3603016597919
              ],
              [
                -71.6542245545563,
                41.360362354866
              ],
              [
                -71.654508806665,
                41.3607655870692
              ],
              [
                -71.6547343709379,
                41.3608279282102
              ],
              [
                -71.6550691110606,
                41.360865233348
              ],
              [
                -71.6552874609634,
                41.3608421688789
              ],
              [
                -71.6556074112232,
                41.3607086917332
              ],
              [
                -71.6560295511348,
                41.3606629078886
              ],
              [
                -71.6564223493743,
                41.360676342872
              ],
              [
                -71.6566697148608,
                41.3607696992764
              ],
              [
                -71.6569248390964,
                41.3609799602169
              ],
              [
                -71.6570267251176,
                41.3612342893645
              ],
              [
                -71.6570273844811,
                41.3615900278354
              ],
              [
                -71.6569547637752,
                41.3618799203114
              ],
              [
                -71.656831457426,
                41.3620809110586
              ],
              [
                -71.6563587809915,
                41.3623079930972
              ],
              [
                -71.6557621118949,
                41.3624073444004
              ],
              [
                -71.6554200325364,
                41.3624287611816
              ],
              [
                -71.6552454880801,
                41.3625093466038
              ],
              [
                -71.6550421202796,
                41.3626986733755
              ],
              [
                -71.6549042908672,
                41.3630756316284
              ],
              [
                -71.6548322576595,
                41.3638023216515
              ],
              [
                -71.6547085596449,
                41.3640033185971
              ],
              [
                -71.6545049492992,
                41.3640125215539
              ],
              [
                -71.654250321832,
                41.3638878149741
              ],
              [
                -71.6539879428021,
                41.3638758565008
              ],
              [
                -71.6537699055129,
                41.3639709524957
              ],
              [
                -71.6536029087016,
                41.3641729568608
              ],
              [
                -71.6533190608348,
                41.364413682905
              ],
              [
                -71.6531737250999,
                41.3645971641885
              ],
              [
                -71.6531084589012,
                41.3647652886701
              ],
              [
                -71.6531085217833,
                41.3649138939592
              ],
              [
                -71.6531453607948,
                41.3650481398305
              ],
              [
                -71.6532400845483,
                41.3651450261292
              ],
              [
                -71.6533852936207,
                41.3651236621552
              ],
              [
                -71.6534874796792,
                41.3649997182014
              ],
              [
                -71.6535962971011,
                41.3649656846264
              ],
              [
                -71.653830753797,
                41.3650376479524
              ],
              [
                -71.6539897151781,
                41.3654159343035
              ],
              [
                -71.6539973104338,
                41.3657129703255
              ],
              [
                -71.6539613185337,
                41.3659209493434
              ],
              [
                -71.6538448106346,
                41.3659866834573
              ],
              [
                -71.6531598389423,
                41.3660745483997
              ],
              [
                -71.6536179842287,
                41.3665638343642
              ],
              [
                -71.656572816286,
                41.3650500275863
              ],
              [
                -71.665247884714,
                41.3670107506326
              ],
              [
                -71.665372176515,
                41.3667061467825
              ],
              [
                -71.6690274528472,
                41.3675534968556
              ]
            ]
          ],
          [
            [
              [
                -71.6828531260427,
                41.3652990611993
              ],
              [
                -71.6826612270334,
                41.3653956821658
              ],
              [
                -71.6828814463303,
                41.3656143083748
              ],
              [
                -71.683099089259,
                41.3654898779134
              ],
              [
                -71.6829288549194,
                41.3653213049411
              ],
              [
                -71.6828531260427,
                41.3652990611993
              ]
            ]
          ],
          [
            [
              [
                -71.6417596385734,
                41.4013958622139
              ],
              [
                -71.642065960492,
                41.4024389973171
              ],
              [
                -71.6433726085818,
                41.4025029385757
              ],
              [
                -71.6444997184806,
                41.402442878468
              ],
              [
                -71.6447888843739,
                41.4023942481689
              ],
              [
                -71.6453078357237,
                41.4022238612534
              ],
              [
                -71.6461490513934,
                41.4017725220988
              ],
              [
                -71.6468927836851,
                41.4015527695085
              ],
              [
                -71.6474667855921,
                41.4012484864455
              ],
              [
                -71.6482243546341,
                41.4009025864231
              ],
              [
                -71.6485416943897,
                41.4008166330094
              ],
              [
                -71.6493234065533,
                41.400818141036
              ],
              [
                -71.6499058274711,
                41.3973653323124
              ],
              [
                -71.6486965908941,
                41.3976249734432
              ],
              [
                -71.6487067903659,
                41.3943254081445
              ],
              [
                -71.6502933795493,
                41.3943395740912
              ],
              [
                -71.6520708751037,
                41.394176040478
              ],
              [
                -71.6524900029641,
                41.3942028575145
              ],
              [
                -71.654793874444,
                41.3924278199652
              ],
              [
                -71.6589797919027,
                41.3916275931726
              ],
              [
                -71.6591383589234,
                41.3902773884929
              ],
              [
                -71.6586310263835,
                41.3899973576158
              ],
              [
                -71.6571879529482,
                41.3898420843639
              ],
              [
                -71.6580070889265,
                41.3875778668635
              ],
              [
                -71.6560716219345,
                41.3873292784342
              ],
              [
                -71.6556024147936,
                41.3876674704513
              ],
              [
                -71.6546381335232,
                41.387898531216
              ],
              [
                -71.6538675083669,
                41.3879919644807
              ],
              [
                -71.6537269561609,
                41.3880793636492
              ],
              [
                -71.6540498061824,
                41.3883738167027
              ],
              [
                -71.6521742388535,
                41.3884570435709
              ],
              [
                -71.652073562863,
                41.3871700351972
              ],
              [
                -71.6519696205981,
                41.3864211088417
              ],
              [
                -71.6511307082088,
                41.386515630005
              ],
              [
                -71.6510967420096,
                41.3863446339732
              ],
              [
                -71.6487230867034,
                41.3866120300732
              ],
              [
                -71.6493649168043,
                41.3883367328948
              ],
              [
                -71.6486499782123,
                41.3884391419517
              ],
              [
                -71.6486384725902,
                41.3884043624382
              ],
              [
                -71.647982076307,
                41.3885112727364
              ],
              [
                -71.6457066957946,
                41.3881166154198
              ],
              [
                -71.6456684733776,
                41.3885685265657
              ],
              [
                -71.6454142744067,
                41.3885737268003
              ],
              [
                -71.6446746761619,
                41.3890208038951
              ],
              [
                -71.644352876271,
                41.3891447391499
              ],
              [
                -71.6444948855443,
                41.3894379729281
              ],
              [
                -71.6445972234182,
                41.3899136973536
              ],
              [
                -71.6451516645098,
                41.3897942102344
              ],
              [
                -71.6453801429175,
                41.3908700824141
              ],
              [
                -71.6464125901483,
                41.3920633436107
              ],
              [
                -71.6462635057437,
                41.3927189727219
              ],
              [
                -71.6465134458018,
                41.39266825141
              ],
              [
                -71.6466080509777,
                41.3927142674701
              ],
              [
                -71.64664891534,
                41.3927981498885
              ],
              [
                -71.6466003101949,
                41.3928942225561
              ],
              [
                -71.6464703626008,
                41.3929380846417
              ],
              [
                -71.6463625845297,
                41.3929134916593
              ],
              [
                -71.646268666565,
                41.3928352163255
              ],
              [
                -71.6461829951347,
                41.3928225077197
              ],
              [
                -71.6455111092011,
                41.3928315286871
              ],
              [
                -71.6454556076896,
                41.3928528896265
              ],
              [
                -71.6454312319043,
                41.3929009057204
              ],
              [
                -71.6452854865377,
                41.3929029705801
              ],
              [
                -71.6452840986406,
                41.3928481264281
              ],
              [
                -71.6443473776831,
                41.392861502874
              ],
              [
                -71.6444064769474,
                41.3931992617695
              ],
              [
                -71.6445140169649,
                41.3932820080307
              ],
              [
                -71.6445454256606,
                41.3933489854807
              ],
              [
                -71.6445120289932,
                41.3934394127125
              ],
              [
                -71.6444092446568,
                41.3934925278026
              ],
              [
                -71.644263057319,
                41.3934740129696
              ],
              [
                -71.6441845580379,
                41.3933845474481
              ],
              [
                -71.6441920329194,
                41.3933137375339
              ],
              [
                -71.6442598943509,
                41.3932193489048
              ],
              [
                -71.6442026950235,
                41.3928980368861
              ],
              [
                -71.6442279260049,
                41.3926926598333
              ],
              [
                -71.6433429695673,
                41.3928192823832
              ],
              [
                -71.6427841599685,
                41.3906161002781
              ],
              [
                -71.6415042035207,
                41.3908255032181
              ],
              [
                -71.6416624022321,
                41.3927009759068
              ],
              [
                -71.6412878900986,
                41.39271616251
              ],
              [
                -71.6411919428397,
                41.3937849137462
              ],
              [
                -71.6412464867471,
                41.3937876956081
              ],
              [
                -71.6411762322037,
                41.394570165026
              ],
              [
                -71.6411216882963,
                41.3945673919582
              ],
              [
                -71.6410420643245,
                41.3954542986054
              ],
              [
                -71.6386984468848,
                41.3952537802565
              ],
              [
                -71.6390050086536,
                41.3965673098889
              ],
              [
                -71.6399054852843,
                41.3983540800691
              ],
              [
                -71.6400245623651,
                41.3986708031534
              ],
              [
                -71.6410279284351,
                41.3993459023545
              ],
              [
                -71.6411411206525,
                41.3995165939797
              ],
              [
                -71.6411773497079,
                41.3997562768491
              ],
              [
                -71.6411452079871,
                41.3999947944454
              ],
              [
                -71.6409357334392,
                41.4002405804853
              ],
              [
                -71.6405542710404,
                41.4000211643495
              ],
              [
                -71.6403015758492,
                41.4000755199832
              ],
              [
                -71.6404347115642,
                41.4007675864151
              ],
              [
                -71.6415220009431,
                41.4005865864535
              ],
              [
                -71.6417596385734,
                41.4013958622139
              ]
            ]
          ],
          [
            [
              [
                -71.6823003809703,
                41.3761772344551
              ],
              [
                -71.6829311806577,
                41.3758835370966
              ],
              [
                -71.6829357207432,
                41.375910774219
              ],
              [
                -71.6832541483585,
                41.3757773987629
              ],
              [
                -71.6831874430588,
                41.375673662033
              ],
              [
                -71.6838267255375,
                41.375397703137
              ],
              [
                -71.6838489893835,
                41.3754323170401
              ],
              [
                -71.6842096935128,
                41.3753007269474
              ],
              [
                -71.6844987489133,
                41.3757502600014
              ],
              [
                -71.6846299200128,
                41.3757024092007
              ],
              [
                -71.6843408529342,
                41.375252875816
              ],
              [
                -71.6847507479101,
                41.3751033389499
              ],
              [
                -71.6850974230496,
                41.3749313550179
              ],
              [
                -71.6852834964843,
                41.3747757296365
              ],
              [
                -71.6850862129732,
                41.3746546076473
              ],
              [
                -71.6847991482393,
                41.3743606317506
              ],
              [
                -71.6842576931934,
                41.3739933017421
              ],
              [
                -71.684944640281,
                41.3734187412896
              ],
              [
                -71.6854997164816,
                41.3741295424297
              ],
              [
                -71.6857793656228,
                41.3743609890247
              ],
              [
                -71.6855355386002,
                41.3745649220888
              ],
              [
                -71.6860770107141,
                41.3749322448247
              ],
              [
                -71.6864183651322,
                41.3746467395637
              ],
              [
                -71.6856624732448,
                41.3741121869354
              ],
              [
                -71.6849822590302,
                41.3732497142843
              ],
              [
                -71.6858029257378,
                41.3725046885155
              ],
              [
                -71.6851416201616,
                41.3707453228788
              ],
              [
                -71.6884192034258,
                41.3705279307366
              ],
              [
                -71.6859649746285,
                41.3645404117625
              ],
              [
                -71.6854109530501,
                41.3648571728227
              ],
              [
                -71.6851907283633,
                41.3646385508118
              ],
              [
                -71.6842476105026,
                41.3651777712196
              ],
              [
                -71.6838071674171,
                41.3647405306402
              ],
              [
                -71.6830767885821,
                41.3651623132252
              ],
              [
                -71.683079016404,
                41.3652429579625
              ],
              [
                -71.6837199113587,
                41.3658788691202
              ],
              [
                -71.6838903325479,
                41.3659382072431
              ],
              [
                -71.6839482855618,
                41.3660337269852
              ],
              [
                -71.6838734900346,
                41.3661496023214
              ],
              [
                -71.6836413779416,
                41.3661791829477
              ],
              [
                -71.6825421912751,
                41.3668154085621
              ],
              [
                -71.6831820873031,
                41.3673781686095
              ],
              [
                -71.6823942630023,
                41.3677524623993
              ],
              [
                -71.6816999227798,
                41.3678838398921
              ],
              [
                -71.6812672393418,
                41.3680338706649
              ],
              [
                -71.6809003916343,
                41.367433338297
              ],
              [
                -71.6809180318515,
                41.3673543372155
              ],
              [
                -71.6806316660069,
                41.3674565076237
              ],
              [
                -71.6807358094944,
                41.3674926183718
              ],
              [
                -71.6811727832863,
                41.368207419369
              ],
              [
                -71.6806039592686,
                41.3684046449188
              ],
              [
                -71.6802567999372,
                41.368609427897
              ],
              [
                -71.6798750788235,
                41.3682422076619
              ],
              [
                -71.6789288177577,
                41.3688015501883
              ],
              [
                -71.6805691378732,
                41.3704567453759
              ],
              [
                -71.6814229569064,
                41.3712621040137
              ],
              [
                -71.6823003809703,
                41.3761772344551
              ]
            ]
          ],
          [
            [
              [
                -71.6853091532672,
                41.376555900256
              ],
              [
                -71.6854504376001,
                41.3764824228788
              ],
              [
                -71.6856614500637,
                41.3764529440046
              ],
              [
                -71.6855648048138,
                41.3763789528612
              ],
              [
                -71.6855565816357,
                41.376329961303
              ],
              [
                -71.685673545879,
                41.3762375979022
              ],
              [
                -71.6851148925869,
                41.3756742801721
              ],
              [
                -71.6846155254087,
                41.3758564671362
              ],
              [
                -71.6853091532672,
                41.376555900256
              ]
            ]
          ]
        ]
      }
    }
  ],
  "bbox": [
    -71.6884192034258,
    41.3531418269488,
    -71.6386984468848,
    41.4025029385757
  ]
}
