{
  "$schema": "https://ripota.org/schemas/web/v1/display-geojson.schema.json",
  "type": "FeatureCollection",
  "properties": {
    "schemaVersion": 1,
    "geometryRole": "display",
    "geometryKind": "boundary",
    "potaReference": "US-0514",
    "potaName": "John H. Chafee National Wildlife Refuge",
    "sourceName": "U.S. Fish and Wildlife Service National Wildlife Refuge System Boundaries",
    "sourceUrl": "https://services.arcgis.com/QVENGdaPbd4LUkLV/arcgis/rest/services/National_Wildlife_Refuge_System_Boundaries/FeatureServer/0",
    "sourceQuery": "ORGNAME = 'JOHN H. CHAFEE NATIONAL WILDLIFE REFUGE'",
    "sourceFeatureIds": [
      484
    ],
    "fidelity": "web",
    "detailedArtifact": "@ripota/parks/boundaries/us-0514.geojson"
  },
  "features": [
    {
      "type": "Feature",
      "properties": {
        "potaReference": "US-0514",
        "potaName": "John H. Chafee National Wildlife Refuge",
        "geometryKind": "boundary",
        "geometryRole": "display",
        "fidelity": "web"
      },
      "geometry": {
        "type": "MultiPolygon",
        "coordinates": [
          [
            [
              [
                -71.4918521113193,
                41.4099475908522
              ],
              [
                -71.4919907815548,
                41.4100346505835
              ],
              [
                -71.4923097481593,
                41.4097530386783
              ],
              [
                -71.4922458141623,
                41.409713894657
              ],
              [
                -71.4928800211596,
                41.4091507497155
              ],
              [
                -71.4928367529056,
                41.4090751329846
              ],
              [
                -71.4918521113193,
                41.4099475908522
              ]
            ]
          ],
          [
            [
              [
                -71.4934623738055,
                41.4161376552467
              ],
              [
                -71.4934766821713,
                41.4162218819924
              ],
              [
                -71.4935252837231,
                41.4162269257447
              ],
              [
                -71.4935018179313,
                41.4162546498701
              ],
              [
                -71.4935219258206,
                41.4162848982154
              ],
              [
                -71.4936124221023,
                41.4163239709107
              ],
              [
                -71.4936006847148,
                41.4163819432949
              ],
              [
                -71.4936945335092,
                41.4164147151338
              ],
              [
                -71.4950841949144,
                41.4164368450587
              ],
              [
                -71.494884184118,
                41.4162247639441
              ],
              [
                -71.4948044110259,
                41.4157770116683
              ],
              [
                -71.4945535187535,
                41.4157165737738
              ],
              [
                -71.4945209197902,
                41.4157465549215
              ],
              [
                -71.4945463726554,
                41.415865543644
              ],
              [
                -71.4946045628246,
                41.4159872699453
              ],
              [
                -71.4946482101676,
                41.4160132567777
              ],
              [
                -71.4946591175118,
                41.4160898483164
              ],
              [
                -71.4944477771631,
                41.4157426920807
              ],
              [
                -71.494256947149,
                41.4157426267344
              ],
              [
                -71.4940462410109,
                41.4158034721765
              ],
              [
                -71.493731507268,
                41.4157436150127
              ],
              [
                -71.493607908068,
                41.4157875378023
              ],
              [
                -71.4935751554928,
                41.4159393477065
              ],
              [
                -71.4934623738055,
                41.4161376552467
              ]
            ]
          ],
          [
            [
              [
                -71.510529920436,
                41.4236094570157
              ],
              [
                -71.5156409732799,
                41.4270012661562
              ],
              [
                -71.5174780900197,
                41.4270466187002
              ],
              [
                -71.5175525998826,
                41.4251626330815
              ],
              [
                -71.5115013262449,
                41.4210664266166
              ],
              [
                -71.5108167695742,
                41.4216217668549
              ],
              [
                -71.5108273202872,
                41.4216530588195
              ],
              [
                -71.5108714122963,
                41.4216520955548
              ],
              [
                -71.5109050730683,
                41.4215748053032
              ],
              [
                -71.51101008882,
                41.4215635054526
              ],
              [
                -71.5110498761022,
                41.4214995917094
              ],
              [
                -71.5110868660307,
                41.4214987833734
              ],
              [
                -71.511126003831,
                41.421592497733
              ],
              [
                -71.5111083366643,
                41.4217549997635
              ],
              [
                -71.5111891356325,
                41.4219693908105
              ],
              [
                -71.5113143922242,
                41.4221242686902
              ],
              [
                -71.5114530552731,
                41.4222293175849
              ],
              [
                -71.5115547248003,
                41.4222090838136
              ],
              [
                -71.5116644728769,
                41.4223012545928
              ],
              [
                -71.5119231194068,
                41.4222595786405
              ],
              [
                -71.5120181135531,
                41.4222890259671
              ],
              [
                -71.5120500603396,
                41.4223513734768
              ],
              [
                -71.5121198935731,
                41.4223588545272
              ],
              [
                -71.5122406325372,
                41.422338203835
              ],
              [
                -71.5122467868952,
                41.4222750237367
              ],
              [
                -71.5124307061699,
                41.4223025277061
              ],
              [
                -71.5124245868461,
                41.4223476935756
              ],
              [
                -71.5124941766363,
                41.4223776959121
              ],
              [
                -71.5124371120561,
                41.4225365558299
              ],
              [
                -71.5121198324877,
                41.4228226894243
              ],
              [
                -71.5118218550197,
                41.4230273421171
              ],
              [
                -71.5118024945287,
                41.4230682948069
              ],
              [
                -71.5115137903695,
                41.423164665585
              ],
              [
                -71.5114385861088,
                41.4230762439247
              ],
              [
                -71.5112478306549,
                41.4230263707896
              ],
              [
                -71.5111486898852,
                41.4228213866828
              ],
              [
                -71.5108659289798,
                41.422615909526
              ],
              [
                -71.5107956178425,
                41.4226444648428
              ],
              [
                -71.5106026651094,
                41.4225766257369
              ],
              [
                -71.5105454576972,
                41.4225958880598
              ],
              [
                -71.5104376643546,
                41.4225351958263
              ],
              [
                -71.5103548657366,
                41.4225505135461
              ],
              [
                -71.5102617499675,
                41.4225210239012
              ],
              [
                -71.510121569664,
                41.4224250125459
              ],
              [
                -71.5099435792702,
                41.4224153887694
              ],
              [
                -71.5100121027601,
                41.4221752209618
              ],
              [
                -71.5099375111505,
                41.4221318164539
              ],
              [
                -71.5100168018474,
                41.4221030669129
              ],
              [
                -71.5100027656711,
                41.4220493339327
              ],
              [
                -71.5098853316089,
                41.4220293816734
              ],
              [
                -71.5095660820351,
                41.4220993944074
              ],
              [
                -71.5094226219825,
                41.422034977333
              ],
              [
                -71.5093975571894,
                41.4219859885194
              ],
              [
                -71.5093389286424,
                41.4219782615589
              ],
              [
                -71.5093265004505,
                41.4219470108411
              ],
              [
                -71.5093774133675,
                41.4218513307267
              ],
              [
                -71.5093519658921,
                41.4218023505315
              ],
              [
                -71.5093075406081,
                41.4217943136885
              ],
              [
                -71.5092949147868,
                41.4217675693365
              ],
              [
                -71.5093390310504,
                41.4217576005741
              ],
              [
                -71.5092882870166,
                41.4216731465904
              ],
              [
                -71.5091933791085,
                41.4216166756951
              ],
              [
                -71.5091952386211,
                41.4215580923014
              ],
              [
                -71.5093194325058,
                41.4215013437775
              ],
              [
                -71.5093773873164,
                41.4214235232122
              ],
              [
                -71.5092910574209,
                41.4213083236537
              ],
              [
                -71.5093226574577,
                41.4211094903127
              ],
              [
                -71.5092920761105,
                41.4210921453379
              ],
              [
                -71.5090681270084,
                41.4211510713493
              ],
              [
                -71.5089598351009,
                41.4211354212063
              ],
              [
                -71.5089221094523,
                41.4211947863763
              ],
              [
                -71.5085245411587,
                41.4213475644251
              ],
              [
                -71.508328794665,
                41.4213428282389
              ],
              [
                -71.5075400468961,
                41.4211934128723
              ],
              [
                -71.5070126046703,
                41.4210518037205
              ],
              [
                -71.5067356316103,
                41.4211028747166
              ],
              [
                -71.507978012428,
                41.4218953740035
              ],
              [
                -71.510529920436,
                41.4236094570157
              ]
            ]
          ],
          [
            [
              [
                -71.4763833565871,
                41.4371481968054
              ],
              [
                -71.4763801864325,
                41.4374981068224
              ],
              [
                -71.4767751855444,
                41.437499644976
              ],
              [
                -71.4772534872292,
                41.4371439035555
              ],
              [
                -71.4763833565871,
                41.4371481968054
              ]
            ]
          ],
          [
            [
              [
                -71.4874225725523,
                41.4110827113697
              ],
              [
                -71.4871796375567,
                41.4111415575314
              ],
              [
                -71.4873261905088,
                41.4114844461059
              ],
              [
                -71.4874201165583,
                41.4118819622616
              ],
              [
                -71.4879205015277,
                41.4118149540557
              ],
              [
                -71.4878177270727,
                41.4113800050419
              ],
              [
                -71.4876655075478,
                41.411023864481
              ],
              [
                -71.4874225725523,
                41.4110827113697
              ]
            ]
          ],
          [
            [
              [
                -71.4893652637958,
                41.4125137996039
              ],
              [
                -71.4895184579928,
                41.4131622907238
              ],
              [
                -71.4903798911463,
                41.4130469613089
              ],
              [
                -71.4902266897628,
                41.4123984724061
              ],
              [
                -71.4893652637958,
                41.4125137996039
              ]
            ]
          ],
          [
            [
              [
                -71.488612262687,
                41.4118341084077
              ],
              [
                -71.4887654470025,
                41.4124825995759
              ],
              [
                -71.4900575864021,
                41.4123096123247
              ],
              [
                -71.4899043886119,
                41.4116611221246
              ],
              [
                -71.488612262687,
                41.4118341084077
              ]
            ]
          ],
          [
            [
              [
                -71.4787919869005,
                41.4159084821174
              ],
              [
                -71.4799585526032,
                41.4177656917965
              ],
              [
                -71.4816653255919,
                41.4181071408483
              ],
              [
                -71.4822662203635,
                41.4157524765064
              ],
              [
                -71.4851438772565,
                41.4164243492308
              ],
              [
                -71.4908689411735,
                41.4176469457018
              ],
              [
                -71.4923877354007,
                41.4180283333615
              ],
              [
                -71.4924294298064,
                41.4179553784508
              ],
              [
                -71.4924199939026,
                41.4178159812464
              ],
              [
                -71.4925464147109,
                41.417709666156
              ],
              [
                -71.4928047674916,
                41.4176995620401
              ],
              [
                -71.4929860690755,
                41.417835232182
              ],
              [
                -71.4930596635552,
                41.4178336376494
              ],
              [
                -71.4931300779987,
                41.4177195291028
              ],
              [
                -71.4932084901432,
                41.4173260454747
              ],
              [
                -71.4932047657281,
                41.4172090420026
              ],
              [
                -71.4931594547051,
                41.4171289649268
              ],
              [
                -71.4928245546824,
                41.4170146388974
              ],
              [
                -71.4924977709382,
                41.4170442395021
              ],
              [
                -71.4922684382327,
                41.4171482820845
              ],
              [
                -71.4922055956887,
                41.4171181210433
              ],
              [
                -71.4920480455609,
                41.4169188895394
              ],
              [
                -71.4919794124766,
                41.4166006460146
              ],
              [
                -71.4919150832208,
                41.4164534320556
              ],
              [
                -71.4919475959458,
                41.4163356428634
              ],
              [
                -71.4920137541716,
                41.4162666600163
              ],
              [
                -71.4923135606094,
                41.4162556590243
              ],
              [
                -71.4928015685909,
                41.4159253501701
              ],
              [
                -71.4928256308641,
                41.4158212530822
              ],
              [
                -71.4927800431601,
                41.4154799941158
              ],
              [
                -71.4928539053376,
                41.4148209176558
              ],
              [
                -71.4928725615495,
                41.4147709768757
              ],
              [
                -71.493078635974,
                41.4146359147334
              ],
              [
                -71.4931204031431,
                41.414544943688
              ],
              [
                -71.4928307844989,
                41.4141774526474
              ],
              [
                -71.4927667480939,
                41.4140572535792
              ],
              [
                -71.4926786637886,
                41.4137484385246
              ],
              [
                -71.4924870136127,
                41.4134688873874
              ],
              [
                -71.492247802134,
                41.4132263932233
              ],
              [
                -71.4917510373752,
                41.4129264347506
              ],
              [
                -71.4915832922672,
                41.4127634491427
              ],
              [
                -71.4915389900523,
                41.412660834528
              ],
              [
                -71.4915314145595,
                41.4122962344919
              ],
              [
                -71.4914564420642,
                41.4119195850811
              ],
              [
                -71.4910135097471,
                41.4111005818251
              ],
              [
                -71.4909536603896,
                41.4110118129421
              ],
              [
                -71.4907948238743,
                41.4109251890716
              ],
              [
                -71.4907603492287,
                41.410844877204
              ],
              [
                -71.4907738733653,
                41.4107094862054
              ],
              [
                -71.4908603389063,
                41.4106535737281
              ],
              [
                -71.4905399296074,
                41.4105749519047
              ],
              [
                -71.4900392401091,
                41.4107389057564
              ],
              [
                -71.4904862301164,
                41.4115668322289
              ],
              [
                -71.4907674477161,
                41.4123217916275
              ],
              [
                -71.4909472347404,
                41.4130834516366
              ],
              [
                -71.4903300669874,
                41.4131643677401
              ],
              [
                -71.4903383090301,
                41.4134974305574
              ],
              [
                -71.4904405337162,
                41.4139320325903
              ],
              [
                -71.4886099297622,
                41.4141743125818
              ],
              [
                -71.4884310922571,
                41.413417132649
              ],
              [
                -71.4879286321794,
                41.4134865476669
              ],
              [
                -71.487724390318,
                41.4126218377791
              ],
              [
                -71.4886218755589,
                41.4125018197542
              ],
              [
                -71.4884685960219,
                41.4118536905621
              ],
              [
                -71.4877150226862,
                41.411955558631
              ],
              [
                -71.4877916426918,
                41.4122781353043
              ],
              [
                -71.4873022926273,
                41.4123442564324
              ],
              [
                -71.4872111073377,
                41.4120138495374
              ],
              [
                -71.4866920320205,
                41.4120902672585
              ],
              [
                -71.4868631943198,
                41.4127350343277
              ],
              [
                -71.4863886386097,
                41.4128398653083
              ],
              [
                -71.4860827335094,
                41.4122205264291
              ],
              [
                -71.4846426047515,
                41.4126524448798
              ],
              [
                -71.4848042395189,
                41.4129596765558
              ],
              [
                -71.4844316309155,
                41.4130713027932
              ],
              [
                -71.4842911388966,
                41.4128086458995
              ],
              [
                -71.4842004539687,
                41.412783585475
              ],
              [
                -71.482551466009,
                41.4132785321219
              ],
              [
                -71.4793396609831,
                41.4135774952679
              ],
              [
                -71.4793398550192,
                41.4133568306668
              ],
              [
                -71.4784017434697,
                41.4133455320811
              ],
              [
                -71.4784032858771,
                41.4143001899494
              ],
              [
                -71.478456326903,
                41.4148394385337
              ],
              [
                -71.4785813140001,
                41.4154221684617
              ],
              [
                -71.4787919869005,
                41.4159084821174
              ]
            ]
          ],
          [
            [
              [
                -71.4690179770461,
                41.4397358945554
              ],
              [
                -71.4690354941941,
                41.4397599654212
              ],
              [
                -71.4691369301594,
                41.4397059911524
              ],
              [
                -71.469164936935,
                41.4395832136485
              ],
              [
                -71.4692777419785,
                41.4394744593535
              ],
              [
                -71.4692357125013,
                41.4394403623992
              ],
              [
                -71.4693217675123,
                41.4394016975682
              ],
              [
                -71.4693208853666,
                41.4393463141897
              ],
              [
                -71.4695026352099,
                41.4391579931097
              ],
              [
                -71.4698009243933,
                41.438958914079
              ],
              [
                -71.4700233930717,
                41.4388937870974
              ],
              [
                -71.4700269521968,
                41.4385339608447
              ],
              [
                -71.4685778600491,
                41.4391310693697
              ],
              [
                -71.4690179770461,
                41.4397358945554
              ]
            ]
          ],
          [
            [
              [
                -71.4395899346013,
                41.4467292348575
              ],
              [
                -71.4406638103363,
                41.446534193587
              ],
              [
                -71.4406129665896,
                41.4457917584902
              ],
              [
                -71.4412378733288,
                41.4457685261767
              ],
              [
                -71.4412788859131,
                41.4465011036394
              ],
              [
                -71.441324080155,
                41.4465037829144
              ],
              [
                -71.4415620447721,
                41.4459907902989
              ],
              [
                -71.4415672002035,
                41.4457934493003
              ],
              [
                -71.4416504012668,
                41.4458003263381
              ],
              [
                -71.4427291180229,
                41.443474755181
              ],
              [
                -71.4426032460853,
                41.44347694705
              ],
              [
                -71.4425294809258,
                41.4435364971745
              ],
              [
                -71.4425202687025,
                41.443498226694
              ],
              [
                -71.442056319401,
                41.4434963526635
              ],
              [
                -71.441861552071,
                41.4434205133006
              ],
              [
                -71.4417728425383,
                41.4434176561244
              ],
              [
                -71.4416797447355,
                41.4434347257806
              ],
              [
                -71.4416418331356,
                41.4435169441018
              ],
              [
                -71.441578205464,
                41.4435652459785
              ],
              [
                -71.4415025403677,
                41.4435682236841
              ],
              [
                -71.4415977303467,
                41.4435234382249
              ],
              [
                -71.441570013727,
                41.4434204971393
              ],
              [
                -71.4398229387214,
                41.4439281829623
              ],
              [
                -71.4395899346013,
                41.4467292348575
              ]
            ]
          ],
          [
            [
              [
                -71.4425514339546,
                41.4472766390422
              ],
              [
                -71.4426266058759,
                41.4478011005991
              ],
              [
                -71.4425655348097,
                41.4483954668789
              ],
              [
                -71.442618371918,
                41.4484018312336
              ],
              [
                -71.4469658109564,
                41.4476125037439
              ],
              [
                -71.4477938555274,
                41.4471862557691
              ],
              [
                -71.4477465412614,
                41.4469984584116
              ],
              [
                -71.4474447567333,
                41.4467455447756
              ],
              [
                -71.4464564769701,
                41.4461516111636
              ],
              [
                -71.4458710781371,
                41.4457325605836
              ],
              [
                -71.4425514339546,
                41.4472766390422
              ]
            ]
          ],
          [
            [
              [
                -71.4476909993256,
                41.4695690536939
              ],
              [
                -71.4477281545441,
                41.4695817728627
              ],
              [
                -71.4479037123001,
                41.4701499461444
              ],
              [
                -71.4478152498042,
                41.4702554039693
              ],
              [
                -71.4479323685577,
                41.4703249621668
              ],
              [
                -71.4480583941072,
                41.4704618793032
              ],
              [
                -71.4481152628546,
                41.4706903328083
              ],
              [
                -71.4487017630221,
                41.4706733389802
              ],
              [
                -71.448679866587,
                41.4703901006764
              ],
              [
                -71.4486417726291,
                41.4702828351051
              ],
              [
                -71.4483947314344,
                41.4699728699322
              ],
              [
                -71.4483517793874,
                41.4698657066566
              ],
              [
                -71.448323662119,
                41.4696951830976
              ],
              [
                -71.4483815181149,
                41.4696218985393
              ],
              [
                -71.4484095123141,
                41.4694411725976
              ],
              [
                -71.4482386096279,
                41.4691656118867
              ],
              [
                -71.4481267972228,
                41.4690779280317
              ],
              [
                -71.4479395739446,
                41.4690548945507
              ],
              [
                -71.4477953116965,
                41.4691390250423
              ],
              [
                -71.4475046069891,
                41.4692397827839
              ],
              [
                -71.4474071361875,
                41.4694039748644
              ],
              [
                -71.4472616468407,
                41.4694160781644
              ],
              [
                -71.4471644248724,
                41.4695172191509
              ],
              [
                -71.4471013640378,
                41.4695320707577
              ],
              [
                -71.4470279950353,
                41.4694120448532
              ],
              [
                -71.4469176585622,
                41.4694233996469
              ],
              [
                -71.4468502435934,
                41.4695013901776
              ],
              [
                -71.4467738589464,
                41.4695300359316
              ],
              [
                -71.4467560399645,
                41.469642995944
              ],
              [
                -71.4467015481594,
                41.4696666720393
              ],
              [
                -71.4464271191282,
                41.4695734410535
              ],
              [
                -71.4463661387918,
                41.4695837450876
              ],
              [
                -71.44627838327,
                41.4696981932594
              ],
              [
                -71.4459560964922,
                41.4697951160856
              ],
              [
                -71.4460577884773,
                41.4698920232854
              ],
              [
                -71.4462431306833,
                41.4699646351011
              ],
              [
                -71.4467267539879,
                41.4699588456791
              ],
              [
                -71.4471043868687,
                41.4700003442665
              ],
              [
                -71.4472170050626,
                41.4697412617124
              ],
              [
                -71.4474871131972,
                41.4696499498808
              ],
              [
                -71.4476181935668,
                41.4695435850585
              ],
              [
                -71.4476909993256,
                41.4695690536939
              ]
            ]
          ],
          [
            [
              [
                -71.4422060407111,
                41.4741349066882
              ],
              [
                -71.4421206980641,
                41.4748617422961
              ],
              [
                -71.4427705483238,
                41.474906477178
              ],
              [
                -71.4427152399501,
                41.4747590447822
              ],
              [
                -71.4427204501787,
                41.4746688700885
              ],
              [
                -71.4426233988904,
                41.4745358353144
              ],
              [
                -71.4426312492676,
                41.4743960682784
              ],
              [
                -71.4428579184683,
                41.4741841018106
              ],
              [
                -71.4429164796417,
                41.4740792830602
              ],
              [
                -71.4428261208022,
                41.4739551127399
              ],
              [
                -71.4428156383612,
                41.4738157348325
              ],
              [
                -71.4429337677193,
                41.4736826310002
              ],
              [
                -71.4430549342815,
                41.4734413848239
              ],
              [
                -71.4430534852989,
                41.4733333374763
              ],
              [
                -71.4431739026662,
                41.4731416426448
              ],
              [
                -71.4431828319201,
                41.4730108588768
              ],
              [
                -71.4433235107885,
                41.4729403195191
              ],
              [
                -71.4434405513886,
                41.4727486968913
              ],
              [
                -71.443524473799,
                41.4725622793237
              ],
              [
                -71.4435731085885,
                41.4722730386122
              ],
              [
                -71.4437267842825,
                41.4719410352296
              ],
              [
                -71.4437432414185,
                41.4717515494065
              ],
              [
                -71.4436123847294,
                41.4713265235479
              ],
              [
                -71.4435955682673,
                41.4707594725427
              ],
              [
                -71.4387096017925,
                41.4707911722765
              ],
              [
                -71.4387201354376,
                41.471421402442
              ],
              [
                -71.4386554908731,
                41.4720126983872
              ],
              [
                -71.4384709841002,
                41.4720121094342
              ],
              [
                -71.4384418140063,
                41.4721523285407
              ],
              [
                -71.4386272783833,
                41.4721483943436
              ],
              [
                -71.4380931490985,
                41.4738619491708
              ],
              [
                -71.4414771279266,
                41.4740873450633
              ],
              [
                -71.4413917780931,
                41.4748141791853
              ],
              [
                -71.4415738082107,
                41.4748283262311
              ],
              [
                -71.4416586172584,
                41.474097000216
              ],
              [
                -71.4422060407111,
                41.4741349066882
              ]
            ]
          ],
          [
            [
              [
                -71.4591418359304,
                41.4556708565928
              ],
              [
                -71.4600604270888,
                41.4559213985627
              ],
              [
                -71.4676805418949,
                41.457667464759
              ],
              [
                -71.4677453176134,
                41.4575309777337
              ],
              [
                -71.4599733138625,
                41.4557746554968
              ],
              [
                -71.4587866088294,
                41.4554082595835
              ],
              [
                -71.4561951830338,
                41.454707107878
              ],
              [
                -71.4522394265273,
                41.4536387199411
              ],
              [
                -71.4521895745206,
                41.453626272343
              ],
              [
                -71.4521716621139,
                41.4536671835114
              ],
              [
                -71.455989440986,
                41.4546979924923
              ],
              [
                -71.4556300430071,
                41.4558810166491
              ],
              [
                -71.4584880995588,
                41.4573105089618
              ],
              [
                -71.4586955385242,
                41.4573646153535
              ],
              [
                -71.4577363498032,
                41.4559801118542
              ],
              [
                -71.4586407448852,
                41.4554789277576
              ],
              [
                -71.4591418359304,
                41.4556708565928
              ]
            ]
          ],
          [
            [
              [
                -71.4445218867337,
                41.4623465914115
              ],
              [
                -71.4445906303108,
                41.4624813173403
              ],
              [
                -71.4446154893897,
                41.4626244106981
              ],
              [
                -71.4502050783787,
                41.4625715527441
              ],
              [
                -71.4503790335402,
                41.4625300244937
              ],
              [
                -71.4503899381895,
                41.4624486374203
              ],
              [
                -71.4503170524806,
                41.4623793326431
              ],
              [
                -71.4500289358195,
                41.4623213064126
              ],
              [
                -71.4499938305565,
                41.4622176405065
              ],
              [
                -71.4500630035283,
                41.4621258555961
              ],
              [
                -71.4499348049541,
                41.4619024666449
              ],
              [
                -71.4497111325332,
                41.4617825040337
              ],
              [
                -71.449596706929,
                41.461663392121
              ],
              [
                -71.4494098357903,
                41.4615982845623
              ],
              [
                -71.4492719560723,
                41.4614042365334
              ],
              [
                -71.4491850081359,
                41.4611941381319
              ],
              [
                -71.4491123308362,
                41.4611203969585
              ],
              [
                -71.4491138202429,
                41.4609994069387
              ],
              [
                -71.4492668635229,
                41.4608511061212
              ],
              [
                -71.4492740859778,
                41.460738535388
              ],
              [
                -71.4494159012151,
                41.4606373302168
              ],
              [
                -71.4494715958644,
                41.4605530661697
              ],
              [
                -71.4497350133467,
                41.4603923483264
              ],
              [
                -71.4497768146519,
                41.4599018149225
              ],
              [
                -71.4498456273992,
                41.4598643141554
              ],
              [
                -71.449860021105,
                41.4596925222068
              ],
              [
                -71.4499217218903,
                41.4595010610416
              ],
              [
                -71.4473549791037,
                41.4595228080295
              ],
              [
                -71.4472707530627,
                41.4581510545076
              ],
              [
                -71.4488030786131,
                41.4581360737262
              ],
              [
                -71.4490616532778,
                41.4577696346006
              ],
              [
                -71.4475821953784,
                41.4576920137039
              ],
              [
                -71.445733799392,
                41.4573383912601
              ],
              [
                -71.4452236407522,
                41.4581700006268
              ],
              [
                -71.4443555564724,
                41.4581780740335
              ],
              [
                -71.4443454998328,
                41.4585553276188
              ],
              [
                -71.4444747081133,
                41.4586125358808
              ],
              [
                -71.444515784478,
                41.4587159099834
              ],
              [
                -71.4447135620625,
                41.4588048849616
              ],
              [
                -71.4440461344677,
                41.4597766971611
              ],
              [
                -71.4446997747196,
                41.4597646210099
              ],
              [
                -71.4446171934938,
                41.4600187219303
              ],
              [
                -71.4447106416395,
                41.460060191873
              ],
              [
                -71.4447631095403,
                41.4601372498228
              ],
              [
                -71.4447614557419,
                41.4605642104544
              ],
              [
                -71.4449024786651,
                41.4611599401666
              ],
              [
                -71.4448860547668,
                41.461360554643
              ],
              [
                -71.4447979596818,
                41.4615853295546
              ],
              [
                -71.4443510469296,
                41.4621328628481
              ],
              [
                -71.4443619300193,
                41.4621847968683
              ],
              [
                -71.4445218867337,
                41.4623465914115
              ]
            ]
          ],
          [
            [
              [
                -71.4532590476125,
                41.4440070297193
              ],
              [
                -71.4542950467819,
                41.444092996689
              ],
              [
                -71.45435220838,
                41.4440512478593
              ],
              [
                -71.4544186118458,
                41.4436400333472
              ],
              [
                -71.4559135432259,
                41.4437747314687
              ],
              [
                -71.4560635987093,
                41.4435283505667
              ],
              [
                -71.4561446303412,
                41.4433464892994
              ],
              [
                -71.4561217700138,
                41.4433154542498
              ],
              [
                -71.4562209871403,
                41.4431692314794
              ],
              [
                -71.4562421981608,
                41.4430332364989
              ],
              [
                -71.4562229158232,
                41.4429292050891
              ],
              [
                -71.4562437648227,
                41.4429262145599
              ],
              [
                -71.4562579851536,
                41.4430037635648
              ],
              [
                -71.4567581742903,
                41.4428962075778
              ],
              [
                -71.4571673173764,
                41.4428733041894
              ],
              [
                -71.457166453197,
                41.4428507314283
              ],
              [
                -71.4574174065548,
                41.44290445056
              ],
              [
                -71.4575703968342,
                41.4429762346955
              ],
              [
                -71.4576448545949,
                41.4429402776554
              ],
              [
                -71.457651801267,
                41.4428760395057
              ],
              [
                -71.4565661019062,
                41.4424755245378
              ],
              [
                -71.4562333793996,
                41.4423084030105
              ],
              [
                -71.4562257419231,
                41.4422802065091
              ],
              [
                -71.4568793013266,
                41.4425801283869
              ],
              [
                -71.4573782741444,
                41.4427394930754
              ],
              [
                -71.4575066137541,
                41.4424781359661
              ],
              [
                -71.4574852769695,
                41.4424401591355
              ],
              [
                -71.457541593253,
                41.4424387200882
              ],
              [
                -71.4574035096174,
                41.4427555676356
              ],
              [
                -71.4576449363416,
                41.442845935532
              ],
              [
                -71.4577030654253,
                41.4428417941723
              ],
              [
                -71.4577972636643,
                41.4427086105958
              ],
              [
                -71.4579578276399,
                41.4426732830305
              ],
              [
                -71.4579495640376,
                41.4426108344984
              ],
              [
                -71.4580387901015,
                41.4425092831998
              ],
              [
                -71.4579855487512,
                41.4426087651579
              ],
              [
                -71.4579882949011,
                41.4426420712297
              ],
              [
                -71.4580408679047,
                41.442671232547
              ],
              [
                -71.4582152794104,
                41.4426234202356
              ],
              [
                -71.4582124955313,
                41.442648397092
              ],
              [
                -71.4585003921052,
                41.4426027079761
              ],
              [
                -71.4585197175619,
                41.44268181358
              ],
              [
                -71.4591171960405,
                41.442826957328
              ],
              [
                -71.4594102112148,
                41.4419869283638
              ],
              [
                -71.4595905039907,
                41.4415697997218
              ],
              [
                -71.4572207662375,
                41.4409461899805
              ],
              [
                -71.457216539664,
                41.4410119519491
              ],
              [
                -71.4562357491554,
                41.4409603982886
              ],
              [
                -71.456336023599,
                41.4398843439895
              ],
              [
                -71.4549166872467,
                41.4400563022067
              ],
              [
                -71.4546927525177,
                41.4411454103918
              ],
              [
                -71.4558553117342,
                41.4412492210897
              ],
              [
                -71.4557414080512,
                41.441968100077
              ],
              [
                -71.4556847998152,
                41.441964806473
              ],
              [
                -71.4555743133235,
                41.4426651706573
              ],
              [
                -71.4542325869202,
                41.4425452115226
              ],
              [
                -71.4541598072125,
                41.4430060961883
              ],
              [
                -71.454920620071,
                41.443075415606
              ],
              [
                -71.454911066488,
                41.4431296584482
              ],
              [
                -71.4507035364619,
                41.4427555858172
              ],
              [
                -71.4506939199968,
                41.4433051877918
              ],
              [
                -71.4533320339327,
                41.4435416364459
              ],
              [
                -71.4532590476125,
                41.4440070297193
              ]
            ]
          ],
          [
            [
              [
                -71.457940333848,
                41.4444654704252
              ],
              [
                -71.4580536392531,
                41.4444326965824
              ],
              [
                -71.4586702437625,
                41.4441082594925
              ],
              [
                -71.459109886449,
                41.4428479132837
              ],
              [
                -71.4586221003514,
                41.4427318076417
              ],
              [
                -71.4584450037814,
                41.4426484812661
              ],
              [
                -71.4579854876658,
                41.4427024342328
              ],
              [
                -71.4577833703201,
                41.4427897854054
              ],
              [
                -71.4577694679928,
                41.4428876124109
              ],
              [
                -71.4579327367957,
                41.4429501185882
              ],
              [
                -71.4577057918122,
                41.4429063225875
              ],
              [
                -71.4576790840005,
                41.4429978027147
              ],
              [
                -71.4578217364676,
                41.4430097217206
              ],
              [
                -71.4581602063953,
                41.4431509415731
              ],
              [
                -71.4584000359149,
                41.4433734692017
              ],
              [
                -71.4583347499533,
                41.4434228075261
              ],
              [
                -71.4583604417704,
                41.4435821324355
              ],
              [
                -71.4582873341777,
                41.4436859446224
              ],
              [
                -71.4583074896777,
                41.4438553426712
              ],
              [
                -71.4582589042956,
                41.4439630903285
              ],
              [
                -71.4582662605994,
                41.4441047545563
              ],
              [
                -71.4581145046052,
                41.4443322753669
              ],
              [
                -71.4580439787706,
                41.4443551795871
              ],
              [
                -71.457940333848,
                41.4444654704252
              ]
            ]
          ],
          [
            [
              [
                -71.4575059229497,
                41.4504095580293
              ],
              [
                -71.4574871993642,
                41.450468500523
              ],
              [
                -71.4575083618757,
                41.4505130226366
              ],
              [
                -71.4622435407401,
                41.4514235956353
              ],
              [
                -71.4642032918892,
                41.4491498614328
              ],
              [
                -71.4646608415926,
                41.4478172331593
              ],
              [
                -71.4664362377842,
                41.4482072562264
              ],
              [
                -71.4702683726328,
                41.4450825173653
              ],
              [
                -71.471700684251,
                41.443634564799
              ],
              [
                -71.4734500930797,
                41.4420031916626
              ],
              [
                -71.472664072596,
                41.4422534369258
              ],
              [
                -71.4723521865125,
                41.4420689215836
              ],
              [
                -71.4726348360268,
                41.4417939644273
              ],
              [
                -71.4725659442277,
                41.4417051829517
              ],
              [
                -71.4726018310249,
                41.4416017817398
              ],
              [
                -71.4727002208031,
                41.4415526716621
              ],
              [
                -71.4728893736625,
                41.4415454648789
              ],
              [
                -71.47347886522,
                41.4409727984844
              ],
              [
                -71.4726982130684,
                41.4405184685508
              ],
              [
                -71.4729238177655,
                41.4403016302703
              ],
              [
                -71.4733259593822,
                41.4401890494635
              ],
              [
                -71.473899641489,
                41.440522568307
              ],
              [
                -71.4741449345621,
                41.4402413801887
              ],
              [
                -71.4743369359794,
                41.4400831885247
              ],
              [
                -71.4737140369749,
                41.4397182191912
              ],
              [
                -71.4735198670245,
                41.4399537953655
              ],
              [
                -71.4731459693386,
                41.4397356925282
              ],
              [
                -71.4730162256621,
                41.4398117813236
              ],
              [
                -71.4729828972668,
                41.4399064356121
              ],
              [
                -71.4729450485489,
                41.4399017384913
              ],
              [
                -71.4729267022558,
                41.4399530370925
              ],
              [
                -71.4726983163747,
                41.4400538852996
              ],
              [
                -71.4726492494955,
                41.4401368520333
              ],
              [
                -71.4727103331382,
                41.4401853672063
              ],
              [
                -71.4726982525943,
                41.4402081974673
              ],
              [
                -71.4726027805442,
                41.4401761474204
              ],
              [
                -71.472502421659,
                41.4403395342766
              ],
              [
                -71.4724211897028,
                41.4403984502275
              ],
              [
                -71.4724178641396,
                41.4404802272675
              ],
              [
                -71.4723216500811,
                41.4405446132466
              ],
              [
                -71.4722924763939,
                41.4407725182641
              ],
              [
                -71.4721573374358,
                41.4408150234256
              ],
              [
                -71.47207965652,
                41.4408754608566
              ],
              [
                -71.4720639413924,
                41.4409861225979
              ],
              [
                -71.4719344923633,
                41.4410990885592
              ],
              [
                -71.471699626934,
                41.4412220126919
              ],
              [
                -71.4717507069376,
                41.4413046459423
              ],
              [
                -71.4718051915563,
                41.4413229888947
              ],
              [
                -71.4717982592572,
                41.4413465285269
              ],
              [
                -71.4716900140621,
                41.441363097713
              ],
              [
                -71.4717027458846,
                41.4412941118232
              ],
              [
                -71.4716788210536,
                41.4412659189216
              ],
              [
                -71.4715524352797,
                41.4412426486236
              ],
              [
                -71.4711779581805,
                41.4413818898114
              ],
              [
                -71.4706920980709,
                41.4410976084042
              ],
              [
                -71.4704619065759,
                41.4411528805224
              ],
              [
                -71.4701680182391,
                41.4411456858162
              ],
              [
                -71.4699314612821,
                41.4412498386051
              ],
              [
                -71.4698369109035,
                41.4412518696047
              ],
              [
                -71.4697594033625,
                41.4411904897517
              ],
              [
                -71.4696119341288,
                41.441148624575
              ],
              [
                -71.4693573560689,
                41.441122569686
              ],
              [
                -71.4690136040473,
                41.4412605464707
              ],
              [
                -71.4686561778705,
                41.441461861557
              ],
              [
                -71.4685695641074,
                41.4415943150279
              ],
              [
                -71.4684790956735,
                41.4416547995449
              ],
              [
                -71.4682616360011,
                41.441591919727
              ],
              [
                -71.4681275040544,
                41.4415857930897
              ],
              [
                -71.4680601375946,
                41.441621625627
              ],
              [
                -71.4682912031503,
                41.441756982486
              ],
              [
                -71.4680153583743,
                41.441780475496
              ],
              [
                -71.4679587429519,
                41.4418110405712
              ],
              [
                -71.4678737740041,
                41.441950623974
              ],
              [
                -71.4677746817434,
                41.442035689965
              ],
              [
                -71.4675960077318,
                41.4420954717149
              ],
              [
                -71.467420838048,
                41.4422190740925
              ],
              [
                -71.4671243302238,
                41.4421721220517
              ],
              [
                -71.4669155895996,
                41.4422239158262
              ],
              [
                -71.4666448742039,
                41.4424086502548
              ],
              [
                -71.4666129759264,
                41.4425296338759
              ],
              [
                -71.4666607177905,
                41.442558898273
              ],
              [
                -71.4665315148998,
                41.4427197417849
              ],
              [
                -71.4665302895978,
                41.4427686429011
              ],
              [
                -71.4663391918857,
                41.4429055353932
              ],
              [
                -71.4663338657744,
                41.4429427617941
              ],
              [
                -71.465992396372,
                41.4431248161088
              ],
              [
                -71.4658066418392,
                41.4431859220834
              ],
              [
                -71.4654034402104,
                41.4430302392406
              ],
              [
                -71.4654688411564,
                41.443114022357
              ],
              [
                -71.46549354842,
                41.4432203968605
              ],
              [
                -71.4654015923759,
                41.4432361709706
              ],
              [
                -71.46528301925,
                41.4433544689302
              ],
              [
                -71.4665136024931,
                41.4439766340233
              ],
              [
                -71.4652472887596,
                41.4433752900383
              ],
              [
                -71.4651951101163,
                41.4433820360221
              ],
              [
                -71.4648631296182,
                41.4436058382473
              ],
              [
                -71.464765904955,
                41.4437329373176
              ],
              [
                -71.4647029159856,
                41.4437653761696
              ],
              [
                -71.4652910861213,
                41.4440684984879
              ],
              [
                -71.464670512855,
                41.4437991772569
              ],
              [
                -71.4642871729772,
                41.4440086842133
              ],
              [
                -71.4641529305377,
                41.4440395526066
              ],
              [
                -71.4640503429323,
                41.4441017324324
              ],
              [
                -71.4639693283684,
                41.4441936714648
              ],
              [
                -71.4640790450039,
                41.4442572692752
              ],
              [
                -71.4639135277179,
                41.4442396362185
              ],
              [
                -71.4637587003837,
                41.4444126986785
              ],
              [
                -71.4637370860196,
                41.4444586747244
              ],
              [
                -71.4637910145811,
                41.444542541515
              ],
              [
                -71.4637873898789,
                41.4445898756637
              ],
              [
                -71.4638790180379,
                41.444697972255
              ],
              [
                -71.4637853830426,
                41.4448358902614
              ],
              [
                -71.4635855626891,
                41.4450292249327
              ],
              [
                -71.4640172831332,
                41.4451943563856
              ],
              [
                -71.4635657530405,
                41.4450603244794
              ],
              [
                -71.4632408054527,
                41.4452697499267
              ],
              [
                -71.4632713616471,
                41.4453252083805
              ],
              [
                -71.4631562021193,
                41.445338696575
              ],
              [
                -71.4630032127382,
                41.4454373749112
              ],
              [
                -71.4630301837563,
                41.4454684884029
              ],
              [
                -71.4629654107327,
                41.4454684675286
              ],
              [
                -71.4628088056326,
                41.4455955454431
              ],
              [
                -71.4625010464095,
                41.4457536799012
              ],
              [
                -71.4624370773781,
                41.4458509044941
              ],
              [
                -71.4625593776142,
                41.4459347950729
              ],
              [
                -71.4624532443583,
                41.4458968929882
              ],
              [
                -71.46238663428,
                41.4459617880396
              ],
              [
                -71.4623812569647,
                41.4459266225051
              ],
              [
                -71.4622409095746,
                41.4459373955882
              ],
              [
                -71.4622067592208,
                41.4458765258607
              ],
              [
                -71.4621491843976,
                41.4458765070066
              ],
              [
                -71.4621022914414,
                41.4460685356287
              ],
              [
                -71.4620446591261,
                41.4461658910545
              ],
              [
                -71.4622641103634,
                41.4462646906836
              ],
              [
                -71.4620140643041,
                41.4461794060086
              ],
              [
                -71.4618916598635,
                41.4462740348487
              ],
              [
                -71.461678716022,
                41.4465876160874
              ],
              [
                -71.4618244191679,
                41.4466512277119
              ],
              [
                -71.46165351738,
                41.4466038358119
              ],
              [
                -71.4612683548205,
                41.4468065712519
              ],
              [
                -71.4613060894523,
                41.4468917857476
              ],
              [
                -71.4614376477256,
                41.446999803089
              ],
              [
                -71.4615092084195,
                41.4471122757914
              ],
              [
                -71.4614065839831,
                41.4471062930983
              ],
              [
                -71.4615024755464,
                41.4471492721876
              ],
              [
                -71.461388405675,
                41.447169727124
              ],
              [
                -71.4613268099926,
                41.4473511763622
              ],
              [
                -71.4613275016954,
                41.4474682460474
              ],
              [
                -71.4614514287804,
                41.4476096959063
              ],
              [
                -71.4613817006498,
                41.4476156920198
              ],
              [
                -71.4613261524258,
                41.4477294632029
              ],
              [
                -71.4611858319852,
                41.4478765712386
              ],
              [
                -71.4610691534062,
                41.4480952244382
              ],
              [
                -71.4606644309297,
                41.4481354105443
              ],
              [
                -71.4606330887094,
                41.4480685319943
              ],
              [
                -71.4605404966581,
                41.4480434946039
              ],
              [
                -71.4604939738079,
                41.447990451045
              ],
              [
                -71.4604378048481,
                41.4479691365139
              ],
              [
                -71.4603648544605,
                41.4479887111385
              ],
              [
                -71.4603397833793,
                41.4480477891526
              ],
              [
                -71.4603705722373,
                41.4481101765652
              ],
              [
                -71.4611144662258,
                41.4484229914291
              ],
              [
                -71.4611280972619,
                41.4484767382676
              ],
              [
                -71.4609667239043,
                41.4484036384624
              ],
              [
                -71.460741623162,
                41.4486336186932
              ],
              [
                -71.4605832142448,
                41.4487180672321
              ],
              [
                -71.4605714265517,
                41.4488714296022
              ],
              [
                -71.4603093682204,
                41.4488860442124
              ],
              [
                -71.4601771451937,
                41.4487132475296
              ],
              [
                -71.4600603309691,
                41.4487697857553
              ],
              [
                -71.4599215601223,
                41.4489979177497
              ],
              [
                -71.4601340089921,
                41.4491554884212
              ],
              [
                -71.459945996993,
                41.4490604402607
              ],
              [
                -71.4598757253816,
                41.4490619438006
              ],
              [
                -71.4598174893983,
                41.4492928555995
              ],
              [
                -71.4596012514347,
                41.4494505918655
              ],
              [
                -71.4592938991485,
                41.449434650262
              ],
              [
                -71.4589594572665,
                41.4493157122826
              ],
              [
                -71.458764449188,
                41.449391935283
              ],
              [
                -71.4590153693081,
                41.4495576925954
              ],
              [
                -71.4587399170959,
                41.4494555057786
              ],
              [
                -71.4585102771666,
                41.4495459788089
              ],
              [
                -71.4583612745087,
                41.4495626745058
              ],
              [
                -71.4581774477605,
                41.4497467349206
              ],
              [
                -71.4582031701204,
                41.4498632690345
              ],
              [
                -71.458151891589,
                41.4498823784977
              ],
              [
                -71.457977946309,
                41.4500707310737
              ],
              [
                -71.4579143428919,
                41.4503873178135
              ],
              [
                -71.4578847487932,
                41.4504059638827
              ],
              [
                -71.4578286400206,
                41.4503666336182
              ],
              [
                -71.4575821836291,
                41.4503583929306
              ],
              [
                -71.4575059229497,
                41.4504095580293
              ]
            ]
          ],
          [
            [
              [
                -71.4545171588291,
                41.4442593789658
              ],
              [
                -71.4544338409849,
                41.4443016865642
              ],
              [
                -71.4543915878272,
                41.4445502678101
              ],
              [
                -71.4558815137944,
                41.4446805689382
              ],
              [
                -71.4557106182948,
                41.4443644890116
              ],
              [
                -71.4545171588291,
                41.4442593789658
              ]
            ]
          ],
          [
            [
              [
                -71.4543058005141,
                41.4450924899535
              ],
              [
                -71.45562666085,
                41.4452128928417
              ],
              [
                -71.4556694844379,
                41.4450588679825
              ],
              [
                -71.4557681850332,
                41.4449486818521
              ],
              [
                -71.4543483294546,
                41.4448213865185
              ],
              [
                -71.4543058005141,
                41.4450924899535
              ]
            ]
          ],
          [
            [
              [
                -71.4600690473223,
                41.4476745272972
              ],
              [
                -71.4600859257682,
                41.447759094919
              ],
              [
                -71.4601497870017,
                41.447774457188
              ],
              [
                -71.4602271804567,
                41.4477406305645
              ],
              [
                -71.4602687041824,
                41.4476174959038
              ],
              [
                -71.4604275227314,
                41.4473850449361
              ],
              [
                -71.460431587608,
                41.4473116112682
              ],
              [
                -71.4605323363621,
                41.4471717660185
              ],
              [
                -71.4605572556281,
                41.447061854162
              ],
              [
                -71.460716592505,
                41.4469336243251
              ],
              [
                -71.4607370166013,
                41.4468405370726
              ],
              [
                -71.460690342834,
                41.4468273811521
              ],
              [
                -71.4605877067196,
                41.4468720417812
              ],
              [
                -71.4605817050752,
                41.4468490078195
              ],
              [
                -71.4602560576998,
                41.4470567192095
              ],
              [
                -71.4601068996334,
                41.4470470431965
              ],
              [
                -71.4599751060015,
                41.4471347918556
              ],
              [
                -71.4598307997359,
                41.4472987301683
              ],
              [
                -71.4597843757003,
                41.4475184801715
              ],
              [
                -71.4599641896741,
                41.447569966001
              ],
              [
                -71.4598994382101,
                41.4476215359574
              ],
              [
                -71.4599317533058,
                41.4476620233407
              ],
              [
                -71.4600690473223,
                41.4476745272972
              ]
            ]
          ],
          [
            [
              [
                -71.4529586734394,
                41.4516154045028
              ],
              [
                -71.4529953202114,
                41.4515985221565
              ],
              [
                -71.4529928291831,
                41.4515452283429
              ],
              [
                -71.4529065612714,
                41.4515833614368
              ],
              [
                -71.4529273698466,
                41.4515001682961
              ],
              [
                -71.4528045674524,
                41.4514607740579
              ],
              [
                -71.4528549674314,
                41.4512193078421
              ],
              [
                -71.4527995368868,
                41.4510695410923
              ],
              [
                -71.4533692223888,
                41.4505248951502
              ],
              [
                -71.4535255265533,
                41.4504845772083
              ],
              [
                -71.453913681401,
                41.4501707246053
              ],
              [
                -71.4541216764236,
                41.4496209484874
              ],
              [
                -71.4540779949446,
                41.4494718278045
              ],
              [
                -71.4539701539914,
                41.4494170037992
              ],
              [
                -71.4538570255544,
                41.449478772458
              ],
              [
                -71.4537383958346,
                41.4494970397076
              ],
              [
                -71.453794201875,
                41.4494666445635
              ],
              [
                -71.4538070477836,
                41.4493938125099
              ],
              [
                -71.4537453568797,
                41.4493502565219
              ],
              [
                -71.4537315695368,
                41.4492673924668
              ],
              [
                -71.4535908188031,
                41.4491103519752
              ],
              [
                -71.4535019376923,
                41.4490700385408
              ],
              [
                -71.4534494383504,
                41.4490997915169
              ],
              [
                -71.4530844681218,
                41.4495726578518
              ],
              [
                -71.4527187100708,
                41.449924423202
              ],
              [
                -71.4517880725044,
                41.4504403499863
              ],
              [
                -71.4519646480516,
                41.4506871658599
              ],
              [
                -71.452061847562,
                41.4509094521842
              ],
              [
                -71.4521151985067,
                41.4509560619222
              ],
              [
                -71.452119644269,
                41.4512249218581
              ],
              [
                -71.4522692847308,
                41.4515229743771
              ],
              [
                -71.4529586734394,
                41.4516154045028
              ]
            ]
          ],
          [
            [
              [
                -71.4458341618705,
                41.4572174204408
              ],
              [
                -71.4476109648238,
                41.457557344476
              ],
              [
                -71.4491550205751,
                41.4576382394917
              ],
              [
                -71.4495054389944,
                41.457144201222
              ],
              [
                -71.4502660802747,
                41.4572354801724
              ],
              [
                -71.4503233056533,
                41.4571609784455
              ],
              [
                -71.4503965363152,
                41.4569684110706
              ],
              [
                -71.4503411830257,
                41.4569058429946
              ],
              [
                -71.4503805993038,
                41.4566226186053
              ],
              [
                -71.4503291545841,
                41.4562641792683
              ],
              [
                -71.4503716224391,
                41.4561645472409
              ],
              [
                -71.4503675593591,
                41.4560820163986
              ],
              [
                -71.4505018206631,
                41.4558343303321
              ],
              [
                -71.4505770572631,
                41.4557985379601
              ],
              [
                -71.4507069967724,
                41.4557993101863
              ],
              [
                -71.4507458318404,
                41.4557578200145
              ],
              [
                -71.4506751964113,
                41.4556914892757
              ],
              [
                -71.4505430209953,
                41.4556870020076
              ],
              [
                -71.4505219635868,
                41.4555637343122
              ],
              [
                -71.4504548971643,
                41.455497455216
              ],
              [
                -71.4504496303418,
                41.4554313423475
              ],
              [
                -71.4502741201965,
                41.4552271870164
              ],
              [
                -71.4501749920032,
                41.4552236557502
              ],
              [
                -71.4501193449646,
                41.4552674999909
              ],
              [
                -71.4501295426397,
                41.4551277547021
              ],
              [
                -71.4500743492504,
                41.4550463872893
              ],
              [
                -71.4497022688563,
                41.4550430627058
              ],
              [
                -71.4495503035547,
                41.4551015721199
              ],
              [
                -71.4494964863843,
                41.4552003359236
              ],
              [
                -71.4493956729516,
                41.4552630180797
              ],
              [
                -71.4493151273082,
                41.4554277053905
              ],
              [
                -71.4493070271993,
                41.4555281713726
              ],
              [
                -71.4493325519298,
                41.4555871751949
              ],
              [
                -71.4494976586857,
                41.4557188538611
              ],
              [
                -71.449461146661,
                41.4560039060454
              ],
              [
                -71.4490743725239,
                41.4563897999923
              ],
              [
                -71.4489748984792,
                41.4565305470506
              ],
              [
                -71.4489201578407,
                41.4565748024364
              ],
              [
                -71.4487071223711,
                41.4566005690293
              ],
              [
                -71.4485263454033,
                41.4567053433283
              ],
              [
                -71.448431533615,
                41.4567124070456
              ],
              [
                -71.4483350967743,
                41.4566764360741
              ],
              [
                -71.4483184132628,
                41.4566327631177
              ],
              [
                -71.4484082133502,
                41.4566710366228
              ],
              [
                -71.4485265331512,
                41.456673022032
              ],
              [
                -71.4488050701781,
                41.4565349925188
              ],
              [
                -71.4489997692362,
                41.456494408339
              ],
              [
                -71.4490169998216,
                41.4563523301837
              ],
              [
                -71.449305615946,
                41.4560015981264
              ],
              [
                -71.4493687513408,
                41.4558498448648
              ],
              [
                -71.4493435374274,
                41.4557614630123
              ],
              [
                -71.4492166980042,
                41.4556058399673
              ],
              [
                -71.4491280792015,
                41.455571890181
              ],
              [
                -71.4491510724794,
                41.4553465039765
              ],
              [
                -71.4492734975813,
                41.4551426937628
              ],
              [
                -71.4493126048389,
                41.4549595178443
              ],
              [
                -71.449376040271,
                41.4548331241324
              ],
              [
                -71.4493857393811,
                41.4546991976434
              ],
              [
                -71.4493195335447,
                41.4546130602508
              ],
              [
                -71.4493722646518,
                41.4546557058117
              ],
              [
                -71.4494265372681,
                41.4546544252536
              ],
              [
                -71.4497862505556,
                41.4544494635911
              ],
              [
                -71.4498453040057,
                41.4543643586666
              ],
              [
                -71.4498372209648,
                41.4542717978031
              ],
              [
                -71.4499495867321,
                41.4541300850803
              ],
              [
                -71.450021928062,
                41.4539223007311
              ],
              [
                -71.4501536147944,
                41.4537638448306
              ],
              [
                -71.4503678189722,
                41.4536789046332
              ],
              [
                -71.4506072640129,
                41.4535092285821
              ],
              [
                -71.4507878720974,
                41.4534527153586
              ],
              [
                -71.4508673469489,
                41.4533895823738
              ],
              [
                -71.4510672068282,
                41.4529401224108
              ],
              [
                -71.4511099513644,
                41.4527184012015
              ],
              [
                -71.4512510021354,
                41.4525461015157
              ],
              [
                -71.4508460973008,
                41.4519718213594
              ],
              [
                -71.4505481899015,
                41.4516997373925
              ],
              [
                -71.4504733898827,
                41.4515860324223
              ],
              [
                -71.4505098866361,
                41.4515362222611
              ],
              [
                -71.4507233784499,
                41.4514778779565
              ],
              [
                -71.4508498926829,
                41.4513897601416
              ],
              [
                -71.4511721740709,
                41.4509658760536
              ],
              [
                -71.4512873794128,
                41.4508859059216
              ],
              [
                -71.4513047052197,
                41.4508216621719
              ],
              [
                -71.4511281152995,
                41.4505319730068
              ],
              [
                -71.4509003097299,
                41.4502748292425
              ],
              [
                -71.4506085746549,
                41.4500631858849
              ],
              [
                -71.4504318023767,
                41.4500316140475
              ],
              [
                -71.4503796443946,
                41.4498816681463
              ],
              [
                -71.4501150555092,
                41.4496966789318
              ],
              [
                -71.4501032579345,
                41.4495803471886
              ],
              [
                -71.4498339016899,
                41.4493559178324
              ],
              [
                -71.449658854177,
                41.4494656541052
              ],
              [
                -71.449224640908,
                41.4496003179135
              ],
              [
                -71.4484255256823,
                41.450028730903
              ],
              [
                -71.4483205099307,
                41.4499469423302
              ],
              [
                -71.4482849564084,
                41.4499661527664
              ],
              [
                -71.44842904618,
                41.4500674937663
              ],
              [
                -71.449250933698,
                41.4496286149255
              ],
              [
                -71.4494828571448,
                41.4498744690215
              ],
              [
                -71.4492210898676,
                41.450014249867
              ],
              [
                -71.4490537031875,
                41.4498351761406
              ],
              [
                -71.4485464973101,
                41.4501052129659
              ],
              [
                -71.4488225082744,
                41.4504285683545
              ],
              [
                -71.4488765913461,
                41.4505510789064
              ],
              [
                -71.4488953239147,
                41.450700924957
              ],
              [
                -71.4488653183876,
                41.4508497303996
              ],
              [
                -71.4485203814881,
                41.4516818841694
              ],
              [
                -71.4484201753165,
                41.4524807343396
              ],
              [
                -71.4483258647881,
                41.452660793866
              ],
              [
                -71.447915513468,
                41.4532073454491
              ],
              [
                -71.4479756026757,
                41.4533481357704
              ],
              [
                -71.447955083358,
                41.4534307677172
              ],
              [
                -71.4478449400226,
                41.4534973680605
              ],
              [
                -71.4477046231752,
                41.4534847925119
              ],
              [
                -71.4476071092545,
                41.4536140206671
              ],
              [
                -71.4478363072128,
                41.4539453907566
              ],
              [
                -71.4458341618705,
                41.4572174204408
              ]
            ]
          ],
          [
            [
              [
                -71.4701703978763,
                41.4388024560746
              ],
              [
                -71.4705322787986,
                41.4389089224982
              ],
              [
                -71.4705372608552,
                41.4385373448632
              ],
              [
                -71.4701739902391,
                41.4385345871407
              ],
              [
                -71.4701703978763,
                41.4388024560746
              ]
            ]
          ],
          [
            [
              [
                -71.4724590204543,
                41.4386283099102
              ],
              [
                -71.4725187988449,
                41.4387297319217
              ],
              [
                -71.4727816665583,
                41.4387526893004
              ],
              [
                -71.4729660924827,
                41.438660630769
              ],
              [
                -71.4731236084746,
                41.4386276499433
              ],
              [
                -71.473255745263,
                41.4386715848656
              ],
              [
                -71.4734031291567,
                41.4385384499726
              ],
              [
                -71.4731315423952,
                41.4384155362458
              ],
              [
                -71.472983667123,
                41.4381646532508
              ],
              [
                -71.472317689409,
                41.4383885280181
              ],
              [
                -71.4724590204543,
                41.4386283099102
              ]
            ]
          ],
          [
            [
              [
                -71.4714123978084,
                41.4388568829686
              ],
              [
                -71.4716273457912,
                41.4389369420048
              ],
              [
                -71.4716318409609,
                41.4385433222855
              ],
              [
                -71.471267769946,
                41.4385409672782
              ],
              [
                -71.4712641326674,
                41.4388592622081
              ],
              [
                -71.4714123978084,
                41.4388568829686
              ]
            ]
          ],
          [
            [
              [
                -71.4770937038896,
                41.4393169749402
              ],
              [
                -71.4772349477984,
                41.4393444380189
              ],
              [
                -71.4773900527119,
                41.4388927210533
              ],
              [
                -71.47786487612,
                41.4389360200759
              ],
              [
                -71.4779298081453,
                41.4389080079767
              ],
              [
                -71.478020503853,
                41.4390270532541
              ],
              [
                -71.4799188803053,
                41.4382080564689
              ],
              [
                -71.4802000458027,
                41.4385770809727
              ],
              [
                -71.4805606295578,
                41.4384770917969
              ],
              [
                -71.4809448533778,
                41.4384718706385
              ],
              [
                -71.4811169265688,
                41.4379940497011
              ],
              [
                -71.4801854544676,
                41.437747877843
              ],
              [
                -71.4798450863997,
                41.4376899905306
              ],
              [
                -71.4791507560587,
                41.4376421146125
              ],
              [
                -71.4782567338233,
                41.4376393386689
              ],
              [
                -71.4783783998488,
                41.4375881554185
              ],
              [
                -71.4747766370565,
                41.4375742049756
              ],
              [
                -71.4745332735645,
                41.437686104751
              ],
              [
                -71.474262561762,
                41.4376549686714
              ],
              [
                -71.4742222956777,
                41.4378291026317
              ],
              [
                -71.4745884022751,
                41.4380592220327
              ],
              [
                -71.4743546031461,
                41.4382698519611
              ],
              [
                -71.4752103751166,
                41.4388617161985
              ],
              [
                -71.4762229345453,
                41.438463119995
              ],
              [
                -71.4761576997877,
                41.4386531031094
              ],
              [
                -71.4772488097015,
                41.4388652577834
              ],
              [
                -71.4770937038896,
                41.4393169749402
              ]
            ]
          ],
          [
            [
              [
                -71.4751235780972,
                41.4390243878124
              ],
              [
                -71.4746561298577,
                41.4392144500954
              ],
              [
                -71.4742933075009,
                41.4393619693713
              ],
              [
                -71.4748303661919,
                41.4396766399437
              ],
              [
                -71.4754042028089,
                41.4392998631216
              ],
              [
                -71.4753833861488,
                41.4391987403304
              ],
              [
                -71.4751235780972,
                41.4390243878124
              ]
            ]
          ],
          [
            [
              [
                -71.4742806547302,
                41.4390297718967
              ],
              [
                -71.4746242971573,
                41.4390945633733
              ],
              [
                -71.4750052394316,
                41.4389428621485
              ],
              [
                -71.4743889906551,
                41.4385097339602
              ],
              [
                -71.4738715188307,
                41.4389759249727
              ],
              [
                -71.4738978628247,
                41.4390108612667
              ],
              [
                -71.4740473236233,
                41.4390294701994
              ],
              [
                -71.4741906767764,
                41.4389665373304
              ],
              [
                -71.4742806547302,
                41.4390297718967
              ]
            ]
          ]
        ]
      }
    }
  ],
  "bbox": [
    -71.5175525998826,
    41.4090751329846,
    -71.4380931490985,
    41.474906477178
  ]
}
