{
  "$schema": "https://ripota.org/schemas/web/v1/display-geojson.schema.json",
  "type": "FeatureCollection",
  "properties": {
    "schemaVersion": 1,
    "geometryRole": "display",
    "geometryKind": "boundary",
    "potaReference": "US-0513",
    "potaName": "Block Island National Wildlife Refuge",
    "sourceName": "U.S. Fish and Wildlife Service National Wildlife Refuge System Boundaries",
    "sourceUrl": "https://services.arcgis.com/QVENGdaPbd4LUkLV/arcgis/rest/services/National_Wildlife_Refuge_System_Boundaries/FeatureServer/0",
    "sourceQuery": "ORGNAME = 'BLOCK ISLAND NATIONAL WILDLIFE REFUGE'",
    "sourceFeatureIds": [
      87
    ],
    "fidelity": "web",
    "detailedArtifact": "@ripota/parks/boundaries/us-0513.geojson"
  },
  "features": [
    {
      "type": "Feature",
      "properties": {
        "potaReference": "US-0513",
        "potaName": "Block Island National Wildlife Refuge",
        "geometryKind": "boundary",
        "geometryRole": "display",
        "fidelity": "web"
      },
      "geometry": {
        "type": "MultiPolygon",
        "coordinates": [
          [
            [
              [
                -71.5853620602584,
                41.1966520085438
              ],
              [
                -71.585383861472,
                41.1968271491954
              ],
              [
                -71.585180087633,
                41.1970749072531
              ],
              [
                -71.5851512571023,
                41.1973457562838
              ],
              [
                -71.5848805821307,
                41.1976355464652
              ],
              [
                -71.5846868837959,
                41.19777950052
              ],
              [
                -71.5850729940781,
                41.1980365266517
              ],
              [
                -71.5851483519506,
                41.1982374845771
              ],
              [
                -71.5851012820264,
                41.198783447756
              ],
              [
                -71.5852589462402,
                41.1995319656244
              ],
              [
                -71.5856770042071,
                41.1997387351513
              ],
              [
                -71.5862541888451,
                41.2002481539229
              ],
              [
                -71.5870212333168,
                41.1996364728174
              ],
              [
                -71.5875378697081,
                41.199318630979
              ],
              [
                -71.587858575451,
                41.1987665146466
              ],
              [
                -71.5880007365397,
                41.1986011976027
              ],
              [
                -71.588408190793,
                41.1983308397557
              ],
              [
                -71.5883765251792,
                41.1982459883766
              ],
              [
                -71.5882265541375,
                41.1981187644996
              ],
              [
                -71.5881829121844,
                41.1979666311253
              ],
              [
                -71.588212229602,
                41.1975381543096
              ],
              [
                -71.5878934462537,
                41.1969283641599
              ],
              [
                -71.5879241569583,
                41.1965448881273
              ],
              [
                -71.5877861829172,
                41.1964759373271
              ],
              [
                -71.5869959367584,
                41.19660178345
              ],
              [
                -71.5868202999507,
                41.1959932749602
              ],
              [
                -71.5867426540691,
                41.1960085310864
              ],
              [
                -71.5858806244343,
                41.1964782375584
              ],
              [
                -71.5853620602584,
                41.1966520085438
              ]
            ]
          ],
          [
            [
              [
                -71.562211843871,
                41.221791671845
              ],
              [
                -71.562082805372,
                41.2231325329634
              ],
              [
                -71.5646759334751,
                41.223571609545
              ],
              [
                -71.5655465572923,
                41.2235894301363
              ],
              [
                -71.5653921809124,
                41.2225851648406
              ],
              [
                -71.5636450259568,
                41.2222543182534
              ],
              [
                -71.5637342628005,
                41.2219342788342
              ],
              [
                -71.5622730101587,
                41.2217316767755
              ],
              [
                -71.562211843871,
                41.221791671845
              ]
            ]
          ],
          [
            [
              [
                -71.5736918577562,
                41.2129905377333
              ],
              [
                -71.574902182193,
                41.2127833296024
              ],
              [
                -71.5757480807803,
                41.2125887699876
              ],
              [
                -71.5768040405153,
                41.2127317545273
              ],
              [
                -71.5768811806454,
                41.2124373095364
              ],
              [
                -71.5768509352681,
                41.2123884508156
              ],
              [
                -71.5769149581984,
                41.2121393322676
              ],
              [
                -71.5768787102784,
                41.2121086214187
              ],
              [
                -71.5768898116586,
                41.2119642657065
              ],
              [
                -71.5768417356212,
                41.2118977916769
              ],
              [
                -71.5768478827927,
                41.2117220236807
              ],
              [
                -71.5769339342104,
                41.2113508221784
              ],
              [
                -71.5769739604445,
                41.2113544295377
              ],
              [
                -71.577125090313,
                41.2110268044065
              ],
              [
                -71.577532891316,
                41.2107339601339
              ],
              [
                -71.5776247476471,
                41.2106148160245
              ],
              [
                -71.5776618929841,
                41.2104788842125
              ],
              [
                -71.5777021105593,
                41.2099465880537
              ],
              [
                -71.5777875026136,
                41.2096249381108
              ],
              [
                -71.5778799787822,
                41.2094742560867
              ],
              [
                -71.5753640033856,
                41.2095260831029
              ],
              [
                -71.5753004448843,
                41.2094734653914
              ],
              [
                -71.5742191894892,
                41.2096057364207
              ],
              [
                -71.5740598355443,
                41.2097714210122
              ],
              [
                -71.5731408679918,
                41.2099270722094
              ],
              [
                -71.5731430473047,
                41.2099540435128
              ],
              [
                -71.5691750027435,
                41.2096734204442
              ],
              [
                -71.5689982304653,
                41.2097088901074
              ],
              [
                -71.5687320839011,
                41.2096697974487
              ],
              [
                -71.568673492185,
                41.2098107095935
              ],
              [
                -71.5689925243666,
                41.2098486215383
              ],
              [
                -71.5691348327789,
                41.209818424577
              ],
              [
                -71.5696938741432,
                41.209846473157
              ],
              [
                -71.5698940789756,
                41.2099050491283
              ],
              [
                -71.5700134354325,
                41.209983444316
              ],
              [
                -71.5700999863135,
                41.2100805854756
              ],
              [
                -71.5702418311951,
                41.2103431156614
              ],
              [
                -71.5704864864644,
                41.2105087787875
              ],
              [
                -71.5705019653351,
                41.2111704255757
              ],
              [
                -71.5735015855959,
                41.2115221985579
              ],
              [
                -71.5736918577562,
                41.2129905377333
              ]
            ]
          ],
          [
            [
              [
                -71.5760219968733,
                41.2277588988123
              ],
              [
                -71.576138013394,
                41.2282921985683
              ],
              [
                -71.577113194822,
                41.2281757936283
              ],
              [
                -71.5769566984181,
                41.2266977007499
              ],
              [
                -71.5768358049438,
                41.2262680871508
              ],
              [
                -71.5767590232415,
                41.2257654334472
              ],
              [
                -71.5767533872114,
                41.2252611854117
              ],
              [
                -71.5766200933929,
                41.2243544961452
              ],
              [
                -71.5766608670254,
                41.2240923890723
              ],
              [
                -71.576651956636,
                41.2238178846202
              ],
              [
                -71.5766006215108,
                41.2236118810341
              ],
              [
                -71.5766407393731,
                41.2234848889038
              ],
              [
                -71.5766528872906,
                41.2231108399996
              ],
              [
                -71.5766858473768,
                41.22302003501
              ],
              [
                -71.5766159836005,
                41.2221524546215
              ],
              [
                -71.5766245517316,
                41.2212696084356
              ],
              [
                -71.5740975019042,
                41.2211550342689
              ],
              [
                -71.5738943946151,
                41.222942900703
              ],
              [
                -71.5735818563547,
                41.2240126790715
              ],
              [
                -71.5742864831855,
                41.2244607622813
              ],
              [
                -71.5738434852913,
                41.2273933385593
              ],
              [
                -71.5743631517,
                41.2277915176923
              ],
              [
                -71.5759598532186,
                41.2274675725763
              ],
              [
                -71.5760219968733,
                41.2277588988123
              ]
            ]
          ],
          [
            [
              [
                -71.5691944593542,
                41.2038006144488
              ],
              [
                -71.5731615849389,
                41.2037435077547
              ],
              [
                -71.5731511995159,
                41.2032123449845
              ],
              [
                -71.5735237209828,
                41.2032085181935
              ],
              [
                -71.5735344630369,
                41.2037486801658
              ],
              [
                -71.5742984433552,
                41.2037676213384
              ],
              [
                -71.5750643757125,
                41.2037414788015
              ],
              [
                -71.5750365989056,
                41.2023775849119
              ],
              [
                -71.5748108082573,
                41.2021034286506
              ],
              [
                -71.5745463029151,
                41.2022669640088
              ],
              [
                -71.5740830102821,
                41.2024079238628
              ],
              [
                -71.5740967922351,
                41.2030921247047
              ],
              [
                -71.5730013766962,
                41.2031076137045
              ],
              [
                -71.5729916191956,
                41.2026304755342
              ],
              [
                -71.5718739487938,
                41.2025248606241
              ],
              [
                -71.571756068269,
                41.2019510659507
              ],
              [
                -71.5703849489896,
                41.20222487815
              ],
              [
                -71.5703529977115,
                41.2021130079551
              ],
              [
                -71.5702775868384,
                41.2020336307394
              ],
              [
                -71.5698493258065,
                41.201908093802
              ],
              [
                -71.5696045196202,
                41.2024134329682
              ],
              [
                -71.5691944593542,
                41.2038006144488
              ]
            ]
          ]
        ]
      }
    }
  ],
  "bbox": [
    -71.588408190793,
    41.1959932749602,
    -71.562082805372,
    41.2282921985683
  ]
}
