{
  "$schema": "https://ripota.org/schemas/web/v1/display-geojson.schema.json",
  "type": "FeatureCollection",
  "properties": {
    "schemaVersion": 1,
    "geometryRole": "display",
    "geometryKind": "boundary",
    "potaReference": "US-0516",
    "potaName": "Sachuest Point National Wildlife Refuge",
    "sourceName": "U.S. Fish and Wildlife Service National Wildlife Refuge System Boundaries",
    "sourceUrl": "https://services.arcgis.com/QVENGdaPbd4LUkLV/arcgis/rest/services/National_Wildlife_Refuge_System_Boundaries/FeatureServer/0",
    "sourceQuery": "ORGNAME = 'SACHUEST POINT NATIONAL WILDLIFE REFUGE'",
    "sourceFeatureIds": [
      852
    ],
    "fidelity": "web",
    "detailedArtifact": "@ripota/parks/boundaries/us-0516.geojson"
  },
  "features": [
    {
      "type": "Feature",
      "properties": {
        "potaReference": "US-0516",
        "potaName": "Sachuest Point National Wildlife Refuge",
        "geometryKind": "boundary",
        "geometryRole": "display",
        "fidelity": "web"
      },
      "geometry": {
        "type": "Polygon",
        "coordinates": [
          [
            [
              -71.2492064900762,
              41.49001374523
            ],
            [
              -71.2487156901308,
              41.4900969744194
            ],
            [
              -71.2487469703673,
              41.4902480170208
            ],
            [
              -71.249845601875,
              41.4901482353429
            ],
            [
              -71.2509651587389,
              41.4860969496505
            ],
            [
              -71.2496097806382,
              41.4850418939535
            ],
            [
              -71.246981632612,
              41.4827870128266
            ],
            [
              -71.2460214027436,
              41.4821050397519
            ],
            [
              -71.2458833837867,
              41.4819719778428
            ],
            [
              -71.2459949428669,
              41.4817939318471
            ],
            [
              -71.2462862260894,
              41.4820734458257
            ],
            [
              -71.24714639172,
              41.4826741558037
            ],
            [
              -71.2497750805319,
              41.484929456071
            ],
            [
              -71.2510223948972,
              41.4859007279843
            ],
            [
              -71.251186031111,
              41.4852949489675
            ],
            [
              -71.2499520504395,
              41.4846200320083
            ],
            [
              -71.2480216283862,
              41.4833914007055
            ],
            [
              -71.2477159074404,
              41.4831465875662
            ],
            [
              -71.2474686030394,
              41.4828925308494
            ],
            [
              -71.246541880331,
              41.4822121700068
            ],
            [
              -71.2460221537352,
              41.4817505039505
            ],
            [
              -71.2457230479832,
              41.4811663996152
            ],
            [
              -71.2454185828823,
              41.4807290523184
            ],
            [
              -71.2453566099075,
              41.4805164793246
            ],
            [
              -71.2453888423582,
              41.4803041142646
            ],
            [
              -71.2454992345268,
              41.4801804384134
            ],
            [
              -71.2456879463135,
              41.4801041425704
            ],
            [
              -71.2456019613711,
              41.4800095361657
            ],
            [
              -71.2455790094156,
              41.4798560589824
            ],
            [
              -71.2460291821539,
              41.4791666370945
            ],
            [
              -71.2462736236242,
              41.4788898288965
            ],
            [
              -71.2463868634523,
              41.4786428868135
            ],
            [
              -71.2466413885116,
              41.477728513771
            ],
            [
              -71.2466934548655,
              41.4772475804448
            ],
            [
              -71.2468072660221,
              41.4770214558739
            ],
            [
              -71.2470723112518,
              41.4766258818581
            ],
            [
              -71.2471392366387,
              41.4761356314481
            ],
            [
              -71.2473221641733,
              41.4755574983044
            ],
            [
              -71.2476225069054,
              41.4750858834988
            ],
            [
              -71.2477493624982,
              41.474785086162
            ],
            [
              -71.2477044036149,
              41.4742241620434
            ],
            [
              -71.2478075993798,
              41.4739469268757
            ],
            [
              -71.2477977421662,
              41.472949740611
            ],
            [
              -71.2477123438237,
              41.4726718787378
            ],
            [
              -71.247563897223,
              41.4724352340452
            ],
            [
              -71.2474071537823,
              41.4723108229762
            ],
            [
              -71.2470454695911,
              41.4723277517589
            ],
            [
              -71.2468014045149,
              41.4724217427349
            ],
            [
              -71.2467297800407,
              41.4726460875688
            ],
            [
              -71.2465951728852,
              41.4728939261576
            ],
            [
              -71.2464059257026,
              41.4730412079875
            ],
            [
              -71.2458123387258,
              41.4733927780782
            ],
            [
              -71.2450975501526,
              41.4736870894271
            ],
            [
              -71.2449785907511,
              41.4739013479755
            ],
            [
              -71.244913494334,
              41.4741860012042
            ],
            [
              -71.2443383632447,
              41.4747179416355
            ],
            [
              -71.2440202051239,
              41.4749186864671
            ],
            [
              -71.2436702969477,
              41.4750905067281
            ],
            [
              -71.243259228772,
              41.4752363344786
            ],
            [
              -71.2427306187363,
              41.4752915014554
            ],
            [
              -71.2427274440901,
              41.4751922156705
            ],
            [
              -71.2425131905049,
              41.4752024703515
            ],
            [
              -71.2424807415602,
              41.4752802116298
            ],
            [
              -71.2417187968245,
              41.4756568306433
            ],
            [
              -71.2412794353106,
              41.4757095083209
            ],
            [
              -71.2409440196548,
              41.4756631378059
            ],
            [
              -71.2408187289272,
              41.4757460354432
            ],
            [
              -71.2406424920449,
              41.4760703048742
            ],
            [
              -71.2401949226243,
              41.4763939635786
            ],
            [
              -71.2400160482882,
              41.4764821039566
            ],
            [
              -71.2399576245571,
              41.4768066369017
            ],
            [
              -71.2400020282816,
              41.4772343256983
            ],
            [
              -71.2402291717928,
              41.4776890863334
            ],
            [
              -71.2402372844781,
              41.4779506374196
            ],
            [
              -71.2398223023427,
              41.4786654821168
            ],
            [
              -71.2397018113137,
              41.479023101058
            ],
            [
              -71.2397645766026,
              41.4793604872658
            ],
            [
              -71.2397446528679,
              41.4797596256702
            ],
            [
              -71.2396062126011,
              41.4800277302076
            ],
            [
              -71.2394497206888,
              41.4802269678905
            ],
            [
              -71.2391195377195,
              41.4803432224542
            ],
            [
              -71.2385238217355,
              41.4804451109214
            ],
            [
              -71.2382853190276,
              41.4805409233801
            ],
            [
              -71.2378561426124,
              41.4811700418586
            ],
            [
              -71.2375680385277,
              41.4819840882181
            ],
            [
              -71.2374651904108,
              41.4824257260472
            ],
            [
              -71.2374911939434,
              41.4828124244394
            ],
            [
              -71.2374501292568,
              41.4838824885828
            ],
            [
              -71.2375487454104,
              41.4844902882431
            ],
            [
              -71.2375388001619,
              41.484676678234
            ],
            [
              -71.2373815985804,
              41.4849248732479
            ],
            [
              -71.2373293193258,
              41.485149076554
            ],
            [
              -71.2373353479197,
              41.4859380400724
            ],
            [
              -71.237390128084,
              41.4860558146635
            ],
            [
              -71.237537347586,
              41.4860907538659
            ],
            [
              -71.2380055809532,
              41.4864586156866
            ],
            [
              -71.2386604078795,
              41.4862317258192
            ],
            [
              -71.239094280687,
              41.4859835687854
            ],
            [
              -71.2393985742097,
              41.4858942885749
            ],
            [
              -71.2405687807843,
              41.4857585238192
            ],
            [
              -71.2414821150016,
              41.4853730233633
            ],
            [
              -71.2416480005969,
              41.48534571638
            ],
            [
              -71.2428620943647,
              41.4853950665199
            ],
            [
              -71.2431076811869,
              41.4854195571874
            ],
            [
              -71.2434803733337,
              41.4855161503144
            ],
            [
              -71.2442682982458,
              41.4858046724415
            ],
            [
              -71.2450813858674,
              41.4862786533699
            ],
            [
              -71.2454667451579,
              41.4859110704726
            ],
            [
              -71.2458000794171,
              41.4861148714603
            ],
            [
              -71.2462782508463,
              41.4857317223812
            ],
            [
              -71.2472467236557,
              41.4862095463401
            ],
            [
              -71.2467443641893,
              41.4866653873145
            ],
            [
              -71.2469890580862,
              41.486856438525
            ],
            [
              -71.2472558909632,
              41.4871490595683
            ],
            [
              -71.2477821689724,
              41.4881222429531
            ],
            [
              -71.248369296164,
              41.4894021140283
            ],
            [
              -71.2489940025789,
              41.4892023917979
            ],
            [
              -71.2492064900762,
              41.49001374523
            ]
          ]
        ]
      }
    }
  ],
  "bbox": [
    -71.251186031111,
    41.4723108229762,
    -71.2373293193258,
    41.4902480170208
  ]
}
