{
  "$schema": "https://ripota.org/schemas/web/v1/display-geojson.schema.json",
  "type": "FeatureCollection",
  "properties": {
    "schemaVersion": 1,
    "geometryRole": "display",
    "geometryKind": "boundary",
    "potaReference": "US-0517",
    "potaName": "Trustom Pond National Wildlife Refuge",
    "sourceName": "U.S. Fish and Wildlife Service National Wildlife Refuge System Boundaries",
    "sourceUrl": "https://services.arcgis.com/QVENGdaPbd4LUkLV/arcgis/rest/services/National_Wildlife_Refuge_System_Boundaries/FeatureServer/0",
    "sourceQuery": "ORGNAME = 'TRUSTOM POND NATIONAL WILDLIFE REFUGE'",
    "sourceFeatureIds": [
      993
    ],
    "fidelity": "web",
    "detailedArtifact": "@ripota/parks/boundaries/us-0517.geojson"
  },
  "features": [
    {
      "type": "Feature",
      "properties": {
        "potaReference": "US-0517",
        "potaName": "Trustom Pond National Wildlife Refuge",
        "geometryKind": "boundary",
        "geometryRole": "display",
        "fidelity": "web"
      },
      "geometry": {
        "type": "MultiPolygon",
        "coordinates": [
          [
            [
              [
                -71.5695918830191,
                41.3725394569835
              ],
              [
                -71.5698432307373,
                41.3725743703688
              ],
              [
                -71.5700687420096,
                41.3725513167911
              ],
              [
                -71.5702717370093,
                41.3724972448684
              ],
              [
                -71.5704748353152,
                41.3723981368245
              ],
              [
                -71.5707040045274,
                41.3721453357339
              ],
              [
                -71.5708255142459,
                41.371872425106
              ],
              [
                -71.5709324955114,
                41.3717709620523
              ],
              [
                -71.5710915260628,
                41.3714927087083
              ],
              [
                -71.5711633302001,
                41.3715226259935
              ],
              [
                -71.571353162186,
                41.3715138791378
              ],
              [
                -71.5718054594399,
                41.3713956869232
              ],
              [
                -71.5719734560762,
                41.3713829228927
              ],
              [
                -71.5721557583833,
                41.3714103688584
              ],
              [
                -71.5723675865172,
                41.3715047015107
              ],
              [
                -71.5726591787601,
                41.3715657279199
              ],
              [
                -71.5730566239845,
                41.3709849237417
              ],
              [
                -71.5734849362204,
                41.3704484594904
              ],
              [
                -71.5728050750437,
                41.3705087048858
              ],
              [
                -71.5728683047616,
                41.3710701959482
              ],
              [
                -71.5722735059575,
                41.3711465465367
              ],
              [
                -71.5721951557967,
                41.3705898964664
              ],
              [
                -71.5719146730189,
                41.3706592149867
              ],
              [
                -71.5713343676336,
                41.3706766947699
              ],
              [
                -71.5711274460978,
                41.3707353597708
              ],
              [
                -71.5702959385213,
                41.3708350056139
              ],
              [
                -71.5697787281066,
                41.3708510669627
              ],
              [
                -71.5691174566664,
                41.3709378939057
              ],
              [
                -71.5685411236312,
                41.3709327536072
              ],
              [
                -71.5678868644401,
                41.3711410051441
              ],
              [
                -71.5679243358656,
                41.3715994998505
              ],
              [
                -71.56810544521,
                41.3715684359039
              ],
              [
                -71.5686073842649,
                41.3711924625511
              ],
              [
                -71.5688182404217,
                41.3711292111447
              ],
              [
                -71.5689479059447,
                41.3712433988115
              ],
              [
                -71.5688996888719,
                41.3713570570835
              ],
              [
                -71.5689370516011,
                41.3715183398658
              ],
              [
                -71.5684708619013,
                41.3716728560072
              ],
              [
                -71.5682521742319,
                41.3718218439295
              ],
              [
                -71.5682377769328,
                41.3720067988607
              ],
              [
                -71.5683839606773,
                41.3720755860084
              ],
              [
                -71.5691989697953,
                41.3720213559447
              ],
              [
                -71.5693106932672,
                41.3720593887884
              ],
              [
                -71.5693956622149,
                41.3720349739677
              ],
              [
                -71.5694584787078,
                41.3720741002354
              ],
              [
                -71.5695762667062,
                41.3720669652885
              ],
              [
                -71.5692962663237,
                41.3722623569818
              ],
              [
                -71.5692380357304,
                41.372434782105
              ],
              [
                -71.5693987676909,
                41.3725122487849
              ],
              [
                -71.5695256933523,
                41.3725094134312
              ],
              [
                -71.5695918830191,
                41.3725394569835
              ]
            ]
          ],
          [
            [
              [
                -71.587245570491,
                41.3823501703705
              ],
              [
                -71.5879198360618,
                41.3836162788614
              ],
              [
                -71.5871748362472,
                41.384157718501
              ],
              [
                -71.5871522606858,
                41.3845306088671
              ],
              [
                -71.5883199681472,
                41.3848725796923
              ],
              [
                -71.5905585752252,
                41.3844815277416
              ],
              [
                -71.5905628547992,
                41.383293676507
              ],
              [
                -71.5906464753757,
                41.3805590562664
              ],
              [
                -71.5942813877986,
                41.3802981155004
              ],
              [
                -71.5943014013649,
                41.3787530555016
              ],
              [
                -71.5968286946358,
                41.3780430443338
              ],
              [
                -71.5969451710938,
                41.3830435032724
              ],
              [
                -71.5976224810551,
                41.3828976125327
              ],
              [
                -71.5997909476756,
                41.3822857051195
              ],
              [
                -71.5975356490014,
                41.3816837008072
              ],
              [
                -71.5974813144015,
                41.3797935713295
              ],
              [
                -71.5979509617168,
                41.37990454949
              ],
              [
                -71.5989713742178,
                41.3776974252661
              ],
              [
                -71.5982987579538,
                41.3775189858913
              ],
              [
                -71.5975397902349,
                41.3768606467312
              ],
              [
                -71.5959925607356,
                41.3750132327005
              ],
              [
                -71.5954733794171,
                41.3738721236934
              ],
              [
                -71.5954432840585,
                41.3734630074982
              ],
              [
                -71.5942498587288,
                41.3734629164931
              ],
              [
                -71.5942701669424,
                41.3720844682879
              ],
              [
                -71.5929804736553,
                41.3720775281645
              ],
              [
                -71.5930230699695,
                41.3679966336825
              ],
              [
                -71.5929903919544,
                41.3662996478801
              ],
              [
                -71.5917687927625,
                41.3666874443155
              ],
              [
                -71.5890058570195,
                41.3674656932377
              ],
              [
                -71.5875358502953,
                41.367931088344
              ],
              [
                -71.5859544533742,
                41.3683674479243
              ],
              [
                -71.5848389137763,
                41.3685861659465
              ],
              [
                -71.5838897637285,
                41.3688461667307
              ],
              [
                -71.5836715863022,
                41.3688465658329
              ],
              [
                -71.5834536586076,
                41.3689100041781
              ],
              [
                -71.582471073265,
                41.3690806799858
              ],
              [
                -71.5819980725386,
                41.3691183201674
              ],
              [
                -71.57739391745,
                41.3697034461337
              ],
              [
                -71.5746524999513,
                41.3702016675687
              ],
              [
                -71.5741165659512,
                41.3703397552614
              ],
              [
                -71.5736288885497,
                41.3704227227451
              ],
              [
                -71.5734410121963,
                41.3707556635034
              ],
              [
                -71.5730421808713,
                41.3711968997065
              ],
              [
                -71.5728542110931,
                41.3715748745283
              ],
              [
                -71.5721309747629,
                41.3727438838202
              ],
              [
                -71.5722805918684,
                41.3742266093471
              ],
              [
                -71.5721224263947,
                41.3750767573834
              ],
              [
                -71.5721191709001,
                41.3753830504136
              ],
              [
                -71.5721764780253,
                41.379547270518
              ],
              [
                -71.5722362806704,
                41.3807798207869
              ],
              [
                -71.5722593359322,
                41.3827292086853
              ],
              [
                -71.5733543014151,
                41.3829478858347
              ],
              [
                -71.5740435365118,
                41.3831215969543
              ],
              [
                -71.5760229436977,
                41.383734746107
              ],
              [
                -71.5774783842395,
                41.3834949852873
              ],
              [
                -71.5810117223566,
                41.3834382520426
              ],
              [
                -71.5829520896586,
                41.3833091227793
              ],
              [
                -71.5864277882738,
                41.3843342935789
              ],
              [
                -71.5865482451669,
                41.3824807553948
              ],
              [
                -71.587245570491,
                41.3823501703705
              ]
            ]
          ],
          [
            [
              [
                -71.564016779364,
                41.3772166772502
              ],
              [
                -71.5650114470472,
                41.377149463433
              ],
              [
                -71.5650176184732,
                41.3767170137627
              ],
              [
                -71.5647154952802,
                41.3766832229184
              ],
              [
                -71.5645606400983,
                41.3767362121637
              ],
              [
                -71.5644805993082,
                41.3768010421987
              ],
              [
                -71.5642355137458,
                41.3771442514995
              ],
              [
                -71.5641692252644,
                41.3771592395146
              ],
              [
                -71.5641083033184,
                41.3771020551799
              ],
              [
                -71.5641277266915,
                41.3770160601835
              ],
              [
                -71.5643257046003,
                41.3767009221805
              ],
              [
                -71.5644025366083,
                41.3766496733766
              ],
              [
                -71.564473669704,
                41.3766435830789
              ],
              [
                -71.5643746016979,
                41.3764521533083
              ],
              [
                -71.5641974197879,
                41.3762984897735
              ],
              [
                -71.5639627555812,
                41.3763172319448
              ],
              [
                -71.5640015322587,
                41.3765910649393
              ],
              [
                -71.564016779364,
                41.3772166772502
              ]
            ]
          ],
          [
            [
              [
                -71.5639979776251,
                41.3822337132276
              ],
              [
                -71.5670069511446,
                41.3824232704086
              ],
              [
                -71.567275742349,
                41.3771844990475
              ],
              [
                -71.5635647794524,
                41.3773438381902
              ],
              [
                -71.5635745962418,
                41.3779740740842
              ],
              [
                -71.5626934262032,
                41.3780297396601
              ],
              [
                -71.5626724676093,
                41.3794082007327
              ],
              [
                -71.5606880478242,
                41.3794794248293
              ],
              [
                -71.5607147906702,
                41.3808748361295
              ],
              [
                -71.5640633363503,
                41.3807687012226
              ],
              [
                -71.5639979776251,
                41.3822337132276
              ]
            ]
          ]
        ]
      }
    }
  ],
  "bbox": [
    -71.5997909476756,
    41.3662996478801,
    -71.5606880478242,
    41.3848725796923
  ]
}
