{
  "$schema": "https://ripota.org/schemas/web/v1/display-geojson.schema.json",
  "type": "FeatureCollection",
  "properties": {
    "schemaVersion": 1,
    "geometryRole": "display",
    "geometryKind": "boundary",
    "potaReference": "US-10542",
    "potaName": "Camp Cronin State Recreation Area",
    "sourceName": "Rhode Island DEM State Conservation Land",
    "sourceUrl": "https://risegis.ri.gov/hosting/rest/services/RIDEM/State_Conservation_Land/MapServer/0",
    "sourceQuery": "DEM_AREA = 'Camp Cronin Fishing Access'",
    "sourceFeatureIds": [
      680,
      681
    ],
    "fidelity": "web",
    "detailedArtifact": "@ripota/parks/boundaries/us-10542.geojson"
  },
  "features": [
    {
      "type": "Feature",
      "properties": {
        "potaReference": "US-10542",
        "potaName": "Camp Cronin State Recreation Area",
        "geometryKind": "boundary",
        "geometryRole": "display",
        "fidelity": "web"
      },
      "geometry": {
        "type": "Polygon",
        "coordinates": [
          [
            [
              -71.48641005566533,
              41.36179733699126
            ],
            [
              -71.4857766865247,
              41.36171672666588
            ],
            [
              -71.48542415546488,
              41.36163807834229
            ],
            [
              -71.48522573994242,
              41.36164560030543
            ],
            [
              -71.48472978592795,
              41.36150273823532
            ],
            [
              -71.48366757663797,
              41.36107392123539
            ],
            [
              -71.48329465142398,
              41.36108229377938
            ],
            [
              -71.48300939901269,
              41.36102058635964
            ],
            [
              -71.48239714462392,
              41.36077698582646
            ],
            [
              -71.48229636416791,
              41.36132940330456
            ],
            [
              -71.48177663598227,
              41.36198391769097
            ],
            [
              -71.48294979045893,
              41.36303928097343
            ],
            [
              -71.48291367334947,
              41.363161103219994
            ],
            [
              -71.48266323357255,
              41.363137888255665
            ],
            [
              -71.48289119055072,
              41.363364726344145
            ],
            [
              -71.48318040494419,
              41.36357242657144
            ],
            [
              -71.48453423228091,
              41.36432069697845
            ],
            [
              -71.48493867747672,
              41.36446614107186
            ],
            [
              -71.4852786010211,
              41.363982089205514
            ],
            [
              -71.4857680714247,
              41.364177542929184
            ],
            [
              -71.48593990379065,
              41.36395605632325
            ],
            [
              -71.48677725718004,
              41.364223591508186
            ],
            [
              -71.48635225987788,
              41.36491216634805
            ],
            [
              -71.48657559384522,
              41.365022141036185
            ],
            [
              -71.48673699623416,
              41.3651611419581
            ],
            [
              -71.4868968871674,
              41.365444267837006
            ],
            [
              -71.4871740182633,
              41.36468526333723
            ],
            [
              -71.48720959504467,
              41.36438118909036
            ],
            [
              -71.48692437581035,
              41.364039364154806
            ],
            [
              -71.48675056130452,
              41.36394296504857
            ],
            [
              -71.48684301095774,
              41.36372477873663
            ],
            [
              -71.48754143467707,
              41.36261460561522
            ],
            [
              -71.48674312681436,
              41.36243771324438
            ],
            [
              -71.48694938756974,
              41.36187131787535
            ],
            [
              -71.48641005566533,
              41.36179733699126
            ]
          ]
        ]
      }
    }
  ],
  "bbox": [
    -71.48754143467707,
    41.36077698582646,
    -71.48177663598227,
    41.365444267837006
  ]
}
