{
  "$schema": "https://ripota.org/schemas/web/v1/display-geojson.schema.json",
  "type": "FeatureCollection",
  "properties": {
    "schemaVersion": 1,
    "geometryRole": "display",
    "geometryKind": "boundary",
    "potaReference": "US-10547",
    "potaName": "Silver Spring State Recreation Area",
    "sourceName": "Rhode Island DEM State Conservation Land",
    "sourceUrl": "https://risegis.ri.gov/hosting/rest/services/RIDEM/State_Conservation_Land/MapServer/0",
    "sourceQuery": "DEM_AREA = 'Spring Lake Fishing Access' OR DEM_AREA = 'Silver Spring Management Area'",
    "sourceFeatureIds": [
      646,
      31599
    ],
    "fidelity": "web",
    "detailedArtifact": "@ripota/parks/boundaries/us-10547.geojson"
  },
  "features": [
    {
      "type": "Feature",
      "properties": {
        "potaReference": "US-10547",
        "potaName": "Silver Spring State Recreation Area",
        "geometryKind": "boundary",
        "geometryRole": "display",
        "fidelity": "web"
      },
      "geometry": {
        "type": "MultiPolygon",
        "coordinates": [
          [
            [
              [
                -71.47045377945983,
                41.53874863751911
              ],
              [
                -71.47056585603943,
                41.53878763581271
              ],
              [
                -71.47052916424889,
                41.53883451035447
              ],
              [
                -71.47059673794827,
                41.53888381111314
              ],
              [
                -71.47078909922487,
                41.53871826315502
              ],
              [
                -71.47086093563365,
                41.5387355525598
              ],
              [
                -71.47053322637906,
                41.538500041836045
              ],
              [
                -71.46987618706721,
                41.53794497250158
              ],
              [
                -71.46913194276242,
                41.53754325027533
              ],
              [
                -71.46901657543873,
                41.537784381073045
              ],
              [
                -71.46903222089551,
                41.53823742837793
              ],
              [
                -71.46926690375619,
                41.538245951346056
              ],
              [
                -71.46929407766751,
                41.53812261667513
              ],
              [
                -71.46939119624754,
                41.538035686087404
              ],
              [
                -71.46945089555054,
                41.538050626741025
              ],
              [
                -71.4695383710604,
                41.53798048564543
              ],
              [
                -71.46962881531961,
                41.53799875766662
              ],
              [
                -71.46987092685573,
                41.538114071519416
              ],
              [
                -71.46987626699946,
                41.53816528501201
              ],
              [
                -71.47002106962204,
                41.53826947397223
              ],
              [
                -71.47014055698807,
                41.53844411759843
              ],
              [
                -71.47026362231132,
                41.53845882755749
              ],
              [
                -71.47030340747108,
                41.538604994611056
              ],
              [
                -71.47044327053099,
                41.53869668621547
              ],
              [
                -71.47045377945983,
                41.53874863751911
              ]
            ]
          ],
          [
            [
              [
                -71.48807077838127,
                41.53451428526073
              ],
              [
                -71.48602515937938,
                41.535139793105685
              ],
              [
                -71.48415211373542,
                41.53360578135776
              ],
              [
                -71.48317395658663,
                41.53307451391257
              ],
              [
                -71.48457510496146,
                41.53165559510845
              ],
              [
                -71.48086321536613,
                41.52961392244322
              ],
              [
                -71.4809826425413,
                41.53056724684838
              ],
              [
                -71.48126618829748,
                41.532071144198866
              ],
              [
                -71.47507130312283,
                41.53195502780081
              ],
              [
                -71.47548262744526,
                41.533776927948956
              ],
              [
                -71.4731800297882,
                41.53362072027904
              ],
              [
                -71.47315020930877,
                41.53365525301478
              ],
              [
                -71.47310881092858,
                41.534089108550035
              ],
              [
                -71.47115977632858,
                41.53398409256501
              ],
              [
                -71.47111638555316,
                41.533988013660135
              ],
              [
                -71.4710769963727,
                41.534144167534514
              ],
              [
                -71.47113311963378,
                41.53424969691625
              ],
              [
                -71.47137460756909,
                41.53435949356049
              ],
              [
                -71.47140828124556,
                41.534427031750596
              ],
              [
                -71.47140261713487,
                41.53453254651936
              ],
              [
                -71.47144191295615,
                41.53458742397431
              ],
              [
                -71.47171711792673,
                41.534667683911636
              ],
              [
                -71.47180688886326,
                41.5349082817424
              ],
              [
                -71.47255946511478,
                41.53520390812473
              ],
              [
                -71.47280656082111,
                41.5353516885399
              ],
              [
                -71.47298618994398,
                41.535642954207376
              ],
              [
                -71.47315307707692,
                41.53584572584011
              ],
              [
                -71.47328385027251,
                41.53577386322685
              ],
              [
                -71.47349852093286,
                41.53571822676189
              ],
              [
                -71.47420243181891,
                41.53592999535507
              ],
              [
                -71.47557826513477,
                41.53657820573093
              ],
              [
                -71.47640556007714,
                41.536840991958265
              ],
              [
                -71.48233696931811,
                41.53709724203394
              ],
              [
                -71.48227291428614,
                41.536375709435134
              ],
              [
                -71.48809830298129,
                41.53465400273022
              ],
              [
                -71.48807077838127,
                41.53451428526073
              ]
            ]
          ],
          [
            [
              [
                -71.47135853223035,
                41.539760310900874
              ],
              [
                -71.4714537841415,
                41.539783419544946
              ],
              [
                -71.47167441093556,
                41.539731361629954
              ],
              [
                -71.47185834896908,
                41.53973601045123
              ],
              [
                -71.47191541597205,
                41.53969080708201
              ],
              [
                -71.47207760580729,
                41.53968604121989
              ],
              [
                -71.47231221747037,
                41.53957405676963
              ],
              [
                -71.4726693879927,
                41.539522353872776
              ],
              [
                -71.4727889761014,
                41.539464838641706
              ],
              [
                -71.47308511234195,
                41.53923747023939
              ],
              [
                -71.47316666896555,
                41.539129900519995
              ],
              [
                -71.47327801101319,
                41.53889183589203
              ],
              [
                -71.47323092108039,
                41.5387973880798
              ],
              [
                -71.47333106827371,
                41.53873143564707
              ],
              [
                -71.47341598445914,
                41.53844448284325
              ],
              [
                -71.47349553523676,
                41.53841181723194
              ],
              [
                -71.47350629972678,
                41.53832205313902
              ],
              [
                -71.47358678746275,
                41.538265758878566
              ],
              [
                -71.47367748619212,
                41.5381064925758
              ],
              [
                -71.47116337436513,
                41.53663748143564
              ],
              [
                -71.47070859241717,
                41.53738381727449
              ],
              [
                -71.469939506519,
                41.53711386256371
              ],
              [
                -71.46933737884183,
                41.53712443890042
              ],
              [
                -71.46918048833018,
                41.5374371934363
              ],
              [
                -71.46971046044303,
                41.53771813190409
              ],
              [
                -71.47017373740562,
                41.53737248352421
              ],
              [
                -71.47086418515639,
                41.537996942446284
              ],
              [
                -71.47047166591211,
                41.53828357802243
              ],
              [
                -71.4705590817266,
                41.538359197649086
              ],
              [
                -71.47094965220417,
                41.538078565052906
              ],
              [
                -71.4711807879617,
                41.53828328249577
              ],
              [
                -71.47078580070162,
                41.538546437374556
              ],
              [
                -71.47122269782034,
                41.53878809466452
              ],
              [
                -71.47077236778928,
                41.53924185697258
              ],
              [
                -71.47096321665362,
                41.53945022913206
              ],
              [
                -71.47112583559881,
                41.539538387124054
              ],
              [
                -71.47116315309897,
                41.53962331086749
              ],
              [
                -71.47135853223035,
                41.539760310900874
              ]
            ]
          ]
        ]
      }
    }
  ],
  "bbox": [
    -71.48809830298129,
    41.52961392244322,
    -71.46901657543873,
    41.539783419544946
  ]
}
