{
  "$schema": "https://ripota.org/schemas/web/v1/display-geojson.schema.json",
  "type": "FeatureCollection",
  "properties": {
    "schemaVersion": 1,
    "geometryRole": "display",
    "geometryKind": "boundary",
    "potaReference": "US-10545",
    "potaName": "Hillsdale Preserve Management Area",
    "sourceName": "Rhode Island DEM State Conservation Land",
    "sourceUrl": "https://risegis.ri.gov/hosting/rest/services/RIDEM/State_Conservation_Land/MapServer/0",
    "sourceQuery": "DEM_AREA = 'Hillsdale'",
    "sourceFeatureIds": [
      16015
    ],
    "fidelity": "web",
    "detailedArtifact": "@ripota/parks/boundaries/us-10545.geojson"
  },
  "features": [
    {
      "type": "Feature",
      "properties": {
        "potaReference": "US-10545",
        "potaName": "Hillsdale Preserve Management Area",
        "geometryKind": "boundary",
        "geometryRole": "display",
        "fidelity": "web"
      },
      "geometry": {
        "type": "MultiPolygon",
        "coordinates": [
          [
            [
              [
                -71.65475569805442,
                41.53994306859079
              ],
              [
                -71.65664202796906,
                41.53928882363898
              ],
              [
                -71.65936864286196,
                41.538400838545
              ],
              [
                -71.66062129205561,
                41.537945930411325
              ],
              [
                -71.66009946983341,
                41.53687226692451
              ],
              [
                -71.66208206225684,
                41.53666805739799
              ],
              [
                -71.66227184748689,
                41.53550210114043
              ],
              [
                -71.662529696231,
                41.53435227309925
              ],
              [
                -71.66237666401663,
                41.53438929612294
              ],
              [
                -71.66236040555714,
                41.53333080196337
              ],
              [
                -71.66229302751447,
                41.53222631784232
              ],
              [
                -71.662144839227,
                41.53110373983774
              ],
              [
                -71.66212484335817,
                41.53051071191381
              ],
              [
                -71.65948001962015,
                41.532301902365546
              ],
              [
                -71.65845072332834,
                41.53144767892966
              ],
              [
                -71.65730111179201,
                41.53227055640617
              ],
              [
                -71.65670077032071,
                41.53260460325423
              ],
              [
                -71.65615584171678,
                41.532963584425026
              ],
              [
                -71.65682466334209,
                41.53404252974212
              ],
              [
                -71.65605441529966,
                41.53455262109717
              ],
              [
                -71.65349809875879,
                41.535320148202466
              ],
              [
                -71.65397186153201,
                41.536963490645064
              ],
              [
                -71.65475569805442,
                41.53994306859079
              ]
            ]
          ],
          [
            [
              [
                -71.65475569805442,
                41.53994306859079
              ],
              [
                -71.65475137640405,
                41.53994448981064
              ],
              [
                -71.65476757430797,
                41.53998934226243
              ],
              [
                -71.65475569805442,
                41.53994306859079
              ]
            ]
          ]
        ]
      }
    }
  ],
  "bbox": [
    -71.662529696231,
    41.53051071191381,
    -71.65349809875879,
    41.53998934226243
  ]
}
