{
  "$schema": "https://ripota.org/schemas/web/v1/display-geojson.schema.json",
  "type": "FeatureCollection",
  "properties": {
    "schemaVersion": 1,
    "geometryRole": "display",
    "geometryKind": "boundary",
    "potaReference": "US-2875",
    "potaName": "Fort Wetherill State Park",
    "sourceName": "Rhode Island DEM State Conservation Land",
    "sourceUrl": "https://risegis.ri.gov/hosting/rest/services/RIDEM/State_Conservation_Land/MapServer/0",
    "sourceQuery": "DEM_AREA = 'Fort Wetherill'",
    "sourceFeatureIds": [
      566,
      567
    ],
    "fidelity": "web",
    "detailedArtifact": "@ripota/parks/boundaries/us-2875.geojson"
  },
  "features": [
    {
      "type": "Feature",
      "properties": {
        "potaReference": "US-2875",
        "potaName": "Fort Wetherill State Park",
        "geometryKind": "boundary",
        "geometryRole": "display",
        "fidelity": "web"
      },
      "geometry": {
        "type": "MultiPolygon",
        "coordinates": [
          [
            [
              [
                -71.35866933199348,
                41.47884997733145
              ],
              [
                -71.3586549007061,
                41.47878077423129
              ],
              [
                -71.35881291711016,
                41.47855574374777
              ],
              [
                -71.35910974801907,
                41.4783071442558
              ],
              [
                -71.35940917324797,
                41.47815119320119
              ],
              [
                -71.35949829450027,
                41.47807281294287
              ],
              [
                -71.35953480831235,
                41.477795146294774
              ],
              [
                -71.35938442856813,
                41.47782364191772
              ],
              [
                -71.35929580711509,
                41.47776956032788
              ],
              [
                -71.3593972427345,
                41.477607077686145
              ],
              [
                -71.35937074766544,
                41.477498435257125
              ],
              [
                -71.35947092797332,
                41.47735312692671
              ],
              [
                -71.35943278317761,
                41.47730178306425
              ],
              [
                -71.35933853270365,
                41.47729210836677
              ],
              [
                -71.35913501277312,
                41.47706023111555
              ],
              [
                -71.35904724928605,
                41.47705998674811
              ],
              [
                -71.35896222498415,
                41.47711502177205
              ],
              [
                -71.35892668049165,
                41.47732348516508
              ],
              [
                -71.35887802575796,
                41.47737137237353
              ],
              [
                -71.35870661249905,
                41.47720623405289
              ],
              [
                -71.35866067893176,
                41.47711529183459
              ],
              [
                -71.35853076532517,
                41.477073668982584
              ],
              [
                -71.35823604175802,
                41.47716661579207
              ],
              [
                -71.35820706627356,
                41.47733129008345
              ],
              [
                -71.35808331264893,
                41.477365831458535
              ],
              [
                -71.35772795113445,
                41.47777739662624
              ],
              [
                -71.35749499723703,
                41.478281827746244
              ],
              [
                -71.35729036471945,
                41.478295662519876
              ],
              [
                -71.35707914234754,
                41.47826317607639
              ],
              [
                -71.3568566191669,
                41.478958216900274
              ],
              [
                -71.35704640339094,
                41.4789631871831
              ],
              [
                -71.35706440979374,
                41.47882345131867
              ],
              [
                -71.35866933199348,
                41.47884997733145
              ]
            ]
          ],
          [
            [
              [
                -71.3612831880024,
                41.47704230459285
              ],
              [
                -71.3610138119632,
                41.47727864984729
              ],
              [
                -71.36131364319684,
                41.477292379881305
              ],
              [
                -71.36138141425766,
                41.47724143803229
              ],
              [
                -71.36145892159122,
                41.47723080501119
              ],
              [
                -71.36150714698385,
                41.47720481467932
              ],
              [
                -71.36151839329484,
                41.4770926156921
              ],
              [
                -71.361583727061,
                41.47704417568449
              ],
              [
                -71.3616932218158,
                41.47700664119616
              ],
              [
                -71.36181873648827,
                41.477029546802484
              ],
              [
                -71.3619038925717,
                41.476968768910055
              ],
              [
                -71.36179632262295,
                41.476929910163136
              ],
              [
                -71.36190450378413,
                41.476838181866434
              ],
              [
                -71.36183482791279,
                41.47674124368953
              ],
              [
                -71.36156586799399,
                41.476712093300776
              ],
              [
                -71.36161547442494,
                41.47678692623016
              ],
              [
                -71.36160950741564,
                41.47684713561797
              ],
              [
                -71.36138113743716,
                41.476814499575816
              ],
              [
                -71.36134406862388,
                41.47685713088564
              ],
              [
                -71.36134181622579,
                41.47697191222785
              ],
              [
                -71.3612831880024,
                41.47704230459285
              ]
            ]
          ],
          [
            [
              [
                -71.36046853876222,
                41.47978540415776
              ],
              [
                -71.36110843218364,
                41.47985922932119
              ],
              [
                -71.36189280847945,
                41.48004136537612
              ],
              [
                -71.36553669789117,
                41.481137610726904
              ],
              [
                -71.3662909354862,
                41.47974403399364
              ],
              [
                -71.36636266727366,
                41.47970231026607
              ],
              [
                -71.36642461999642,
                41.479710483967494
              ],
              [
                -71.36683015480074,
                41.479955771244235
              ],
              [
                -71.36718217951532,
                41.48007424958193
              ],
              [
                -71.36738063497444,
                41.480089241412074
              ],
              [
                -71.36849931534861,
                41.48002670850977
              ],
              [
                -71.36857284097789,
                41.48003348426672
              ],
              [
                -71.36863358217903,
                41.48010947125167
              ],
              [
                -71.369022547468,
                41.47946099467726
              ],
              [
                -71.36903623466151,
                41.47784339032628
              ],
              [
                -71.36898171275739,
                41.47776547115937
              ],
              [
                -71.36883064465682,
                41.47773010168839
              ],
              [
                -71.36876884716618,
                41.477671277785205
              ],
              [
                -71.36863800867737,
                41.47767778415882
              ],
              [
                -71.3684711835662,
                41.477915579399905
              ],
              [
                -71.36832302939025,
                41.47792759943643
              ],
              [
                -71.36820284430436,
                41.477876415752924
              ],
              [
                -71.36822301591404,
                41.47781958347657
              ],
              [
                -71.36817873429214,
                41.477791128906766
              ],
              [
                -71.36791743972624,
                41.47773518661836
              ],
              [
                -71.36786182200446,
                41.47774891227855
              ],
              [
                -71.36780195313466,
                41.477834354820374
              ],
              [
                -71.36741606982015,
                41.47765790345562
              ],
              [
                -71.36710248234624,
                41.47764084557927
              ],
              [
                -71.36703685969307,
                41.477579867085
              ],
              [
                -71.36703247022017,
                41.47751090892617
              ],
              [
                -71.36726290279314,
                41.47719124609622
              ],
              [
                -71.36719202560457,
                41.477156721507285
              ],
              [
                -71.36711458468945,
                41.4771652317375
              ],
              [
                -71.36700714877831,
                41.477342007124264
              ],
              [
                -71.36690797961158,
                41.47738754151169
              ],
              [
                -71.36685001194104,
                41.47737544426101
              ],
              [
                -71.36685806296109,
                41.477230595460725
              ],
              [
                -71.36679190900115,
                41.47722125561639
              ],
              [
                -71.3666965039974,
                41.47726972136295
              ],
              [
                -71.36656853429008,
                41.47722740033021
              ],
              [
                -71.36649209330103,
                41.47728181159656
              ],
              [
                -71.36648397412661,
                41.47735562639301
              ],
              [
                -71.36640086022581,
                41.47746096064835
              ],
              [
                -71.3663102964078,
                41.477505863432825
              ],
              [
                -71.36625333911145,
                41.47749090920491
              ],
              [
                -71.36626835723676,
                41.47740422681064
              ],
              [
                -71.36617681971563,
                41.477302028260134
              ],
              [
                -71.36607951643822,
                41.477105072638565
              ],
              [
                -71.3660791003694,
                41.47702685580798
              ],
              [
                -71.36593171155565,
                41.47697790256181
              ],
              [
                -71.36588646058952,
                41.4770226066097
              ],
              [
                -71.3658937766019,
                41.47694087735
              ],
              [
                -71.36583827041403,
                41.47690005808095
              ],
              [
                -71.36570063041512,
                41.47688744501501
              ],
              [
                -71.36553785584638,
                41.476794184706065
              ],
              [
                -71.36536862826951,
                41.476909961149794
              ],
              [
                -71.36526899331992,
                41.47693042750699
              ],
              [
                -71.3651115832321,
                41.476831810130584
              ],
              [
                -71.36496686959138,
                41.47681373330316
              ],
              [
                -71.36484328014858,
                41.476742050031454
              ],
              [
                -71.36447398969047,
                41.47669422958705
              ],
              [
                -71.36437233520527,
                41.47672036437252
              ],
              [
                -71.36430244857513,
                41.476781322379864
              ],
              [
                -71.36418829997415,
                41.47700968251511
              ],
              [
                -71.36414687173338,
                41.477039505074
              ],
              [
                -71.3641062703229,
                41.476812170597604
              ],
              [
                -71.36404999617062,
                41.476761310161805
              ],
              [
                -71.36381390654375,
                41.47692949195883
              ],
              [
                -71.36352482794153,
                41.477074877257635
              ],
              [
                -71.36343065696727,
                41.477157806149016
              ],
              [
                -71.36336814813126,
                41.477281230886554
              ],
              [
                -71.3633831083471,
                41.47736133961745
              ],
              [
                -71.36374122173419,
                41.47752697770013
              ],
              [
                -71.3637976533085,
                41.47761893605658
              ],
              [
                -71.36376658418895,
                41.47774489051378
              ],
              [
                -71.36324623380997,
                41.47810582541506
              ],
              [
                -71.36295873874971,
                41.478218209899794
              ],
              [
                -71.3628739731816,
                41.478317205348965
              ],
              [
                -71.36259773184838,
                41.47839171736364
              ],
              [
                -71.3624812111489,
                41.47848634008786
              ],
              [
                -71.36261281430514,
                41.47888246989838
              ],
              [
                -71.36258586194818,
                41.478943889589544
              ],
              [
                -71.36226526938589,
                41.479187940597136
              ],
              [
                -71.36198749548899,
                41.47914470389118
              ],
              [
                -71.36186098618548,
                41.47917270465126
              ],
              [
                -71.36163347085326,
                41.4792922015955
              ],
              [
                -71.36160480518969,
                41.479343533679604
              ],
              [
                -71.36174372790924,
                41.479413225548576
              ],
              [
                -71.36166059282984,
                41.47956589721826
              ],
              [
                -71.36158079067562,
                41.47959587617117
              ],
              [
                -71.36142644895615,
                41.47958411758082
              ],
              [
                -71.36128563017247,
                41.4795624959706
              ],
              [
                -71.36113903601334,
                41.47949700183005
              ],
              [
                -71.36095071529003,
                41.47931843423251
              ],
              [
                -71.3609006850852,
                41.47919263374185
              ],
              [
                -71.36099433181091,
                41.47908786546525
              ],
              [
                -71.36105878626223,
                41.47905984744515
              ],
              [
                -71.36113751533358,
                41.479083669692734
              ],
              [
                -71.36119758259167,
                41.47903839114998
              ],
              [
                -71.36116585085755,
                41.47894479112475
              ],
              [
                -71.36143804801527,
                41.478707339698026
              ],
              [
                -71.3615123562715,
                41.47870031607161
              ],
              [
                -71.36153597056843,
                41.478664667289095
              ],
              [
                -71.36145284259315,
                41.47857192115923
              ],
              [
                -71.36160798853693,
                41.47824783372263
              ],
              [
                -71.36157899635057,
                41.477923890183725
              ],
              [
                -71.3615058778705,
                41.47785779878591
              ],
              [
                -71.36132010540159,
                41.47784138318279
              ],
              [
                -71.36144448387545,
                41.47772725144563
              ],
              [
                -71.3614512245542,
                41.47767490975089
              ],
              [
                -71.36128693831971,
                41.477536759673846
              ],
              [
                -71.36114194595255,
                41.47753516661809
              ],
              [
                -71.36075548090963,
                41.47768230285922
              ],
              [
                -71.3606153041429,
                41.47787380718277
              ],
              [
                -71.36050793716797,
                41.478095082131766
              ],
              [
                -71.36043651247526,
                41.47843084246317
              ],
              [
                -71.36037272717287,
                41.47852267907437
              ],
              [
                -71.36023602108767,
                41.47858362189274
              ],
              [
                -71.36021942902909,
                41.47862720420968
              ],
              [
                -71.36034878953703,
                41.47872262571262
              ],
              [
                -71.36035072552353,
                41.47877003830577
              ],
              [
                -71.36024588490501,
                41.47886141351142
              ],
              [
                -71.36014614365519,
                41.47888686077469
              ],
              [
                -71.35985680578207,
                41.47884852191309
              ],
              [
                -71.35978728412428,
                41.47889154715266
              ],
              [
                -71.35966768889574,
                41.47905597440917
              ],
              [
                -71.35961519012642,
                41.47903173657539
              ],
              [
                -71.35955408613854,
                41.479106401881914
              ],
              [
                -71.35926213008125,
                41.479153430975074
              ],
              [
                -71.35915146513888,
                41.479152906553956
              ],
              [
                -71.3590264263814,
                41.479105618662906
              ],
              [
                -71.35894535049239,
                41.479007109822724
              ],
              [
                -71.358843981982,
                41.47896938682716
              ],
              [
                -71.35877956165918,
                41.47899452238779
              ],
              [
                -71.35867933995131,
                41.478897967116694
              ],
              [
                -71.35893406142971,
                41.48013896031726
              ],
              [
                -71.35976258551206,
                41.47985238313173
              ],
              [
                -71.36046853876222,
                41.47978540415776
              ]
            ]
          ]
        ]
      }
    }
  ],
  "bbox": [
    -71.36903623466151,
    41.47669422958705,
    -71.3568566191669,
    41.481137610726904
  ]
}
