{
  "$schema": "https://ripota.org/schemas/web/v1/display-geojson.schema.json",
  "type": "FeatureCollection",
  "properties": {
    "schemaVersion": 1,
    "geometryRole": "display",
    "geometryKind": "boundary",
    "potaReference": "US-2879",
    "potaName": "Rocky Point State Park",
    "sourceName": "Rhode Island DEM State Conservation Land",
    "sourceUrl": "https://risegis.ri.gov/hosting/rest/services/RIDEM/State_Conservation_Land/MapServer/0",
    "sourceQuery": "DEM_AREA = 'Rocky Point State Park'",
    "sourceFeatureIds": [
      643,
      692
    ],
    "fidelity": "web",
    "detailedArtifact": "@ripota/parks/boundaries/us-2879.geojson"
  },
  "features": [
    {
      "type": "Feature",
      "properties": {
        "potaReference": "US-2879",
        "potaName": "Rocky Point State Park",
        "geometryKind": "boundary",
        "geometryRole": "display",
        "fidelity": "web"
      },
      "geometry": {
        "type": "MultiPolygon",
        "coordinates": [
          [
            [
              [
                -71.37155745558773,
                41.689418216168434
              ],
              [
                -71.37122361189145,
                41.6894707559037
              ],
              [
                -71.37129908440188,
                41.68989247763156
              ],
              [
                -71.37213404326795,
                41.689789940123994
              ],
              [
                -71.37204599800775,
                41.689359501149795
              ],
              [
                -71.37155745558773,
                41.689418216168434
              ]
            ]
          ],
          [
            [
              [
                -71.37418967523962,
                41.68786274769137
              ],
              [
                -71.37301900305536,
                41.68799733915827
              ],
              [
                -71.37278667550427,
                41.68687501067625
              ],
              [
                -71.37260387341354,
                41.686825210893424
              ],
              [
                -71.37246421233117,
                41.68673226116371
              ],
              [
                -71.37202036460337,
                41.68610011566603
              ],
              [
                -71.37171474258541,
                41.68597810370282
              ],
              [
                -71.37136818297402,
                41.68596112179816
              ],
              [
                -71.3713447400836,
                41.68589823412328
              ],
              [
                -71.3713872701459,
                41.68585540200891
              ],
              [
                -71.37154355324618,
                41.68582410195085
              ],
              [
                -71.37129146455446,
                41.68565011408515
              ],
              [
                -71.37074365833988,
                41.6860958354996
              ],
              [
                -71.36997598001248,
                41.686499540672195
              ],
              [
                -71.36978043372302,
                41.68665404007702
              ],
              [
                -71.36962625707379,
                41.686688244687254
              ],
              [
                -71.36855600235691,
                41.68715450044192
              ],
              [
                -71.367597207833,
                41.68743259021407
              ],
              [
                -71.3671324779685,
                41.687489427618935
              ],
              [
                -71.36656116405139,
                41.687634707074324
              ],
              [
                -71.3658188152649,
                41.688051255612606
              ],
              [
                -71.36530819649559,
                41.68845256060767
              ],
              [
                -71.365079460677,
                41.688590407697674
              ],
              [
                -71.36504621876736,
                41.68863976697575
              ],
              [
                -71.36517635626953,
                41.68874547803257
              ],
              [
                -71.3651936417531,
                41.68897411166092
              ],
              [
                -71.3651003354471,
                41.689332219774755
              ],
              [
                -71.36493236829986,
                41.68967852367721
              ],
              [
                -71.36480250763289,
                41.68981623964197
              ],
              [
                -71.36467049483731,
                41.6899030663313
              ],
              [
                -71.3642436280232,
                41.689967107074004
              ],
              [
                -71.36391534938397,
                41.690102702131156
              ],
              [
                -71.36386544691476,
                41.69019290419848
              ],
              [
                -71.36382364946637,
                41.69048154274277
              ],
              [
                -71.36379396137275,
                41.69052111803132
              ],
              [
                -71.36364406067244,
                41.690570070266084
              ],
              [
                -71.36343057734372,
                41.690834598452774
              ],
              [
                -71.36314643789466,
                41.69134315778262
              ],
              [
                -71.36306191893665,
                41.69159664815867
              ],
              [
                -71.36307326832979,
                41.691829305831035
              ],
              [
                -71.36325134994888,
                41.69199446569682
              ],
              [
                -71.3632215174796,
                41.69221000799952
              ],
              [
                -71.36325150290168,
                41.692273330015254
              ],
              [
                -71.36382947368507,
                41.69239897187389
              ],
              [
                -71.36419321001243,
                41.69228849406173
              ],
              [
                -71.36456271553566,
                41.692304120073295
              ],
              [
                -71.36481905182369,
                41.692420990623916
              ],
              [
                -71.3650502396168,
                41.692663361118065
              ],
              [
                -71.36528919776995,
                41.69285726484536
              ],
              [
                -71.36550175921832,
                41.693163453526864
              ],
              [
                -71.36551113365918,
                41.693478359195694
              ],
              [
                -71.36547978500542,
                41.69366960943874
              ],
              [
                -71.36582167141471,
                41.69397179632211
              ],
              [
                -71.36587719011928,
                41.694097788197595
              ],
              [
                -71.3659139615167,
                41.694325297184974
              ],
              [
                -71.3660479051617,
                41.69455274838046
              ],
              [
                -71.36602364904822,
                41.69496553428343
              ],
              [
                -71.3660822869721,
                41.69506341143213
              ],
              [
                -71.36670392751182,
                41.694932299787325
              ],
              [
                -71.37200596263331,
                41.69356819030091
              ],
              [
                -71.37190017088523,
                41.692738092386314
              ],
              [
                -71.3719258300488,
                41.69151137353227
              ],
              [
                -71.37184711594496,
                41.691394482011276
              ],
              [
                -71.37141172705535,
                41.69101112185721
              ],
              [
                -71.37133740716953,
                41.69087137923809
              ],
              [
                -71.3710659908796,
                41.68962318855529
              ],
              [
                -71.370857177302,
                41.6888848643378
              ],
              [
                -71.37100858325161,
                41.68886479515043
              ],
              [
                -71.37114071105573,
                41.689331989400735
              ],
              [
                -71.37366420870374,
                41.689024641861785
              ],
              [
                -71.37354959677387,
                41.68857144876057
              ],
              [
                -71.37340835081962,
                41.68845839069779
              ],
              [
                -71.37311947806673,
                41.6883933659081
              ],
              [
                -71.37303015900811,
                41.68806958115358
              ],
              [
                -71.3746456015466,
                41.68785998655793
              ],
              [
                -71.37537208397043,
                41.68780893562642
              ],
              [
                -71.37538133873863,
                41.68787493763297
              ],
              [
                -71.37562356918383,
                41.687861049046546
              ],
              [
                -71.37560177008513,
                41.68771489143373
              ],
              [
                -71.37418967523962,
                41.68786274769137
              ]
            ]
          ],
          [
            [
              [
                -71.37249363483298,
                41.692401331455336
              ],
              [
                -71.3720754365099,
                41.69246012665789
              ],
              [
                -71.37209157064484,
                41.692748553460866
              ],
              [
                -71.3727393477075,
                41.69266145501103
              ],
              [
                -71.37266885627062,
                41.69237669827753
              ],
              [
                -71.37249363483298,
                41.692401331455336
              ]
            ]
          ]
        ]
      }
    }
  ],
  "bbox": [
    -71.37562356918383,
    41.68565011408515,
    -71.36306191893665,
    41.69506341143213
  ]
}
