{
  "$schema": "https://ripota.org/schemas/web/v1/display-geojson.schema.json",
  "type": "FeatureCollection",
  "properties": {
    "schemaVersion": 1,
    "geometryRole": "display",
    "geometryKind": "boundary",
    "potaReference": "US-2878",
    "potaName": "Lincoln Woods State Park",
    "sourceName": "Rhode Island DEM State Conservation Land",
    "sourceUrl": "https://risegis.ri.gov/hosting/rest/services/RIDEM/State_Conservation_Land/MapServer/0",
    "sourceQuery": "DEM_AREA = 'Lincoln Woods State Park'",
    "sourceFeatureIds": [
      53,
      61,
      62,
      69,
      883
    ],
    "fidelity": "web",
    "detailedArtifact": "@ripota/parks/boundaries/us-2878.geojson"
  },
  "features": [
    {
      "type": "Feature",
      "properties": {
        "potaReference": "US-2878",
        "potaName": "Lincoln Woods State Park",
        "geometryKind": "boundary",
        "geometryRole": "display",
        "fidelity": "web"
      },
      "geometry": {
        "type": "Polygon",
        "coordinates": [
          [
            [
              -71.43729180217824,
              41.88581672100037
            ],
            [
              -71.43699887047318,
              41.88531141058617
            ],
            [
              -71.43533297421338,
              41.885503201259446
            ],
            [
              -71.43520753829578,
              41.88500237855296
            ],
            [
              -71.4349981090487,
              41.88501269233907
            ],
            [
              -71.4347071415066,
              41.88449293312207
            ],
            [
              -71.4316385991481,
              41.88426910633431
            ],
            [
              -71.42937078456579,
              41.88513592535418
            ],
            [
              -71.42922414180312,
              41.88508802213677
            ],
            [
              -71.42948318584557,
              41.88602126483842
            ],
            [
              -71.4294311272396,
              41.88639195730255
            ],
            [
              -71.42974933529105,
              41.88691380362946
            ],
            [
              -71.42843590509783,
              41.88710874426226
            ],
            [
              -71.4279678598172,
              41.8854195700892
            ],
            [
              -71.42697231820962,
              41.88634068141228
            ],
            [
              -71.42706712336057,
              41.88647638088823
            ],
            [
              -71.42710808045491,
              41.88665626943143
            ],
            [
              -71.42705766863337,
              41.88680705531308
            ],
            [
              -71.42695913436519,
              41.88693123553242
            ],
            [
              -71.42537437631715,
              41.88798269430918
            ],
            [
              -71.42563517697418,
              41.88919361432972
            ],
            [
              -71.4247288841284,
              41.889310626773366
            ],
            [
              -71.42492819818466,
              41.89013597861497
            ],
            [
              -71.42566425117802,
              41.8922785704912
            ],
            [
              -71.42560001144129,
              41.89240259965382
            ],
            [
              -71.42589109869982,
              41.89313615993161
            ],
            [
              -71.4261504231333,
              41.89409439854574
            ],
            [
              -71.42616856638065,
              41.894541589149014
            ],
            [
              -71.42595688852046,
              41.89479708232555
            ],
            [
              -71.42593709924847,
              41.89489871578324
            ],
            [
              -71.42460253518333,
              41.89519079182989
            ],
            [
              -71.42217061357744,
              41.89578208631022
            ],
            [
              -71.42205674784101,
              41.89556880226304
            ],
            [
              -71.42119373186233,
              41.895798836978045
            ],
            [
              -71.42123491012283,
              41.896113777659245
            ],
            [
              -71.41916820696488,
              41.89681971621277
            ],
            [
              -71.41908808902603,
              41.896419701472105
            ],
            [
              -71.41882927052492,
              41.896247574990184
            ],
            [
              -71.41845346768038,
              41.895820145167946
            ],
            [
              -71.41775548987805,
              41.896186034345305
            ],
            [
              -71.41848313796262,
              41.89705594273294
            ],
            [
              -71.41858885300152,
              41.89714496206549
            ],
            [
              -71.41870049593982,
              41.89744878943831
            ],
            [
              -71.41877625666882,
              41.89771734706235
            ],
            [
              -71.4188264428266,
              41.89814856596106
            ],
            [
              -71.41879952702291,
              41.898374345649074
            ],
            [
              -71.41866143973769,
              41.898647381389765
            ],
            [
              -71.41862857708551,
              41.898855231272854
            ],
            [
              -71.41918413844012,
              41.899401890435826
            ],
            [
              -71.41955420910115,
              41.90004249414287
            ],
            [
              -71.42024273328319,
              41.900937586077404
            ],
            [
              -71.42049654821878,
              41.9011123617397
            ],
            [
              -71.42116975204586,
              41.901323357563484
            ],
            [
              -71.42159472038544,
              41.90140443039483
            ],
            [
              -71.4218639310559,
              41.90156986722976
            ],
            [
              -71.42183285096937,
              41.90164256734806
            ],
            [
              -71.42159802713496,
              41.90161144950558
            ],
            [
              -71.42154564848396,
              41.90163962820396
            ],
            [
              -71.4215514151054,
              41.901711496299434
            ],
            [
              -71.42181964262896,
              41.901931042249856
            ],
            [
              -71.42195638248913,
              41.90209921832401
            ],
            [
              -71.42212389241433,
              41.90216776414026
            ],
            [
              -71.42226872194998,
              41.90229075337791
            ],
            [
              -71.4222477051395,
              41.90253025959744
            ],
            [
              -71.42203487290199,
              41.90254298818616
            ],
            [
              -71.42189692404223,
              41.90273601650728
            ],
            [
              -71.42206344178176,
              41.902800206845384
            ],
            [
              -71.42185627095525,
              41.90316541805414
            ],
            [
              -71.42226622157779,
              41.90331892570493
            ],
            [
              -71.42224568989946,
              41.903409590982996
            ],
            [
              -71.42237983990235,
              41.90347574865901
            ],
            [
              -71.42224906774054,
              41.90375155111782
            ],
            [
              -71.42238545614128,
              41.903803068275124
            ],
            [
              -71.42257757994244,
              41.90379754570628
            ],
            [
              -71.4227334545672,
              41.9035707960992
            ],
            [
              -71.4228887148689,
              41.90322366667835
            ],
            [
              -71.42290822257655,
              41.90304567603291
            ],
            [
              -71.42249313616375,
              41.90256594072453
            ],
            [
              -71.42247318704011,
              41.90246739000898
            ],
            [
              -71.42252006340654,
              41.90226259171789
            ],
            [
              -71.42265783932373,
              41.90231434448622
            ],
            [
              -71.42321404593184,
              41.90237610116503
            ],
            [
              -71.42374192441743,
              41.90249014627413
            ],
            [
              -71.42411679181973,
              41.90272606432632
            ],
            [
              -71.42432232243512,
              41.90289989113555
            ],
            [
              -71.42483251189452,
              41.90334774477995
            ],
            [
              -71.42493125313999,
              41.903501020785896
            ],
            [
              -71.4249833808706,
              41.90351632440182
            ],
            [
              -71.42527898653088,
              41.903342037265965
            ],
            [
              -71.42606275733479,
              41.903906442107576
            ],
            [
              -71.42699402506577,
              41.90344808431883
            ],
            [
              -71.42878653204508,
              41.904770096277474
            ],
            [
              -71.43023767360559,
              41.90412450698049
            ],
            [
              -71.4313333391299,
              41.90521805386885
            ],
            [
              -71.4328358123552,
              41.90461530724279
            ],
            [
              -71.43318670686904,
              41.90473012358513
            ],
            [
              -71.43323743351502,
              41.90484838945942
            ],
            [
              -71.43294553275032,
              41.90503892849927
            ],
            [
              -71.43307275715063,
              41.90531673023568
            ],
            [
              -71.43288131182118,
              41.9056214728672
            ],
            [
              -71.43290386255181,
              41.90570099933185
            ],
            [
              -71.43264872906784,
              41.906138475552595
            ],
            [
              -71.43262841135964,
              41.90630468830748
            ],
            [
              -71.43235583695345,
              41.906324683695885
            ],
            [
              -71.43236278122293,
              41.90636833473761
            ],
            [
              -71.43230782909048,
              41.906395321171615
            ],
            [
              -71.43231219169647,
              41.90665009556236
            ],
            [
              -71.43289846667848,
              41.90667142624487
            ],
            [
              -71.43333417924694,
              41.906772352764264
            ],
            [
              -71.43363340053506,
              41.90688749602158
            ],
            [
              -71.43439905910812,
              41.9073079798466
            ],
            [
              -71.43493392239967,
              41.90748483822627
            ],
            [
              -71.43532228759227,
              41.90753127318663
            ],
            [
              -71.43564273238111,
              41.907520145110325
            ],
            [
              -71.43612333115662,
              41.90742435847124
            ],
            [
              -71.43666514459059,
              41.90717345657299
            ],
            [
              -71.43790033774384,
              41.906945393202456
            ],
            [
              -71.438395876956,
              41.90672849674385
            ],
            [
              -71.439443791443,
              41.90608784662688
            ],
            [
              -71.43999007800976,
              41.90565208788436
            ],
            [
              -71.4403255230583,
              41.905104383902895
            ],
            [
              -71.44070224495844,
              41.90462339105121
            ],
            [
              -71.4412065231415,
              41.90412816869953
            ],
            [
              -71.4415256142912,
              41.90389011940156
            ],
            [
              -71.44209349104133,
              41.903575967799625
            ],
            [
              -71.44287577345904,
              41.90329696276695
            ],
            [
              -71.44059991410849,
              41.900995654961235
            ],
            [
              -71.44174312058684,
              41.89736728772139
            ],
            [
              -71.44491941556252,
              41.89738808964911
            ],
            [
              -71.44466316087608,
              41.896852504216874
            ],
            [
              -71.44208945307639,
              41.896596402675094
            ],
            [
              -71.4415797151651,
              41.896369054637866
            ],
            [
              -71.44049664653673,
              41.89711209430069
            ],
            [
              -71.43994491977452,
              41.89732499948267
            ],
            [
              -71.43950742341995,
              41.89738865717381
            ],
            [
              -71.438879947022,
              41.89734570159668
            ],
            [
              -71.43828112693073,
              41.89711092501677
            ],
            [
              -71.43753500081652,
              41.89651610943982
            ],
            [
              -71.437356801153,
              41.89661945382196
            ],
            [
              -71.43766530397606,
              41.8964377760287
            ],
            [
              -71.43814923513035,
              41.89684178729779
            ],
            [
              -71.43969773007433,
              41.896776878738244
            ],
            [
              -71.44070106272042,
              41.896773606300094
            ],
            [
              -71.44109345538308,
              41.896530831179305
            ],
            [
              -71.44161062612459,
              41.89332157349669
            ],
            [
              -71.44047530684057,
              41.89189267788822
            ],
            [
              -71.43984810391835,
              41.89096494885456
            ],
            [
              -71.43947376868722,
              41.89019330667569
            ],
            [
              -71.43918387306829,
              41.88967964335556
            ],
            [
              -71.43887430671387,
              41.88892247191868
            ],
            [
              -71.43843650018077,
              41.88767856926056
            ],
            [
              -71.4379007079317,
              41.886740317909585
            ],
            [
              -71.4375462919285,
              41.88634021800205
            ],
            [
              -71.43729180217824,
              41.88581672100037
            ]
          ],
          [
            [
              -71.43360123247714,
              41.89655732978748
            ],
            [
              -71.43357020927388,
              41.8968101222889
            ],
            [
              -71.43348389304545,
              41.89692001053725
            ],
            [
              -71.43337252418944,
              41.896841308590155
            ],
            [
              -71.43343261618276,
              41.896560832589095
            ],
            [
              -71.43352175910874,
              41.896270770458386
            ],
            [
              -71.43384303142516,
              41.89582270847922
            ],
            [
              -71.43388261562532,
              41.89561468423054
            ],
            [
              -71.43386443520569,
              41.89543492854276
            ],
            [
              -71.43371292535184,
              41.895212987592615
            ],
            [
              -71.43313058564378,
              41.89483815464556
            ],
            [
              -71.4324564215557,
              41.89458220449565
            ],
            [
              -71.43216145829453,
              41.894570454211596
            ],
            [
              -71.43182079688509,
              41.894784816139236
            ],
            [
              -71.43165073407147,
              41.894752382444885
            ],
            [
              -71.43155028844997,
              41.894547450998225
            ],
            [
              -71.4314227930421,
              41.894424055995664
            ],
            [
              -71.43138936052634,
              41.894235629607316
            ],
            [
              -71.43204692329431,
              41.89401451084769
            ],
            [
              -71.43216896429131,
              41.89387685877757
            ],
            [
              -71.43235227486149,
              41.89386393283846
            ],
            [
              -71.43247628303067,
              41.89381632529627
            ],
            [
              -71.43251685570402,
              41.89365332657892
            ],
            [
              -71.43258836896472,
              41.89353476644034
            ],
            [
              -71.43281456000348,
              41.893457889346216
            ],
            [
              -71.43307846378563,
              41.89342528495844
            ],
            [
              -71.43319337162798,
              41.89329680198105
            ],
            [
              -71.43330610778224,
              41.89305117581033
            ],
            [
              -71.43321193555637,
              41.89277404120358
            ],
            [
              -71.43307553770528,
              41.89259679053308
            ],
            [
              -71.4327775586204,
              41.89240494903051
            ],
            [
              -71.43234918113278,
              41.892333005177186
            ],
            [
              -71.43187814144042,
              41.8926671774135
            ],
            [
              -71.43184928310538,
              41.893037115422786
            ],
            [
              -71.4319709978234,
              41.89320561034171
            ],
            [
              -71.43176000951328,
              41.89334518472219
            ],
            [
              -71.43129941432215,
              41.89345399217857
            ],
            [
              -71.43052561992914,
              41.89374955845431
            ],
            [
              -71.43010009564367,
              41.893794579591756
            ],
            [
              -71.42985583227562,
              41.89370970250435
            ],
            [
              -71.42990451799135,
              41.89358264089226
            ],
            [
              -71.43008414355144,
              41.89337170426608
            ],
            [
              -71.43024336569064,
              41.893242222133395
            ],
            [
              -71.43028427850851,
              41.893088228586784
            ],
            [
              -71.43003954383961,
              41.89301235938627
            ],
            [
              -71.42979382702545,
              41.89320670122258
            ],
            [
              -71.42962177812309,
              41.893417471881804
            ],
            [
              -71.42924644641634,
              41.89343447715899
            ],
            [
              -71.42880554592611,
              41.893785979418304
            ],
            [
              -71.42836135991243,
              41.8939935774445
            ],
            [
              -71.42811510225587,
              41.89415190126117
            ],
            [
              -71.42771088314855,
              41.89453866649859
            ],
            [
              -71.42713854656384,
              41.89458675960923
            ],
            [
              -71.42697174232842,
              41.89471640184595
            ],
            [
              -71.42662150855314,
              41.89485887711212
            ],
            [
              -71.42645104613423,
              41.89477249676583
            ],
            [
              -71.42626260500934,
              41.89455129658985
            ],
            [
              -71.42647118131684,
              41.89433069219735
            ],
            [
              -71.426512749358,
              41.894212805433334
            ],
            [
              -71.42652297407184,
              41.89400545092648
            ],
            [
              -71.42637632520886,
              41.89367528201544
            ],
            [
              -71.42637779179593,
              41.89339605942734
            ],
            [
              -71.42648702997911,
              41.89232202599903
            ],
            [
              -71.42663959089171,
              41.891895572784705
            ],
            [
              -71.4268182375776,
              41.89163961871455
            ],
            [
              -71.42713591147482,
              41.89135373386508
            ],
            [
              -71.42725017923232,
              41.89118915407647
            ],
            [
              -71.4274463353565,
              41.891076938669435
            ],
            [
              -71.42767420101003,
              41.89072993969093
            ],
            [
              -71.42795670697227,
              41.8901745878641
            ],
            [
              -71.42785826711011,
              41.890041516788514
            ],
            [
              -71.42735691729814,
              41.88997113532056
            ],
            [
              -71.42720135182303,
              41.88992035726573
            ],
            [
              -71.42726625883705,
              41.88986491288087
            ],
            [
              -71.42756676956306,
              41.889822566735546
            ],
            [
              -71.42767379594221,
              41.889667243603974
            ],
            [
              -71.42781809047995,
              41.8895380983731
            ],
            [
              -71.42807914516116,
              41.88937043800845
            ],
            [
              -71.4283301198465,
              41.8893921199846
            ],
            [
              -71.42844621472882,
              41.88933567868343
            ],
            [
              -71.42882944032336,
              41.889012358131986
            ],
            [
              -71.42894685151585,
              41.88900985588897
            ],
            [
              -71.42917633528292,
              41.8887438097531
            ],
            [
              -71.42937334909848,
              41.88867661342363
            ],
            [
              -71.4295140347288,
              41.888691619218456
            ],
            [
              -71.42990934102087,
              41.88896242374176
            ],
            [
              -71.43008640291669,
              41.888985688145866
            ],
            [
              -71.43062186241688,
              41.88892032120508
            ],
            [
              -71.43073017936638,
              41.88883694672993
            ],
            [
              -71.43076880347564,
              41.88856597976809
            ],
            [
              -71.43023193947747,
              41.88823514921801
            ],
            [
              -71.43000883419943,
              41.888131762742375
            ],
            [
              -71.42975089288387,
              41.888083235034756
            ],
            [
              -71.42953839593368,
              41.88814176314862
            ],
            [
              -71.42951316670229,
              41.88833144445926
            ],
            [
              -71.42944180767459,
              41.88841398159087
            ],
            [
              -71.42897532758387,
              41.888270736985845
            ],
            [
              -71.42862920418831,
              41.888260061479116
            ],
            [
              -71.42807988260964,
              41.88871294210229
            ],
            [
              -71.42786818813019,
              41.88877146672087
            ],
            [
              -71.4277494646235,
              41.88871993824819
            ],
            [
              -71.42774433158631,
              41.88848590600226
            ],
            [
              -71.42787262779618,
              41.888294061545444
            ],
            [
              -71.42806647640722,
              41.88808288201727
            ],
            [
              -71.4283129587109,
              41.88790654807494
            ],
            [
              -71.42860588798891,
              41.88786427909295
            ],
            [
              -71.4289093874018,
              41.887605656727835
            ],
            [
              -71.42917800409928,
              41.88743790845474
            ],
            [
              -71.43036996722488,
              41.88710641824915
            ],
            [
              -71.43056103237163,
              41.88712042512136
            ],
            [
              -71.43071079395452,
              41.887234315482544
            ],
            [
              -71.43077643271096,
              41.88755714226069
            ],
            [
              -71.43095327301948,
              41.88757139829931
            ],
            [
              -71.43100326981373,
              41.887498278340246
            ],
            [
              -71.43086845892782,
              41.88704188753099
            ],
            [
              -71.43088051968202,
              41.886924495356844
            ],
            [
              -71.43098916411739,
              41.886850208736355
            ],
            [
              -71.43121852498595,
              41.88689931437864
            ],
            [
              -71.43176985402431,
              41.88689664064215
            ],
            [
              -71.43189418417312,
              41.88685803716036
            ],
            [
              -71.4321983142617,
              41.88663541963251
            ],
            [
              -71.43242382778153,
              41.88652252690712
            ],
            [
              -71.43263093041008,
              41.88656321115081
            ],
            [
              -71.43259527560438,
              41.88663599722332
            ],
            [
              -71.43228896102706,
              41.886759563803786
            ],
            [
              -71.43224655323115,
              41.88681451114598
            ],
            [
              -71.43235902666471,
              41.88692022577214
            ],
            [
              -71.43233871972319,
              41.887019692175194
            ],
            [
              -71.4321614279739,
              41.88732968284631
            ],
            [
              -71.43212381448541,
              41.887627667133366
            ],
            [
              -71.43224933012597,
              41.88766101383861
            ],
            [
              -71.43258801024308,
              41.88765383943124
            ],
            [
              -71.43275244220207,
              41.88746124091539
            ],
            [
              -71.43283742272982,
              41.887297323450895
            ],
            [
              -71.43309648629001,
              41.88703968947306
            ],
            [
              -71.43322061762119,
              41.88697398810791
            ],
            [
              -71.43341925586014,
              41.88698773533336
            ],
            [
              -71.43356112671503,
              41.887074862299215
            ],
            [
              -71.43363203623372,
              41.88731648254287
            ],
            [
              -71.43388407734764,
              41.88774343742698
            ],
            [
              -71.43403995974477,
              41.887821135497866
            ],
            [
              -71.43423183389336,
              41.887835140327525
            ],
            [
              -71.4342985751262,
              41.88788774608923
            ],
            [
              -71.43424989763692,
              41.888014807896546
            ],
            [
              -71.43404105304168,
              41.88820841301716
            ],
            [
              -71.43388373123214,
              41.88840984878167
            ],
            [
              -71.43374306527134,
              41.888710088919154
            ],
            [
              -71.43376870199052,
              41.88888967987531
            ],
            [
              -71.43399990940446,
              41.889046831380675
            ],
            [
              -71.43455445377175,
              41.88917012475983
            ],
            [
              -71.43511404742537,
              41.8891852770135
            ],
            [
              -71.43536257748856,
              41.88912598909689
            ],
            [
              -71.43586240194746,
              41.889115378029
            ],
            [
              -71.43603048018615,
              41.88905775703613
            ],
            [
              -71.43610873680589,
              41.88895703659709
            ],
            [
              -71.43624131392006,
              41.88893618571227
            ],
            [
              -71.43653052402595,
              41.8890561473797
            ],
            [
              -71.43692927830797,
              41.88911974126412
            ],
            [
              -71.43772038927611,
              41.88898587981551
            ],
            [
              -71.43801397049602,
              41.88897960578836
            ],
            [
              -71.43817021531352,
              41.88904838156748
            ],
            [
              -71.43825498138135,
              41.88921762252999
            ],
            [
              -71.43824345278259,
              41.88938904540287
            ],
            [
              -71.43806368098248,
              41.88955497298127
            ],
            [
              -71.43774234155006,
              41.889660879672476
            ],
            [
              -71.43637186614058,
              41.890608596926036
            ],
            [
              -71.4363155465253,
              41.89069080630361
            ],
            [
              -71.43633328475666,
              41.89086155821382
            ],
            [
              -71.43641683666327,
              41.890976861071735
            ],
            [
              -71.43643557748759,
              41.8911746251946
            ],
            [
              -71.43635731987497,
              41.891275345816474
            ],
            [
              -71.4359022104642,
              41.8913119693029
            ],
            [
              -71.43576436813005,
              41.89143203673649
            ],
            [
              -71.43573169605551,
              41.89162179707351
            ],
            [
              -71.4359058146987,
              41.891843315961204
            ],
            [
              -71.43589407628546,
              41.891987639391715
            ],
            [
              -71.43582327451672,
              41.89208819093343
            ],
            [
              -71.43560483815263,
              41.8922279384067
            ],
            [
              -71.43548316255868,
              41.89235658928207
            ],
            [
              -71.43548401852375,
              41.892419621808806
            ],
            [
              -71.4355829255901,
              41.89256160521795
            ],
            [
              -71.43581317983156,
              41.89265580862932
            ],
            [
              -71.43597040465599,
              41.89278753261576
            ],
            [
              -71.43595210084287,
              41.892959036004115
            ],
            [
              -71.43528598734231,
              41.89382874685691
            ],
            [
              -71.43516198234751,
              41.89387644566736
            ],
            [
              -71.43499303760196,
              41.89387103101849
            ],
            [
              -71.43476925121831,
              41.893731635843146
            ],
            [
              -71.43453288967214,
              41.8936556081182
            ],
            [
              -71.43431127940885,
              41.89363326955964
            ],
            [
              -71.4342622656956,
              41.89375141599432
            ],
            [
              -71.43440863724784,
              41.8940544756785
            ],
            [
              -71.43455281807944,
              41.894258573363096
            ],
            [
              -71.43525923745548,
              41.894630814080664
            ],
            [
              -71.43533620714322,
              41.894791309544225
            ],
            [
              -71.4359516675086,
              41.89534564022348
            ],
            [
              -71.43583697212723,
              41.895834388948394
            ],
            [
              -71.43536634678587,
              41.89586242327652
            ],
            [
              -71.43514026728985,
              41.8959392180948
            ],
            [
              -71.43436112476162,
              41.895955756518255
            ],
            [
              -71.43421681045373,
              41.89610291728625
            ],
            [
              -71.43406045620077,
              41.89634937809736
            ],
            [
              -71.43387680350781,
              41.896353303274026
            ],
            [
              -71.43360123247714,
              41.89655732978748
            ]
          ],
          [
            [
              -71.42285370394382,
              41.89940841429843
            ],
            [
              -71.42267571791187,
              41.90007659726322
            ],
            [
              -71.42197569039676,
              41.89997454429053
            ],
            [
              -71.42210028564095,
              41.89956703688836
            ],
            [
              -71.42239372695681,
              41.89933737010858
            ],
            [
              -71.42285370394382,
              41.89940841429843
            ]
          ]
        ]
      }
    }
  ],
  "bbox": [
    -71.44491941556252,
    41.88426910633431,
    -71.41775548987805,
    41.90753127318663
  ]
}
