{
  "$schema": "https://ripota.org/schemas/web/v1/display-geojson.schema.json",
  "type": "FeatureCollection",
  "properties": {
    "schemaVersion": 1,
    "geometryRole": "display",
    "geometryKind": "boundary",
    "potaReference": "US-2874",
    "potaName": "Fort Adams State Park",
    "sourceName": "Rhode Island DEM State Conservation Land",
    "sourceUrl": "https://risegis.ri.gov/hosting/rest/services/RIDEM/State_Conservation_Land/MapServer/0",
    "sourceQuery": "DEM_AREA = 'Fort Adams State Park'",
    "sourceFeatureIds": [
      223,
      483,
      484,
      485,
      486,
      487,
      690,
      691
    ],
    "fidelity": "web",
    "detailedArtifact": "@ripota/parks/boundaries/us-2874.geojson"
  },
  "features": [
    {
      "type": "Feature",
      "properties": {
        "potaReference": "US-2874",
        "potaName": "Fort Adams State Park",
        "geometryKind": "boundary",
        "geometryRole": "display",
        "fidelity": "web"
      },
      "geometry": {
        "type": "Polygon",
        "coordinates": [
          [
            [
              -71.3417969016738,
              41.47057339927789
            ],
            [
              -71.34017425477293,
              41.470104516547046
            ],
            [
              -71.3373462485753,
              41.46955102429059
            ],
            [
              -71.33758267583582,
              41.46983163517885
            ],
            [
              -71.33748570150344,
              41.47005163224005
            ],
            [
              -71.33716623310198,
              41.47036506542095
            ],
            [
              -71.33680942469474,
              41.47043875055053
            ],
            [
              -71.33675600910713,
              41.47055852185191
            ],
            [
              -71.33653557811544,
              41.47071229793998
            ],
            [
              -71.33642827308448,
              41.471140170700025
            ],
            [
              -71.33637723697136,
              41.47172189912675
            ],
            [
              -71.33639997920864,
              41.47180139852702
            ],
            [
              -71.33672186382273,
              41.47207082902525
            ],
            [
              -71.33741140926593,
              41.47245417457905
            ],
            [
              -71.33765332648987,
              41.47281405739564
            ],
            [
              -71.33765260030805,
              41.47310511256837
            ],
            [
              -71.33751492412227,
              41.473388546107145
            ],
            [
              -71.33739376568383,
              41.47344146037263
            ],
            [
              -71.33662530642339,
              41.474262178774595
            ],
            [
              -71.33617796257118,
              41.47411886784415
            ],
            [
              -71.33611702806938,
              41.474210092758824
            ],
            [
              -71.33655755607687,
              41.474384187732035
            ],
            [
              -71.33649442823877,
              41.47500961014717
            ],
            [
              -71.3361218416672,
              41.47531155033099
            ],
            [
              -71.33531629744692,
              41.4757783735371
            ],
            [
              -71.33530210964588,
              41.475864740651744
            ],
            [
              -71.33511982092656,
              41.47605262049007
            ],
            [
              -71.33509295028057,
              41.47630536944662
            ],
            [
              -71.33529651772764,
              41.47883598341048
            ],
            [
              -71.33514906103339,
              41.478888446118674
            ],
            [
              -71.3353524543248,
              41.47948226527353
            ],
            [
              -71.33578477042812,
              41.47957990157996
            ],
            [
              -71.33603165719687,
              41.48034823640514
            ],
            [
              -71.3361706562203,
              41.48046887380096
            ],
            [
              -71.3363446974056,
              41.480488143261326
            ],
            [
              -71.33656608191657,
              41.480613499271406
            ],
            [
              -71.33664473378649,
              41.48099326911312
            ],
            [
              -71.33669154643927,
              41.48158514796895
            ],
            [
              -71.3366782321912,
              41.48179353050948
            ],
            [
              -71.33735611535707,
              41.481800903602284
            ],
            [
              -71.33776290090756,
              41.48109932607633
            ],
            [
              -71.33829211235856,
              41.48088205088972
            ],
            [
              -71.33844613825448,
              41.48066424783463
            ],
            [
              -71.33861814014712,
              41.48007455321032
            ],
            [
              -71.33888035514025,
              41.479425678429735
            ],
            [
              -71.33926066093917,
              41.47885710580483
            ],
            [
              -71.33973478966875,
              41.47849226328822
            ],
            [
              -71.34057678831763,
              41.47762455946972
            ],
            [
              -71.34119610145738,
              41.47715731386325
            ],
            [
              -71.3413036990351,
              41.4767406600121
            ],
            [
              -71.34150915166046,
              41.47640429399027
            ],
            [
              -71.34210316235028,
              41.475815174375896
            ],
            [
              -71.34223160830997,
              41.47558771202197
            ],
            [
              -71.3424152947784,
              41.475434067503286
            ],
            [
              -71.3430001132725,
              41.475114249339654
            ],
            [
              -71.34350881497825,
              41.474534623873325
            ],
            [
              -71.34406386182592,
              41.474190149255634
            ],
            [
              -71.344756361348,
              41.47338850295172
            ],
            [
              -71.34561395556729,
              41.47307865719569
            ],
            [
              -71.34608369914721,
              41.47273301916172
            ],
            [
              -71.34648095921064,
              41.47239048878142
            ],
            [
              -71.34670329507298,
              41.47210864204881
            ],
            [
              -71.34620451542293,
              41.47191010548753
            ],
            [
              -71.3417969016738,
              41.47057339927789
            ]
          ],
          [
            [
              -71.34004729276964,
              41.47693209126646
            ],
            [
              -71.33990956168803,
              41.476860709103526
            ],
            [
              -71.3393682560722,
              41.477186377056384
            ],
            [
              -71.33866387915381,
              41.476766147982204
            ],
            [
              -71.33782431780706,
              41.47712102733761
            ],
            [
              -71.33709380477241,
              41.477140341306466
            ],
            [
              -71.336011305052,
              41.477271053951014
            ],
            [
              -71.33546499977474,
              41.47605661997203
            ],
            [
              -71.33574921599742,
              41.47574616683565
            ],
            [
              -71.33588069709393,
              41.475715802321595
            ],
            [
              -71.3364122824017,
              41.47639790045192
            ],
            [
              -71.33611643495041,
              41.476567812306435
            ],
            [
              -71.33658371129489,
              41.4766192278013
            ],
            [
              -71.33773104484646,
              41.47657010130564
            ],
            [
              -71.33838862755758,
              41.476252018290886
            ],
            [
              -71.33911650195714,
              41.475172526727064
            ],
            [
              -71.34035288209476,
              41.473167584072115
            ],
            [
              -71.3416380525547,
              41.47357069343765
            ],
            [
              -71.34189877070018,
              41.47326233374309
            ],
            [
              -71.34302139859668,
              41.47364040276507
            ],
            [
              -71.34217731781466,
              41.47470188265036
            ],
            [
              -71.34255087200691,
              41.47488991881408
            ],
            [
              -71.34208991390808,
              41.475244931946165
            ],
            [
              -71.34170997868503,
              41.47573272062907
            ],
            [
              -71.34120889962225,
              41.475614729349154
            ],
            [
              -71.34112542293653,
              41.475763070200905
            ],
            [
              -71.34021877283975,
              41.47670724275716
            ],
            [
              -71.34010796259756,
              41.47694541410821
            ],
            [
              -71.34004729276964,
              41.47693209126646
            ]
          ]
        ]
      }
    }
  ],
  "bbox": [
    -71.34670329507298,
    41.46955102429059,
    -71.33509295028057,
    41.481800903602284
  ]
}
