{
  "$schema": "https://ripota.org/schemas/web/v1/display-geojson.schema.json",
  "type": "FeatureCollection",
  "properties": {
    "schemaVersion": 1,
    "geometryRole": "display",
    "geometryKind": "boundary",
    "potaReference": "US-2872",
    "potaName": "Colt State Park",
    "sourceName": "Rhode Island DEM State Conservation Land",
    "sourceUrl": "https://risegis.ri.gov/hosting/rest/services/RIDEM/State_Conservation_Land/MapServer/0",
    "sourceQuery": "DEM_AREA = 'Colt State Park'",
    "sourceFeatureIds": [
      109,
      259,
      729,
      762
    ],
    "fidelity": "web",
    "detailedArtifact": "@ripota/parks/boundaries/us-2872.geojson"
  },
  "features": [
    {
      "type": "Feature",
      "properties": {
        "potaReference": "US-2872",
        "potaName": "Colt State Park",
        "geometryKind": "boundary",
        "geometryRole": "display",
        "fidelity": "web"
      },
      "geometry": {
        "type": "MultiPolygon",
        "coordinates": [
          [
            [
              [
                -71.29309015337851,
                41.672383515338716
              ],
              [
                -71.29293195707518,
                41.67238772415939
              ],
              [
                -71.29111456810121,
                41.672750108221834
              ],
              [
                -71.2910548161605,
                41.675246379057604
              ],
              [
                -71.29247984981397,
                41.67520467917662
              ],
              [
                -71.29414892018094,
                41.67503608856363
              ],
              [
                -71.29412253633683,
                41.6762661167518
              ],
              [
                -71.29422555700056,
                41.6763437225142
              ],
              [
                -71.29429079093111,
                41.67644309975336
              ],
              [
                -71.29436084485309,
                41.67626654337062
              ],
              [
                -71.29454364179175,
                41.676237092587286
              ],
              [
                -71.29495827831656,
                41.67574352316057
              ],
              [
                -71.29522054795851,
                41.675702302148125
              ],
              [
                -71.29550683664675,
                41.67560156788528
              ],
              [
                -71.29572182031849,
                41.67544115080795
              ],
              [
                -71.29612844241026,
                41.67496542963885
              ],
              [
                -71.29621050339448,
                41.67480832590737
              ],
              [
                -71.2962089271312,
                41.6746566353898
              ],
              [
                -71.29608491795157,
                41.674190782894385
              ],
              [
                -71.29620414822577,
                41.6741538841069
              ],
              [
                -71.29621875132425,
                41.67403652608579
              ],
              [
                -71.29630631514895,
                41.673977125895675
              ],
              [
                -71.29674289890573,
                41.67407318779605
              ],
              [
                -71.29671875007217,
                41.6741743890958
              ],
              [
                -71.29658354441794,
                41.67422774939075
              ],
              [
                -71.2966229050641,
                41.67434097394979
              ],
              [
                -71.2967417747474,
                41.674430517326535
              ],
              [
                -71.29679705982531,
                41.674531859982665
              ],
              [
                -71.29665338594927,
                41.67475196068107
              ],
              [
                -71.2966766530121,
                41.67493066803381
              ],
              [
                -71.29685097805876,
                41.67506795297185
              ],
              [
                -71.29698504489,
                41.67537787771907
              ],
              [
                -71.29759905889993,
                41.677159666202684
              ],
              [
                -71.2978131851929,
                41.677273197925736
              ],
              [
                -71.2980630568711,
                41.67730695422114
              ],
              [
                -71.29808167111725,
                41.67735435769129
              ],
              [
                -71.29830037852004,
                41.677465841024144
              ],
              [
                -71.29841360882371,
                41.67783766513893
              ],
              [
                -71.29854662995078,
                41.67797725824919
              ],
              [
                -71.29892239998522,
                41.67822447507762
              ],
              [
                -71.29909869797646,
                41.67824265016177
              ],
              [
                -71.2992223337653,
                41.67833577278565
              ],
              [
                -71.29952523752316,
                41.679025951958764
              ],
              [
                -71.29959970348908,
                41.679604959732764
              ],
              [
                -71.2997985198898,
                41.6800483977794
              ],
              [
                -71.29945386079389,
                41.68052304756413
              ],
              [
                -71.29948661573452,
                41.68071963750877
              ],
              [
                -71.29972353369149,
                41.68117386177338
              ],
              [
                -71.29972779087045,
                41.681338241943045
              ],
              [
                -71.29955587286642,
                41.68144156848635
              ],
              [
                -71.29932707886495,
                41.681441169243236
              ],
              [
                -71.29918864889265,
                41.68150524750689
              ],
              [
                -71.29915027207332,
                41.681583793734546
              ],
              [
                -71.29917359407598,
                41.681748206326624
              ],
              [
                -71.29933063566465,
                41.68183066743965
              ],
              [
                -71.29998120829171,
                41.68168563134549
              ],
              [
                -71.30037082804624,
                41.6819946331053
              ],
              [
                -71.3008099017921,
                41.68213895756687
              ],
              [
                -71.30124092375466,
                41.68207628318139
              ],
              [
                -71.30146044236284,
                41.6820808663821
              ],
              [
                -71.30165819782717,
                41.68213094560002
              ],
              [
                -71.3021841212922,
                41.68212040568837
              ],
              [
                -71.30292224385336,
                41.681889437126785
              ],
              [
                -71.3030679810343,
                41.681742437271076
              ],
              [
                -71.30348254156344,
                41.68054525683224
              ],
              [
                -71.30365739355385,
                41.68022652951055
              ],
              [
                -71.30374410007094,
                41.679963608926386
              ],
              [
                -71.3037620546004,
                41.67940038567475
              ],
              [
                -71.30386316459143,
                41.67829045938307
              ],
              [
                -71.30393725707819,
                41.678030463021955
              ],
              [
                -71.30452671635183,
                41.67681366202163
              ],
              [
                -71.30478243300252,
                41.67608613277706
              ],
              [
                -71.30522278489384,
                41.67537903991643
              ],
              [
                -71.30539504221946,
                41.67496531157729
              ],
              [
                -71.30573359797008,
                41.67374786523781
              ],
              [
                -71.30615203518751,
                41.67321168161924
              ],
              [
                -71.30661665214798,
                41.672718311670266
              ],
              [
                -71.30628681488416,
                41.672223603595576
              ],
              [
                -71.30618796023931,
                41.671924274138654
              ],
              [
                -71.3061920599323,
                41.67174531763494
              ],
              [
                -71.30612931586998,
                41.671595209485154
              ],
              [
                -71.30612770675846,
                41.67132065176256
              ],
              [
                -71.30605464633655,
                41.671065908430506
              ],
              [
                -71.30592262864691,
                41.6707778546977
              ],
              [
                -71.3057991413893,
                41.670107885492214
              ],
              [
                -71.30560076842254,
                41.66979204293249
              ],
              [
                -71.30554234353546,
                41.66958160564728
              ],
              [
                -71.30566228999636,
                41.66897293484688
              ],
              [
                -71.30546925933253,
                41.66737043507631
              ],
              [
                -71.2984648004582,
                41.66819373990162
              ],
              [
                -71.29854113751959,
                41.67053748611888
              ],
              [
                -71.29606082383012,
                41.67081709472421
              ],
              [
                -71.29610102540919,
                41.6710308718027
              ],
              [
                -71.2943301393225,
                41.671401635736764
              ],
              [
                -71.29438332672943,
                41.67167110879012
              ],
              [
                -71.29428077282385,
                41.67176788270121
              ],
              [
                -71.29312833748756,
                41.67201767647484
              ],
              [
                -71.29309015337851,
                41.672383515338716
              ]
            ]
          ],
          [
            [
              [
                -71.27967518332133,
                41.68822357405462
              ],
              [
                -71.27965969570613,
                41.68799615649601
              ],
              [
                -71.27919492229066,
                41.688054629788475
              ],
              [
                -71.27920325015886,
                41.68830747514023
              ],
              [
                -71.27967518332133,
                41.68822357405462
              ]
            ]
          ],
          [
            [
              [
                -71.28316900355493,
                41.686928144058434
              ],
              [
                -71.27910007121645,
                41.68740679019857
              ],
              [
                -71.27911863829408,
                41.687939536869116
              ],
              [
                -71.2791996518571,
                41.68798839664444
              ],
              [
                -71.28632163279364,
                41.687135632196316
              ],
              [
                -71.28485299171918,
                41.685834990615206
              ],
              [
                -71.28382622382273,
                41.684841272148184
              ],
              [
                -71.28258627472974,
                41.685173777554844
              ],
              [
                -71.28284394802319,
                41.68584385328561
              ],
              [
                -71.28314648659796,
                41.686382841248964
              ],
              [
                -71.28316900355493,
                41.686928144058434
              ]
            ]
          ],
          [
            [
              [
                -71.28634742609968,
                41.68428550002873
              ],
              [
                -71.28669238873857,
                41.68426334002775
              ],
              [
                -71.28655914120506,
                41.683405630858324
              ],
              [
                -71.28621790997,
                41.68342707351509
              ],
              [
                -71.28610374515745,
                41.68267026848901
              ],
              [
                -71.28558150581738,
                41.682682513596866
              ],
              [
                -71.28524746458056,
                41.682604430027304
              ],
              [
                -71.28425566513222,
                41.68220008486382
              ],
              [
                -71.28299397569306,
                41.681353007437586
              ],
              [
                -71.28228170084344,
                41.68046568282837
              ],
              [
                -71.28197828075989,
                41.680270387312554
              ],
              [
                -71.28183992760347,
                41.68021883026932
              ],
              [
                -71.28086320009457,
                41.68002430553245
              ],
              [
                -71.28011103834262,
                41.67977113410075
              ],
              [
                -71.27962552465709,
                41.679693332206895
              ],
              [
                -71.27997847740338,
                41.68044813439494
              ],
              [
                -71.28029389255269,
                41.68099623334601
              ],
              [
                -71.28093389378724,
                41.68188331450163
              ],
              [
                -71.28429778226969,
                41.68504107220691
              ],
              [
                -71.2864375547781,
                41.684883065289746
              ],
              [
                -71.28634742609968,
                41.68428550002873
              ]
            ],
            [
              [
                -71.28197828075989,
                41.680270387312554
              ],
              [
                -71.28204301934717,
                41.680773756520594
              ],
              [
                -71.28227885915342,
                41.680866570728924
              ],
              [
                -71.28249377601537,
                41.68107480364438
              ],
              [
                -71.2830878188026,
                41.681514669850145
              ],
              [
                -71.28358948607604,
                41.68194666096579
              ],
              [
                -71.28358912502316,
                41.68205442186184
              ],
              [
                -71.28367049357301,
                41.682285492571076
              ],
              [
                -71.28384127166332,
                41.6825934863206
              ],
              [
                -71.28415528571276,
                41.682862159094554
              ],
              [
                -71.2841213085446,
                41.68344627496554
              ],
              [
                -71.28424891367585,
                41.683594560090825
              ],
              [
                -71.28452574516453,
                41.68381114633135
              ],
              [
                -71.28447734701462,
                41.68391908903566
              ],
              [
                -71.28436511083468,
                41.68396289177525
              ],
              [
                -71.28426185123217,
                41.68426165304336
              ],
              [
                -71.28420208709377,
                41.68434389238424
              ],
              [
                -71.28404236264136,
                41.68438310472514
              ],
              [
                -71.28386621483824,
                41.684305548727714
              ],
              [
                -71.28366412416754,
                41.6840483584778
              ],
              [
                -71.28336471723046,
                41.68388322468569
              ],
              [
                -71.28307807159464,
                41.683528667370275
              ],
              [
                -71.28293933446913,
                41.68345036301641
              ],
              [
                -71.28285924274044,
                41.683181741976775
              ],
              [
                -71.28264596243393,
                41.68315895674855
              ],
              [
                -71.28249224000115,
                41.68308096654804
              ],
              [
                -71.28218942796556,
                41.68267269232348
              ],
              [
                -71.2819350261742,
                41.68246158566253
              ],
              [
                -71.2818533601796,
                41.68208494361695
              ],
              [
                -71.28179846556621,
                41.681977940384975
              ],
              [
                -71.28184918202977,
                41.68179682718626
              ],
              [
                -71.28179460194005,
                41.681698829060664
              ],
              [
                -71.2816855725546,
                41.68156590961049
              ],
              [
                -71.28146030634811,
                41.681502834338154
              ],
              [
                -71.28121558555367,
                41.6812059814014
              ],
              [
                -71.28110857282043,
                41.6811540662724
              ],
              [
                -71.28099476461766,
                41.681183350719444
              ],
              [
                -71.28094615714642,
                41.68097717699939
              ],
              [
                -71.28083014432849,
                41.68088038933469
              ],
              [
                -71.28053260956001,
                41.680877294259226
              ],
              [
                -71.28013360175017,
                41.68010164969028
              ],
              [
                -71.28081337836286,
                41.68004787654185
              ],
              [
                -71.28117231809236,
                41.68017171649716
              ],
              [
                -71.28197828075989,
                41.680270387312554
              ]
            ]
          ],
          [
            [
              [
                -71.2886896492506,
                41.68695780166176
              ],
              [
                -71.29333276918508,
                41.68643652898294
              ],
              [
                -71.29450608844301,
                41.6862639619001
              ],
              [
                -71.29475731046539,
                41.68615986808655
              ],
              [
                -71.29490347494553,
                41.68606686421583
              ],
              [
                -71.29510767578896,
                41.685855617479156
              ],
              [
                -71.29585128452379,
                41.68474197850715
              ],
              [
                -71.29666809849708,
                41.68380701649768
              ],
              [
                -71.29779768908732,
                41.68274632350692
              ],
              [
                -71.29868138968524,
                41.68214755690254
              ],
              [
                -71.29901082978841,
                41.681973041046604
              ],
              [
                -71.29900636312955,
                41.681876554078116
              ],
              [
                -71.29887809987353,
                41.681736969916514
              ],
              [
                -71.29863052702433,
                41.68164362989804
              ],
              [
                -71.29815888270456,
                41.68156419020347
              ],
              [
                -71.29782557030452,
                41.68145283106688
              ],
              [
                -71.29755431388892,
                41.68131299469872
              ],
              [
                -71.29722177785986,
                41.68095507649463
              ],
              [
                -71.29713203381588,
                41.6806940661889
              ],
              [
                -71.2970371295557,
                41.68055811235968
              ],
              [
                -71.29692754584808,
                41.680543625548175
              ],
              [
                -71.29684144526182,
                41.68063995256684
              ],
              [
                -71.29685056301436,
                41.68077218142131
              ],
              [
                -71.29665990335384,
                41.68077184426687
              ],
              [
                -71.29622086638558,
                41.68093543944875
              ],
              [
                -71.29570136123141,
                41.680920223943865
              ],
              [
                -71.29559604647967,
                41.681062969133905
              ],
              [
                -71.29528907459051,
                41.68166631342748
              ],
              [
                -71.29493057222663,
                41.68198370008517
              ],
              [
                -71.29485951642587,
                41.68184421350308
              ],
              [
                -71.29496045409094,
                41.68157996819189
              ],
              [
                -71.29517110016077,
                41.6812909053979
              ],
              [
                -71.2952148715458,
                41.68101583823639
              ],
              [
                -71.29519402694288,
                41.68091879161045
              ],
              [
                -71.29468799664375,
                41.680805243610834
              ],
              [
                -71.29450575523009,
                41.68065602958323
              ],
              [
                -71.29409526012925,
                41.67983938784038
              ],
              [
                -71.29376993361072,
                41.67971969387034
              ],
              [
                -71.29353995661887,
                41.67959421440096
              ],
              [
                -71.29340540364072,
                41.67943912925938
              ],
              [
                -71.2934785747647,
                41.67891517349577
              ],
              [
                -71.29366901965922,
                41.67898102678809
              ],
              [
                -71.2938353299135,
                41.67914212449759
              ],
              [
                -71.2940574955201,
                41.67922589992363
              ],
              [
                -71.29439133204951,
                41.679166942262675
              ],
              [
                -71.29435223784328,
                41.67897034037832
              ],
              [
                -71.29419417473157,
                41.678713969250964
              ],
              [
                -71.294170817137,
                41.67856503903277
              ],
              [
                -71.29423461518714,
                41.678487731121386
              ],
              [
                -71.29468206156369,
                41.67836347549198
              ],
              [
                -71.29535674685876,
                41.67835143892858
              ],
              [
                -71.29545229122624,
                41.678295999033445
              ],
              [
                -71.29547430498302,
                41.678036527695355
              ],
              [
                -71.29485675260106,
                41.677855359156155
              ],
              [
                -71.29442950729467,
                41.67780957857621
              ],
              [
                -71.29425343285345,
                41.67764243538532
              ],
              [
                -71.29403246159525,
                41.67715479501003
              ],
              [
                -71.29428262108362,
                41.67669499935584
              ],
              [
                -71.29192318505257,
                41.67676632584305
              ],
              [
                -71.29197635021438,
                41.67717071992153
              ],
              [
                -71.29177227503503,
                41.677163928097315
              ],
              [
                -71.29179952627192,
                41.677341865661106
              ],
              [
                -71.29034916320116,
                41.67728755114911
              ],
              [
                -71.29035087359382,
                41.67799206616522
              ],
              [
                -71.29000608808381,
                41.67802214809463
              ],
              [
                -71.29008692993546,
                41.6769265656169
              ],
              [
                -71.28976816989223,
                41.67696688737236
              ],
              [
                -71.28948581954452,
                41.677073570420184
              ],
              [
                -71.28932218717854,
                41.67731446957341
              ],
              [
                -71.28980795561453,
                41.67938788468404
              ],
              [
                -71.28987407496498,
                41.67981978138135
              ],
              [
                -71.28985328423936,
                41.680105609185276
              ],
              [
                -71.28972514236776,
                41.680423995784636
              ],
              [
                -71.28939027568836,
                41.68079560303717
              ],
              [
                -71.28892027464855,
                41.68119078386036
              ],
              [
                -71.28777626311089,
                41.6818660066398
              ],
              [
                -71.28839338538025,
                41.6848096119786
              ],
              [
                -71.28770674881149,
                41.68489551419757
              ],
              [
                -71.28791012613218,
                41.68675294817791
              ],
              [
                -71.28769552586809,
                41.6867793521039
              ],
              [
                -71.2873229098099,
                41.68653746461909
              ],
              [
                -71.28695235303938,
                41.68687624317385
              ],
              [
                -71.28642939085537,
                41.68693629092499
              ],
              [
                -71.28671225921543,
                41.68716378366927
              ],
              [
                -71.2886896492506,
                41.68695780166176
              ]
            ]
          ]
        ]
      }
    }
  ],
  "bbox": [
    -71.30661665214798,
    41.66737043507631,
    -71.27910007121645,
    41.68830747514023
  ]
}
