{
  "$schema": "https://ripota.org/schemas/web/v1/display-geojson.schema.json",
  "type": "FeatureCollection",
  "properties": {
    "schemaVersion": 1,
    "geometryRole": "display",
    "geometryKind": "boundary",
    "potaReference": "US-2877",
    "potaName": "Haines Memorial State Park",
    "sourceName": "Rhode Island DEM State Conservation Land",
    "sourceUrl": "https://risegis.ri.gov/hosting/rest/services/RIDEM/State_Conservation_Land/MapServer/0",
    "sourceQuery": "DEM_AREA = 'Haines Memorial Park' OR DEM_AREA = 'Haines Memorial State Park Boat Ramp'",
    "sourceFeatureIds": [
      4252,
      13547
    ],
    "fidelity": "web",
    "detailedArtifact": "@ripota/parks/boundaries/us-2877.geojson"
  },
  "features": [
    {
      "type": "Feature",
      "properties": {
        "potaReference": "US-2877",
        "potaName": "Haines Memorial State Park",
        "geometryKind": "boundary",
        "geometryRole": "display",
        "fidelity": "web"
      },
      "geometry": {
        "type": "MultiPolygon",
        "coordinates": [
          [
            [
              [
                -71.34045073839332,
                41.75338312721011
              ],
              [
                -71.34257761180785,
                41.75371590970324
              ],
              [
                -71.34263232903963,
                41.75333206341522
              ],
              [
                -71.34048217684702,
                41.75305621299379
              ],
              [
                -71.34045073839332,
                41.75338312721011
              ]
            ]
          ],
          [
            [
              [
                -71.3495494920987,
                41.75443185153124
              ],
              [
                -71.34973404181197,
                41.75467756190641
              ],
              [
                -71.35021841172073,
                41.75479837222256
              ],
              [
                -71.35045237587484,
                41.75479252577608
              ],
              [
                -71.35072447031642,
                41.754952183111115
              ],
              [
                -71.35092859803297,
                41.7549689974665
              ],
              [
                -71.35112824450643,
                41.75489424090644
              ],
              [
                -71.35152869524961,
                41.75482556351037
              ],
              [
                -71.35169757135299,
                41.7545753184825
              ],
              [
                -71.35179658699806,
                41.75449368180042
              ],
              [
                -71.35206222404663,
                41.754348685023025
              ],
              [
                -71.3522582784396,
                41.75430527117362
              ],
              [
                -71.35274559893966,
                41.75409869274493
              ],
              [
                -71.35285337503677,
                41.75395248241706
              ],
              [
                -71.35286243456694,
                41.75373310016296
              ],
              [
                -71.35283371697508,
                41.75367157393315
              ],
              [
                -71.35243068294575,
                41.753514845270736
              ],
              [
                -71.35195094174011,
                41.75306747318188
              ],
              [
                -71.351351940952,
                41.75231688221939
              ],
              [
                -71.3512887068454,
                41.752134707120476
              ],
              [
                -71.34903417617451,
                41.751633226568636
              ],
              [
                -71.34894186394534,
                41.75314487184401
              ],
              [
                -71.34954410184149,
                41.753978748425354
              ],
              [
                -71.34932726764934,
                41.75412888047245
              ],
              [
                -71.3495494920987,
                41.75443185153124
              ]
            ]
          ],
          [
            [
              [
                -71.34867422682007,
                41.75317558268203
              ],
              [
                -71.34891415391958,
                41.7505464314615
              ],
              [
                -71.34650429612154,
                41.75020590920552
              ],
              [
                -71.34867422682007,
                41.75317558268203
              ]
            ]
          ],
          [
            [
              [
                -71.34055351942445,
                41.751401622845364
              ],
              [
                -71.34044985394057,
                41.75294643426476
              ],
              [
                -71.3477317611672,
                41.75388349703949
              ],
              [
                -71.34845429948997,
                41.75336564498718
              ],
              [
                -71.34607160897302,
                41.75014501945234
              ],
              [
                -71.34290939452099,
                41.749650248186
              ],
              [
                -71.34279088691925,
                41.75046472300911
              ],
              [
                -71.34076301517835,
                41.750169914313176
              ],
              [
                -71.34055351942445,
                41.751401622845364
              ]
            ]
          ],
          [
            [
              [
                -71.34931465459665,
                41.7545900568201
              ],
              [
                -71.34936561551491,
                41.7546116087056
              ],
              [
                -71.34854189252859,
                41.75348706023414
              ],
              [
                -71.34782672649867,
                41.75400746698086
              ],
              [
                -71.34931465459665,
                41.7545900568201
              ]
            ]
          ]
        ]
      }
    }
  ],
  "bbox": [
    -71.35286243456694,
    41.749650248186,
    -71.34044985394057,
    41.7549689974665
  ]
}
