{
  "$schema": "https://ripota.org/schemas/web/v1/display-geojson.schema.json",
  "type": "FeatureCollection",
  "properties": {
    "schemaVersion": 1,
    "geometryRole": "display",
    "geometryKind": "boundary",
    "potaReference": "US-2870",
    "potaName": "Brenton Point State Park",
    "sourceName": "Rhode Island DEM State Conservation Land",
    "sourceUrl": "https://risegis.ri.gov/hosting/rest/services/RIDEM/State_Conservation_Land/MapServer/0",
    "sourceQuery": "DEM_AREA = 'Brenton Point State Park'",
    "sourceFeatureIds": [
      876,
      879
    ],
    "fidelity": "web",
    "detailedArtifact": "@ripota/parks/boundaries/us-2870.geojson"
  },
  "features": [
    {
      "type": "Feature",
      "properties": {
        "potaReference": "US-2870",
        "potaName": "Brenton Point State Park",
        "geometryKind": "boundary",
        "geometryRole": "display",
        "fidelity": "web"
      },
      "geometry": {
        "type": "MultiPolygon",
        "coordinates": [
          [
            [
              [
                -71.34735588945347,
                41.453176254385966
              ],
              [
                -71.3466293160374,
                41.45317528803308
              ],
              [
                -71.34632644234411,
                41.453231824112954
              ],
              [
                -71.34608406297335,
                41.453311216810945
              ],
              [
                -71.34526552842792,
                41.4537884190954
              ],
              [
                -71.3446443374646,
                41.45402673114329
              ],
              [
                -71.34420437840362,
                41.45443610705061
              ],
              [
                -71.34403735071336,
                41.45465225439048
              ],
              [
                -71.34384451860154,
                41.45498597278747
              ],
              [
                -71.34544973130237,
                41.45510256661388
              ],
              [
                -71.34802978488588,
                41.45487634660635
              ],
              [
                -71.34756243057195,
                41.453153225953564
              ],
              [
                -71.34735588945347,
                41.453176254385966
              ]
            ]
          ],
          [
            [
              [
                -71.35690986902753,
                41.45385370605037
              ],
              [
                -71.35674059477675,
                41.45205909316986
              ],
              [
                -71.35661146873478,
                41.45185806338318
              ],
              [
                -71.3561805346023,
                41.45142329313729
              ],
              [
                -71.35600832716041,
                41.45117494508227
              ],
              [
                -71.35591476412833,
                41.4508735240638
              ],
              [
                -71.35589575347804,
                41.45059287401057
              ],
              [
                -71.35581793597346,
                41.4502737491633
              ],
              [
                -71.35551264191696,
                41.44984504210943
              ],
              [
                -71.35528139105209,
                41.44966751340595
              ],
              [
                -71.3551165714567,
                41.44963185816639
              ],
              [
                -71.3548888013227,
                41.449655202951135
              ],
              [
                -71.35397324951734,
                41.4499907961913
              ],
              [
                -71.35259829524938,
                41.450337609447885
              ],
              [
                -71.35237038112945,
                41.45042298200209
              ],
              [
                -71.3521422584948,
                41.45059992704582
              ],
              [
                -71.35180741998573,
                41.45108689980654
              ],
              [
                -71.35155948666144,
                41.45134062031776
              ],
              [
                -71.35230950826485,
                41.45503522134586
              ],
              [
                -71.35486692000444,
                41.4547730452141
              ],
              [
                -71.35494928891656,
                41.455209122536836
              ],
              [
                -71.35701817569755,
                41.454990320038206
              ],
              [
                -71.35690986902753,
                41.45385370605037
              ]
            ]
          ],
          [
            [
              [
                -71.35711364280934,
                41.453827529948185
              ],
              [
                -71.35728465217478,
                41.45606692134977
              ],
              [
                -71.35737073550926,
                41.45646607795736
              ],
              [
                -71.35794174320024,
                41.457801311072465
              ],
              [
                -71.35841011340538,
                41.45835794137035
              ],
              [
                -71.35850493058405,
                41.45874402315234
              ],
              [
                -71.3584787008369,
                41.45919969082982
              ],
              [
                -71.35882004859828,
                41.459122760744414
              ],
              [
                -71.35872926394136,
                41.4589285516083
              ],
              [
                -71.35874814195812,
                41.45863492199212
              ],
              [
                -71.35880292386292,
                41.45860754514003
              ],
              [
                -71.35874835036579,
                41.45853886788597
              ],
              [
                -71.35876319304168,
                41.45842362087305
              ],
              [
                -71.35872325400132,
                41.45833575069785
              ],
              [
                -71.35876015815371,
                41.458140941966164
              ],
              [
                -71.35884072171213,
                41.45800107590949
              ],
              [
                -71.35895759840709,
                41.45793809781855
              ],
              [
                -71.3589430713355,
                41.45790789148971
              ],
              [
                -71.35889923443797,
                41.457935281837074
              ],
              [
                -71.3589066734218,
                41.45786942510486
              ],
              [
                -71.35901622387821,
                41.45782015912032
              ],
              [
                -71.35901631302386,
                41.457778993068686
              ],
              [
                -71.35894695729478,
                41.4577981189261
              ],
              [
                -71.35891052375501,
                41.45777611896251
              ],
              [
                -71.35893623892241,
                41.45769381817511
              ],
              [
                -71.3590017621857,
                41.457759764360276
              ],
              [
                -71.35908932276206,
                41.457757127234466
              ],
              [
                -71.35921684043397,
                41.45783412685868
              ],
              [
                -71.35930077078135,
                41.457823251897175
              ],
              [
                -71.3593337935514,
                41.45773547113722
              ],
              [
                -71.35929380077809,
                41.4576723007809
              ],
              [
                -71.35915138812587,
                41.457735247954616
              ],
              [
                -71.35924640507993,
                41.457658520747195
              ],
              [
                -71.3592575333105,
                41.457573457626935
              ],
              [
                -71.35934143959786,
                41.45757356024909
              ],
              [
                -71.35941824644301,
                41.457483088576204
              ],
              [
                -71.35943659356964,
                41.45743371159926
              ],
              [
                -71.35940020036003,
                41.45739250006183
              ],
              [
                -71.35941128805612,
                41.45732664774989
              ],
              [
                -71.35937844223321,
                41.45733209642674
              ],
              [
                -71.35937115791732,
                41.45732659870048
              ],
              [
                -71.35945527836334,
                41.457227902705974
              ],
              [
                -71.35940794694766,
                41.45718393429519
              ],
              [
                -71.35937507868223,
                41.457200360587926
              ],
              [
                -71.35905338827878,
                41.45750459741911
              ],
              [
                -71.35900620077457,
                41.457394762259426
              ],
              [
                -71.35906126669647,
                41.45723565389983
              ],
              [
                -71.35901395456764,
                41.45718345211765
              ],
              [
                -71.3591090243271,
                41.45708202538119
              ],
              [
                -71.35910188854386,
                41.457007917542384
              ],
              [
                -71.35905448148729,
                41.45699962623647
              ],
              [
                -71.35879514014614,
                41.457150250812084
              ],
              [
                -71.3587659734013,
                41.4571419817749
              ],
              [
                -71.35883909081167,
                41.45707071682996
              ],
              [
                -71.3588136435847,
                41.457029519435764
              ],
              [
                -71.3588319493863,
                41.45699935337852
              ],
              [
                -71.35867501577054,
                41.45702934921744
              ],
              [
                -71.35855802715484,
                41.457144470703945
              ],
              [
                -71.35848146529747,
                41.457122421257395
              ],
              [
                -71.35835735316161,
                41.457157945855364
              ],
              [
                -71.35838297326818,
                41.45711955564268
              ],
              [
                -71.35829179531548,
                41.45710846572036
              ],
              [
                -71.3584634098795,
                41.457037322301936
              ],
              [
                -71.35844533064264,
                41.456963200057196
              ],
              [
                -71.35851468562808,
                41.45694407449826
              ],
              [
                -71.35856951986118,
                41.45689199811282
              ],
              [
                -71.35859148571791,
                41.45685634777045
              ],
              [
                -71.35857691732677,
                41.456845352217236
              ],
              [
                -71.35843812998816,
                41.456919280618685
              ],
              [
                -71.35829189686379,
                41.45706181085749
              ],
              [
                -71.35818971980126,
                41.4570754070044
              ],
              [
                -71.35830663249342,
                41.45699596314211
              ],
              [
                -71.35835421857657,
                41.45692192174275
              ],
              [
                -71.35831046571357,
                41.45691089021827
              ],
              [
                -71.35825562528272,
                41.456965710883445
              ],
              [
                -71.35818994097683,
                41.45697386406696
              ],
              [
                -71.35836173560855,
                41.45682038778511
              ],
              [
                -71.35839115883265,
                41.456710647558985
              ],
              [
                -71.35818684287237,
                41.45672137352005
              ],
              [
                -71.3581650920732,
                41.45665822524666
              ],
              [
                -71.35808852493908,
                41.45663891994172
              ],
              [
                -71.35808505635363,
                41.45655658332432
              ],
              [
                -71.35795358313024,
                41.45662228693363
              ],
              [
                -71.35805963972176,
                41.456501662840566
              ],
              [
                -71.35801229301846,
                41.456465927065686
              ],
              [
                -71.35789188383116,
                41.45647675603414
              ],
              [
                -71.35792481199148,
                41.45643288612352
              ],
              [
                -71.35786293319268,
                41.456369688224854
              ],
              [
                -71.35793955383625,
                41.456364294044334
              ],
              [
                -71.35797612993646,
                41.456320428622796
              ],
              [
                -71.3578997309698,
                41.45622427987841
              ],
              [
                -71.35775375006605,
                41.45625154358213
              ],
              [
                -71.3577284357791,
                41.45614996905416
              ],
              [
                -71.35768107751524,
                41.45611972194964
              ],
              [
                -71.35763727129837,
                41.45613338980535
              ],
              [
                -71.35762642326334,
                41.4560894657962
              ],
              [
                -71.3575244637924,
                41.456004261908554
              ],
              [
                -71.35744085397836,
                41.45586968216118
              ],
              [
                -71.3573320573269,
                41.45557589433682
              ],
              [
                -71.35736145766829,
                41.45547713196952
              ],
              [
                -71.3573326827337,
                41.455290476281924
              ],
              [
                -71.35737658463259,
                41.455232898067926
              ],
              [
                -71.35737688521456,
                41.45509567694212
              ],
              [
                -71.35733320590558,
                41.45505171219004
              ],
              [
                -71.35735936087656,
                41.45476907017834
              ],
              [
                -71.35743944735232,
                41.454846012990004
              ],
              [
                -71.35755264176306,
                41.454796753787846
              ],
              [
                -71.35755637376191,
                41.454758336638754
              ],
              [
                -71.3575089505233,
                41.45475827790977
              ],
              [
                -71.35739239672556,
                41.4546758002207
              ],
              [
                -71.35742891815853,
                41.454656634602216
              ],
              [
                -71.3574835230615,
                41.454708846092885
              ],
              [
                -71.35752736438207,
                41.454678711862314
              ],
              [
                -71.35754941411771,
                41.45460464003784
              ],
              [
                -71.35746546960875,
                41.45462374694816
              ],
              [
                -71.35757510572854,
                41.45453331712927
              ],
              [
                -71.35758994354526,
                41.45442081459398
              ],
              [
                -71.35764836550264,
                41.45439618718881
              ],
              [
                -71.35760830919321,
                41.45436320466835
              ],
              [
                -71.3574988596018,
                41.45436855797068
              ],
              [
                -71.35743356961093,
                41.45419832260975
              ],
              [
                -71.35746286103104,
                41.45414895948182
              ],
              [
                -71.35738260105991,
                41.454151604423835
              ],
              [
                -71.35739735497343,
                41.45407752357683
              ],
              [
                -71.35737186774318,
                41.454055536680826
              ],
              [
                -71.35748882886075,
                41.45395139395349
              ],
              [
                -71.35751831229894,
                41.45381420984429
              ],
              [
                -71.35762044117615,
                41.45381982511294
              ],
              [
                -71.35763516593966,
                41.45375946535774
              ],
              [
                -71.35752945412732,
                41.45372365712593
              ],
              [
                -71.35745879606986,
                41.45374574009589
              ],
              [
                -71.35747119011631,
                41.453676929940414
              ],
              [
                -71.35740768980283,
                41.45366150306852
              ],
              [
                -71.35746038348537,
                41.453614328084235
              ],
              [
                -71.3575181139092,
                41.453602888923406
              ],
              [
                -71.35757628541678,
                41.45363396705636
              ],
              [
                -71.35765103089199,
                41.4536067459988
              ],
              [
                -71.35764808348051,
                41.45353104410143
              ],
              [
                -71.35737755064633,
                41.4531264760043
              ],
              [
                -71.35742874955909,
                41.453067616805455
              ],
              [
                -71.35738744308003,
                41.45307031002002
              ],
              [
                -71.35741787813207,
                41.45303467037635
              ],
              [
                -71.35748360541254,
                41.4530045632764
              ],
              [
                -71.35741651971973,
                41.45294122809294
              ],
              [
                -71.35753134562059,
                41.452859167616865
              ],
              [
                -71.3575460750521,
                41.452796064356015
              ],
              [
                -71.35740354207583,
                41.45283430955598
              ],
              [
                -71.35723737029483,
                41.45269516755036
              ],
              [
                -71.35727648441174,
                41.45263655425145
              ],
              [
                -71.357404122141,
                41.45265317900915
              ],
              [
                -71.35746982501365,
                41.452634049537394
              ],
              [
                -71.35750641734415,
                41.452581951016576
              ],
              [
                -71.35745540194088,
                41.45255718809786
              ],
              [
                -71.35746282373286,
                41.45249956461597
              ],
              [
                -71.35741544420539,
                41.452480295010496
              ],
              [
                -71.35730588349763,
                41.45253779184575
              ],
              [
                -71.3572985156915,
                41.452570715665274
              ],
              [
                -71.35726936321872,
                41.45255695743412
              ],
              [
                -71.35720352796149,
                41.45263646371732
              ],
              [
                -71.35715986847538,
                41.45258426566627
              ],
              [
                -71.35718215266502,
                41.45240316115886
              ],
              [
                -71.3572661786113,
                41.45234563276178
              ],
              [
                -71.35719326461819,
                41.45232633138076
              ],
              [
                -71.35728817972858,
                41.45229351620346
              ],
              [
                -71.35725184006942,
                41.452230349610915
              ],
              [
                -71.35726652751843,
                41.4521864572206
              ],
              [
                -71.35721910615356,
                41.45218639837508
              ],
              [
                -71.35721189480981,
                41.45214796763728
              ],
              [
                -71.3572921282595,
                41.45215630043331
              ],
              [
                -71.35730682167839,
                41.452109663631255
              ],
              [
                -71.35738706711429,
                41.452112507549124
              ],
              [
                -71.35741630955262,
                41.45208509966161
              ],
              [
                -71.35739082910428,
                41.45206036835739
              ],
              [
                -71.35733608218717,
                41.452074022546235
              ],
              [
                -71.35737992780918,
                41.45204114394926
              ],
              [
                -71.3573253192094,
                41.45199167589445
              ],
              [
                -71.35735096794248,
                41.451939563844526
              ],
              [
                -71.3572779821975,
                41.45195319538907
              ],
              [
                -71.3572817141907,
                41.451914778229835
              ],
              [
                -71.35723069337809,
                41.4518927596156
              ],
              [
                -71.35720149307647,
                41.45190095661459
              ],
              [
                -71.35722688313204,
                41.45196685405166
              ],
              [
                -71.3571503518929,
                41.451933826085614
              ],
              [
                -71.35716505740234,
                41.45188170048784
              ],
              [
                -71.35713956508718,
                41.451862457939505
              ],
              [
                -71.35722723213063,
                41.451807678500245
              ],
              [
                -71.35717982308005,
                41.45180213082681
              ],
              [
                -71.3571213623215,
                41.45184596885258
              ],
              [
                -71.35711415709453,
                41.451804793700404
              ],
              [
                -71.35725297712675,
                41.45171165597238
              ],
              [
                -71.35727877618139,
                41.45159093378117
              ],
              [
                -71.35734096252865,
                41.45151142201484
              ],
              [
                -71.35731188268319,
                41.45146473091747
              ],
              [
                -71.35740369560105,
                41.451182170135354
              ],
              [
                -71.35768853847888,
                41.45103706800901
              ],
              [
                -71.35768135097487,
                41.4509876596665
              ],
              [
                -71.35761207290818,
                41.45097385187269
              ],
              [
                -71.35736008501962,
                41.45110801599638
              ],
              [
                -71.3573052186201,
                41.45117655920293
              ],
              [
                -71.35723898169533,
                41.451439940751456
              ],
              [
                -71.35719145855754,
                41.45148653680184
              ],
              [
                -71.3569762215522,
                41.451494502657226
              ],
              [
                -71.35666266534761,
                41.45142550206727
              ],
              [
                -71.35655336571178,
                41.451364988731356
              ],
              [
                -71.35644794392407,
                41.45120019240481
              ],
              [
                -71.35641510094742,
                41.45120564024599
              ],
              [
                -71.35630951626261,
                41.451114942760206
              ],
              [
                -71.35630942542667,
                41.45115610885482
              ],
              [
                -71.3562839094211,
                41.451147843740536
              ],
              [
                -71.35623310767116,
                41.45102702515413
              ],
              [
                -71.35626235010561,
                41.450999617554764
              ],
              [
                -71.35622612728571,
                41.45088430690493
              ],
              [
                -71.3562955067207,
                41.45085146062209
              ],
              [
                -71.35632114977041,
                41.450802093198504
              ],
              [
                -71.35636492845903,
                41.45079940345183
              ],
              [
                -71.35632130114931,
                41.45073348303636
              ],
              [
                -71.35639077116063,
                41.45065946969649
              ],
              [
                -71.35631416921669,
                41.45065937404835
              ],
              [
                -71.35629627586064,
                41.450502920092845
              ],
              [
                -71.35640224079378,
                41.450420719981715
              ],
              [
                -71.35639875044262,
                41.45034936085493
              ],
              [
                -71.35635137884772,
                41.45032734640029
              ],
              [
                -71.35637707006917,
                41.45025602370545
              ],
              [
                -71.35635542002741,
                41.45014896361615
              ],
              [
                -71.35641395238703,
                41.450072193083166
              ],
              [
                -71.35641787840841,
                41.44994595492016
              ],
              [
                -71.35634511870234,
                41.44985804282542
              ],
              [
                -71.356348245739,
                41.450094066370866
              ],
              [
                -71.35630098335216,
                41.45002265257186
              ],
              [
                -71.35626800283762,
                41.450091221731455
              ],
              [
                -71.35616962458914,
                41.45004169931971
              ],
              [
                -71.35602394807628,
                41.44993722935132
              ],
              [
                -71.35604957277046,
                41.44989609520073
              ],
              [
                -71.35602407549375,
                41.4498795968072
              ],
              [
                -71.35610456068693,
                41.449772665340035
              ],
              [
                -71.35595497619762,
                41.44978620021679
              ],
              [
                -71.35590763552624,
                41.449750462643166
              ],
              [
                -71.35592599526125,
                41.44969559734642
              ],
              [
                -71.35590413967843,
                41.44968184790094
              ],
              [
                -71.35583474187145,
                41.44972292717539
              ],
              [
                -71.35567463413194,
                41.44954708389437
              ],
              [
                -71.3557038822156,
                41.44951693202216
              ],
              [
                -71.35568940109277,
                41.44946751439435
              ],
              [
                -71.35558732789826,
                41.44943994216218
              ],
              [
                -71.35556193439393,
                41.44937678874555
              ],
              [
                -71.3557554598953,
                41.4492864649683
              ],
              [
                -71.35565342953706,
                41.449239681944384
              ],
              [
                -71.35572647945506,
                41.44919586294097
              ],
              [
                -71.3556499826478,
                41.44914911193141
              ],
              [
                -71.35577409920894,
                41.449105356960864
              ],
              [
                -71.35575592795144,
                41.44907514561562
              ],
              [
                -71.35565380059685,
                41.44907227310658
              ],
              [
                -71.35569416769411,
                41.448962547153144
              ],
              [
                -71.35566507191632,
                41.44892408884438
              ],
              [
                -71.35563950819875,
                41.44893777884377
              ],
              [
                -71.35566501109211,
                41.448951532917214
              ],
              [
                -71.35565035979835,
                41.44897895868371
              ],
              [
                -71.35559574290335,
                41.44893497950268
              ],
              [
                -71.35540962923979,
                41.44897316754957
              ],
              [
                -71.35538027765958,
                41.44904997427249
              ],
              [
                -71.35539104379767,
                41.449129575836196
              ],
              [
                -71.35535828831038,
                41.449096601680374
              ],
              [
                -71.35525976586773,
                41.44911294425763
              ],
              [
                -71.35520893588885,
                41.449005848116656
              ],
              [
                -71.35511407337742,
                41.449016706345944
              ],
              [
                -71.355059255251,
                41.449063292347766
              ],
              [
                -71.35503744893461,
                41.449027587479456
              ],
              [
                -71.3549389998731,
                41.44901099689636
              ],
              [
                -71.35492817317217,
                41.44895883936157
              ],
              [
                -71.35482249630944,
                41.44891205100008
              ],
              [
                -71.3545524736476,
                41.44895562057229
              ],
              [
                -71.35469459715164,
                41.449016177295114
              ],
              [
                -71.3545595727509,
                41.44904345082306
              ],
              [
                -71.35453736826747,
                41.44918613231993
              ],
              [
                -71.35498223351408,
                41.44925255990562
              ],
              [
                -71.35485079028636,
                41.44931002775075
              ],
              [
                -71.35477765397371,
                41.449392267893614
              ],
              [
                -71.35436121416812,
                41.4496634385058
              ],
              [
                -71.3541896637547,
                41.449712620666574
              ],
              [
                -71.35416417931374,
                41.449690633047716
              ],
              [
                -71.35413493044008,
                41.44972078452626
              ],
              [
                -71.35381390447961,
                41.44973409911902
              ],
              [
                -71.35381054637482,
                41.44960510736864
              ],
              [
                -71.35366084462872,
                41.449670782990125
              ],
              [
                -71.35357310959668,
                41.44975574820491
              ],
              [
                -71.35356222832715,
                41.4497282902098
              ],
              [
                -71.35346734596676,
                41.44974738029755
              ],
              [
                -71.35342728845524,
                41.44971714070933
              ],
              [
                -71.3532229453622,
                41.44974981315628
              ],
              [
                -71.35320114601123,
                41.44971136353885
              ],
              [
                -71.35310635642676,
                41.449689287229695
              ],
              [
                -71.35310296877297,
                41.44957401749331
              ],
              [
                -71.3530008779289,
                41.44955467618832
              ],
              [
                -71.35298253435771,
                41.44960130779571
              ],
              [
                -71.35288393616356,
                41.449650581214
              ],
              [
                -71.35289478613737,
                41.449691761306084
              ],
              [
                -71.35284739760499,
                41.449677978628536
              ],
              [
                -71.35283636661498,
                41.449716386321356
              ],
              [
                -71.35288012111062,
                41.44972467552715
              ],
              [
                -71.35286913473162,
                41.44974387237849
              ],
              [
                -71.352832687947,
                41.44973010368804
              ],
              [
                -71.35278881057245,
                41.449776703497
              ],
              [
                -71.35284334684917,
                41.449856361288354
              ],
              [
                -71.35289801224641,
                41.449878386515344
              ],
              [
                -71.35289056192306,
                41.44994698734877
              ],
              [
                -71.35282492745507,
                41.44993592574389
              ],
              [
                -71.35281022511994,
                41.449985306393145
              ],
              [
                -71.35258749961915,
                41.450081075718735
              ],
              [
                -71.35244896245096,
                41.450047965147085
              ],
              [
                -71.3523613808783,
                41.4500643192705
              ],
              [
                -71.35233592803334,
                41.45002860921702
              ],
              [
                -71.35224111217828,
                41.45001750981976
              ],
              [
                -71.35226656616362,
                41.45005321989575
              ],
              [
                -71.35224461783358,
                41.45008063585184
              ],
              [
                -71.35212444889756,
                41.44998991577791
              ],
              [
                -71.35211364922037,
                41.44992678036509
              ],
              [
                -71.35202975281311,
                41.44992667248728
              ],
              [
                -71.35201504364099,
                41.44997879744033
              ],
              [
                -71.35200055898005,
                41.44993212376295
              ],
              [
                -71.3519239142246,
                41.44995123603734
              ],
              [
                -71.3519240452707,
                41.44989360350392
              ],
              [
                -71.35188763725068,
                41.44986336807789
              ],
              [
                -71.35178562127061,
                41.44981109281863
              ],
              [
                -71.3517636665732,
                41.44984125309033
              ],
              [
                -71.35169080077392,
                41.44980273737599
              ],
              [
                -71.35166903356784,
                41.44975056453765
              ],
              [
                -71.35157413691577,
                41.449775142774534
              ],
              [
                -71.35154464906896,
                41.449909581032884
              ],
              [
                -71.35151563667061,
                41.44983544440199
              ],
              [
                -71.35143542561313,
                41.449818874360794
              ],
              [
                -71.35138794961892,
                41.44984351277146
              ],
              [
                -71.35128588393508,
                41.44981319232027
              ],
              [
                -71.35124551515206,
                41.449920172291115
              ],
              [
                -71.35127833164151,
                41.449925703547805
              ],
              [
                -71.3512051901302,
                41.450007941402056
              ],
              [
                -71.35125618234882,
                41.45004094031488
              ],
              [
                -71.3512415164153,
                41.450073854323556
              ],
              [
                -71.35131065311042,
                41.450148042886575
              ],
              [
                -71.3513032762816,
                41.45018371073744
              ],
              [
                -71.35139809101969,
                41.450194810905934
              ],
              [
                -71.35143809033372,
                41.450249751751265
              ],
              [
                -71.35149277435917,
                41.45026354442585
              ],
              [
                -71.35152545338515,
                41.4503294525467
              ],
              [
                -71.35162749497806,
                41.45037075040855
              ],
              [
                -71.35158330357324,
                41.45055456915218
              ],
              [
                -71.35149586504822,
                41.45050780127551
              ],
              [
                -71.35141916937398,
                41.450548868458334
              ],
              [
                -71.35146287923088,
                41.45057636904294
              ],
              [
                -71.3514735844893,
                41.4506806714984
              ],
              [
                -71.3515462321669,
                41.4508152415524
              ],
              [
                -71.35151334637072,
                41.450839898836804
              ],
              [
                -71.3515533774594,
                41.45088111670707
              ],
              [
                -71.35151305225328,
                41.45096888591092
              ],
              [
                -71.35153118452382,
                41.45101556434869
              ],
              [
                -71.35146537513319,
                41.45108134533174
              ],
              [
                -71.35147622444325,
                41.45112252644662
              ],
              [
                -71.35141798589468,
                41.45106756206754
              ],
              [
                -71.35138504981417,
                41.45111417546006
              ],
              [
                -71.35128305735455,
                41.4510509212406
              ],
              [
                -71.35120639853054,
                41.451075521842135
              ],
              [
                -71.3511185454603,
                41.45120988535785
              ],
              [
                -71.35121687145397,
                41.45128136732047
              ],
              [
                -71.35115490368955,
                41.4512620762658
              ],
              [
                -71.35104537718983,
                41.451303100711705
              ],
              [
                -71.35103456459221,
                41.45124545402308
              ],
              [
                -71.35098718160613,
                41.45122892617617
              ],
              [
                -71.35094701246484,
                41.45124808503507
              ],
              [
                -71.35097969770948,
                41.45131124889397
              ],
              [
                -71.35089234029769,
                41.45122880329105
              ],
              [
                -71.35083739784888,
                41.451327530960704
              ],
              [
                -71.35091747238361,
                41.45140447833909
              ],
              [
                -71.35082611511308,
                41.45147571466886
              ],
              [
                -71.35040638235446,
                41.451579458260525
              ],
              [
                -71.35029334589282,
                41.451560100325246
              ],
              [
                -71.35018001273347,
                41.45166972932946
              ],
              [
                -71.3499207239841,
                41.4517983787998
              ],
              [
                -71.3498551716198,
                41.45175163823561
              ],
              [
                -71.34955224685548,
                41.451819852819206
              ],
              [
                -71.34945387746845,
                41.451767580278386
              ],
              [
                -71.34943214947586,
                41.45169894150582
              ],
              [
                -71.34934469191833,
                41.45166040521911
              ],
              [
                -71.34929353426534,
                41.451698760002756
              ],
              [
                -71.34938825564782,
                41.4517510279054
              ],
              [
                -71.34941002803797,
                41.45180045584962
              ],
              [
                -71.34938436666239,
                41.45185531052491
              ],
              [
                -71.34930410285608,
                41.45186069424109
              ],
              [
                -71.34914746973718,
                41.45176443448827
              ],
              [
                -71.34911845924965,
                41.45169029727999
              ],
              [
                -71.34896909807657,
                41.45160502447297
              ],
              [
                -71.34897998408408,
                41.45162973848562
              ],
              [
                -71.34893249310807,
                41.45165986468168
              ],
              [
                -71.34889944669308,
                41.451753131340766
              ],
              [
                -71.34896865887605,
                41.45179438842711
              ],
              [
                -71.34881529307644,
                41.45186279731741
              ],
              [
                -71.3488366254771,
                41.452101590211676
              ],
              [
                -71.34898246074769,
                41.452134714703135
              ],
              [
                -71.3488946653449,
                41.45224163153656
              ],
              [
                -71.3487228745026,
                41.45238960407758
              ],
              [
                -71.34855854326176,
                41.45246623233791
              ],
              [
                -71.3484159080666,
                41.45262522044316
              ],
              [
                -71.3482551225654,
                41.45274576264587
              ],
              [
                -71.34809088711205,
                41.45278122326457
              ],
              [
                -71.34803968181039,
                41.452838788310174
              ],
              [
                -71.34796309655516,
                41.452830453883664
              ],
              [
                -71.34794111343207,
                41.452871591023005
              ],
              [
                -71.3478681695729,
                41.45286600575926
              ],
              [
                -71.34778051890993,
                41.45290980132334
              ],
              [
                -71.34727332686717,
                41.45296950619039
              ],
              [
                -71.34696340886124,
                41.45290597283835
              ],
              [
                -71.34680314178759,
                41.45280421535106
              ],
              [
                -71.34686909435634,
                41.45268080457544
              ],
              [
                -71.34688029596482,
                41.4525710429647
              ],
              [
                -71.34674526094312,
                41.452598307285875
              ],
              [
                -71.3467268991114,
                41.45265042667071
              ],
              [
                -71.34670877629605,
                41.452601003089704
              ],
              [
                -71.34658475692372,
                41.452598093356734
              ],
              [
                -71.34653703775722,
                41.4527242727082
              ],
              [
                -71.34650417497959,
                41.45273795093028
              ],
              [
                -71.34654463091914,
                41.45259803983947
              ],
              [
                -71.34666514464608,
                41.45254056785646
              ],
              [
                -71.34662886687721,
                41.45245544269248
              ],
              [
                -71.34631533005455,
                41.45238092421258
              ],
              [
                -71.34610006287824,
                41.45239984732817
              ],
              [
                -71.34615067828793,
                41.45259202484353
              ],
              [
                -71.34632174479734,
                41.452754173854494
              ],
              [
                -71.34617573326138,
                41.452795144907256
              ],
              [
                -71.34613564604544,
                41.452778624821605
              ],
              [
                -71.34615770808382,
                41.45270455517706
              ],
              [
                -71.34610324367915,
                41.45259745022408
              ],
              [
                -71.34605221963892,
                41.45257817106468
              ],
              [
                -71.34605209636011,
                41.45263031474687
              ],
              [
                -71.34600102687575,
                41.45263024639504
              ],
              [
                -71.3460009165368,
                41.4526769012681
              ],
              [
                -71.3459680601629,
                41.45268783493269
              ],
              [
                -71.34598980430182,
                41.45274824112923
              ],
              [
                -71.34589131947068,
                41.45274536482967
              ],
              [
                -71.34591307005171,
                41.45280302663581
              ],
              [
                -71.34585097248286,
                41.452838620813544
              ],
              [
                -71.34584346240875,
                41.452929177275465
              ],
              [
                -71.34570468202543,
                41.45299760154658
              ],
              [
                -71.34571171759492,
                41.45310738749412
              ],
              [
                -71.34564934519915,
                41.453258246526545
              ],
              [
                -71.34555793400325,
                41.45334869036305
              ],
              [
                -71.34542280028975,
                41.453417119184195
              ],
              [
                -71.3452184546542,
                41.45344428855741
              ],
              [
                -71.34515727834676,
                41.45348814024389
              ],
              [
                -71.34514186905389,
                41.453435952252974
              ],
              [
                -71.34494509879634,
                41.453345120694856
              ],
              [
                -71.34484979054838,
                41.45336086531124
              ],
              [
                -71.34479194100308,
                41.45332295886367
              ],
              [
                -71.34464241807645,
                41.45330629056256
              ],
              [
                -71.34444530142487,
                41.45336091335173
              ],
              [
                -71.34429890136613,
                41.453563801832765
              ],
              [
                -71.34432179435555,
                41.453626222278835
              ],
              [
                -71.34429997215312,
                41.45366004950418
              ],
              [
                -71.34426221915824,
                41.45364882896758
              ],
              [
                -71.34428025404594,
                41.453776900750796
              ],
              [
                -71.34422900090091,
                41.453810705227966
              ],
              [
                -71.34414387226884,
                41.45408180683815
              ],
              [
                -71.34410641036519,
                41.454139868648696
              ],
              [
                -71.34406769866389,
                41.454142560595876
              ],
              [
                -71.3440858724715,
                41.45417002935037
              ],
              [
                -71.34403455855283,
                41.45427150394578
              ],
              [
                -71.343905129164,
                41.45432388371404
              ],
              [
                -71.34356808866686,
                41.454330790256506
              ],
              [
                -71.34327324682756,
                41.45428556355753
              ],
              [
                -71.3430432202501,
                41.45422461176737
              ],
              [
                -71.34285028982066,
                41.454107056272726
              ],
              [
                -71.34281665714049,
                41.45406127012049
              ],
              [
                -71.34290443186514,
                41.45396807999769
              ],
              [
                -71.34293019221676,
                41.45387480515284
              ],
              [
                -71.34290490860168,
                41.453770482058886
              ],
              [
                -71.34282169189888,
                41.45376985426505
              ],
              [
                -71.34279553680601,
                41.45372915296208
              ],
              [
                -71.34278033202762,
                41.45353899698324
              ],
              [
                -71.34284354371678,
                41.453501445824216
              ],
              [
                -71.34282178899971,
                41.45344652785261
              ],
              [
                -71.34275439589602,
                41.45341560433342
              ],
              [
                -71.3428365725599,
                41.453366960085425
              ],
              [
                -71.34280375506157,
                41.453361426422184
              ],
              [
                -71.34279291087013,
                41.453320244514416
              ],
              [
                -71.34285859219092,
                41.45331210101275
              ],
              [
                -71.34277871702538,
                41.453155560358155
              ],
              [
                -71.34269115538515,
                41.45316092948463
              ],
              [
                -71.34267019650629,
                41.453217079347056
              ],
              [
                -71.34262911421662,
                41.45317182228322
              ],
              [
                -71.3425998650762,
                41.45319922639506
              ],
              [
                -71.34251571226274,
                41.45330339890688
              ],
              [
                -71.34246795813455,
                41.453440555054435
              ],
              [
                -71.34247504527926,
                41.453526785052645
              ],
              [
                -71.34241399362226,
                41.453547513234085
              ],
              [
                -71.34235052666904,
                41.45354109107956
              ],
              [
                -71.34231464811046,
                41.45348151120574
              ],
              [
                -71.34217156375811,
                41.453457658842176
              ],
              [
                -71.34222002966196,
                41.45338807144854
              ],
              [
                -71.3421764216162,
                41.45331940041668
              ],
              [
                -71.34210347110637,
                41.453316555901566
              ],
              [
                -71.34210271977341,
                41.45335198282388
              ],
              [
                -71.3420776640327,
                41.453346783749645
              ],
              [
                -71.34220794055425,
                41.455699889746676
              ],
              [
                -71.34279213406477,
                41.45553257183979
              ],
              [
                -71.3431397463734,
                41.45536978626521
              ],
              [
                -71.34333846944557,
                41.455239449892325
              ],
              [
                -71.34350010375785,
                41.45506241672761
              ],
              [
                -71.34402891471954,
                41.4543168052064
              ],
              [
                -71.34433346049568,
                41.45400935641572
              ],
              [
                -71.34460670302823,
                41.45382780856218
              ],
              [
                -71.34538874140242,
                41.453483683946814
              ],
              [
                -71.34589789187956,
                41.45317184170267
              ],
              [
                -71.34639425116033,
                41.45302323935809
              ],
              [
                -71.3466040861211,
                41.45299844426261
              ],
              [
                -71.34746313443182,
                41.45300389030136
              ],
              [
                -71.3480135623991,
                41.452895390636925
              ],
              [
                -71.34859508815262,
                41.452556975729145
              ],
              [
                -71.34926859462868,
                41.45209220399866
              ],
              [
                -71.34967397533656,
                41.45192026947401
              ],
              [
                -71.35048442794483,
                41.45170861828691
              ],
              [
                -71.35108861654983,
                41.451473699308416
              ],
              [
                -71.35160912942447,
                41.45107195331022
              ],
              [
                -71.35197719510741,
                41.45050329202614
              ],
              [
                -71.35239804856592,
                41.450239385759765
              ],
              [
                -71.35381241525911,
                41.44989051264412
              ],
              [
                -71.35493654181865,
                41.4494837669596
              ],
              [
                -71.35516576785997,
                41.44948405577155
              ],
              [
                -71.35549408285843,
                41.449593696876725
              ],
              [
                -71.35582946862105,
                41.44996204388628
              ],
              [
                -71.35596657319218,
                41.45015767591104
              ],
              [
                -71.35604260061693,
                41.45033023698087
              ],
              [
                -71.3560955799989,
                41.450560256900765
              ],
              [
                -71.35611781672127,
                41.45087072224485
              ],
              [
                -71.35623170934434,
                41.451198548373924
              ],
              [
                -71.35634595820795,
                41.451365407928705
              ],
              [
                -71.35675774313042,
                41.45174534468161
              ],
              [
                -71.3569024818388,
                41.45194673407974
              ],
              [
                -71.35697836349922,
                41.45218828009851
              ],
              [
                -71.35711364280934,
                41.453827529948185
              ]
            ]
          ]
        ]
      }
    }
  ],
  "bbox": [
    -71.35945527836334,
    41.44891205100008,
    -71.3420776640327,
    41.45919969082982
  ]
}
