{
  "$schema": "https://ripota.org/schemas/web/v1/display-geojson.schema.json",
  "type": "FeatureCollection",
  "properties": {
    "schemaVersion": 1,
    "geometryRole": "display",
    "geometryKind": "boundary",
    "potaReference": "US-2869",
    "potaName": "Blackstone River State Park",
    "sourceName": "Rhode Island DEM State Conservation Land",
    "sourceUrl": "https://risegis.ri.gov/hosting/rest/services/RIDEM/State_Conservation_Land/MapServer/0",
    "sourceQuery": "UPPER(NAME) LIKE '%BLACKSTONE RIVER%' OR UPPER(DEM_AREA) LIKE '%BLACKSTONE RIVER%'",
    "sourceFeatureIds": [
      5,
      26,
      31,
      33,
      51,
      54,
      314,
      327,
      439,
      502,
      563,
      564,
      590,
      591,
      678,
      679,
      726,
      731,
      965,
      22917,
      27011,
      27012,
      27013,
      38157
    ],
    "fidelity": "web",
    "detailedArtifact": "@ripota/parks/boundaries/us-2869.geojson"
  },
  "features": [
    {
      "type": "Feature",
      "properties": {
        "potaReference": "US-2869",
        "potaName": "Blackstone River State Park",
        "geometryKind": "boundary",
        "geometryRole": "display",
        "fidelity": "web"
      },
      "geometry": {
        "type": "MultiPolygon",
        "coordinates": [
          [
            [
              [
                -71.43562557373203,
                41.93777245850487
              ],
              [
                -71.43547236224688,
                41.937843835570156
              ],
              [
                -71.43537775051013,
                41.93774622526819
              ],
              [
                -71.43474360223159,
                41.938034976236146
              ],
              [
                -71.43441256341727,
                41.93766703038932
              ],
              [
                -71.43433211488862,
                41.93771851704342
              ],
              [
                -71.43422349082194,
                41.93787928209687
              ],
              [
                -71.43402320992482,
                41.93797343991225
              ],
              [
                -71.43466363100214,
                41.938503506925436
              ],
              [
                -71.43525636526425,
                41.939185125225436
              ],
              [
                -71.43549224720242,
                41.939397265760824
              ],
              [
                -71.43638762364075,
                41.94052822270839
              ],
              [
                -71.4368215695313,
                41.940866930987056
              ],
              [
                -71.43749036506006,
                41.94167524552717
              ],
              [
                -71.43796334443842,
                41.94216027018831
              ],
              [
                -71.43827193569726,
                41.94245163462757
              ],
              [
                -71.43926009056683,
                41.94325998023304
              ],
              [
                -71.43949448592895,
                41.943181498741886
              ],
              [
                -71.44074524336173,
                41.94255787545179
              ],
              [
                -71.44057790396262,
                41.9423821362878
              ],
              [
                -71.44302172778961,
                41.94122231865998
              ],
              [
                -71.44315852228884,
                41.9413991168668
              ],
              [
                -71.44495908964717,
                41.940553309177226
              ],
              [
                -71.44521570098411,
                41.9400688571711
              ],
              [
                -71.4468610510431,
                41.93944325854126
              ],
              [
                -71.44610485713484,
                41.93841503562769
              ],
              [
                -71.44476597487673,
                41.93897820079351
              ],
              [
                -71.44322303165971,
                41.93842846165177
              ],
              [
                -71.44134507339548,
                41.9403547141488
              ],
              [
                -71.43868355973804,
                41.93970927953763
              ],
              [
                -71.4381106473087,
                41.93997003036217
              ],
              [
                -71.43643760771711,
                41.93836006667167
              ],
              [
                -71.43570856773258,
                41.93772962716598
              ],
              [
                -71.43562557373203,
                41.93777245850487
              ]
            ],
            [
              [
                -71.43562557373203,
                41.93777245850487
              ],
              [
                -71.4357399781986,
                41.937897793392956
              ],
              [
                -71.4358124909977,
                41.93800914706277
              ],
              [
                -71.43573906739776,
                41.93789819442689
              ],
              [
                -71.43562557373203,
                41.93777245850487
              ]
            ]
          ],
          [
            [
              [
                -71.38071128105398,
                41.88775383354307
              ],
              [
                -71.38072493993153,
                41.88780612177538
              ],
              [
                -71.38173718366056,
                41.887761059117395
              ],
              [
                -71.3819177523436,
                41.88763267872718
              ],
              [
                -71.3819443989666,
                41.88726448293436
              ],
              [
                -71.3820307754277,
                41.88725381635268
              ],
              [
                -71.38203345831364,
                41.88716428490658
              ],
              [
                -71.38181904429028,
                41.88717607396483
              ],
              [
                -71.38186485281358,
                41.88744131954863
              ],
              [
                -71.38184572145572,
                41.88760432798586
              ],
              [
                -71.38169463824723,
                41.8877152488351
              ],
              [
                -71.38071128105398,
                41.88775383354307
              ]
            ]
          ],
          [
            [
              [
                -71.38021651320159,
                41.88776221292258
              ],
              [
                -71.38048768967595,
                41.88776560337836
              ],
              [
                -71.38062582744678,
                41.888088328886596
              ],
              [
                -71.38088796944979,
                41.888001780473395
              ],
              [
                -71.3807357825895,
                41.88785864026645
              ],
              [
                -71.38071254224508,
                41.887762425799565
              ],
              [
                -71.38069224878878,
                41.88766962033535
              ],
              [
                -71.38066929127984,
                41.88751796204132
              ],
              [
                -71.38071318868792,
                41.88749717671446
              ],
              [
                -71.38047694814439,
                41.887593658024834
              ],
              [
                -71.38050597406111,
                41.88774863138125
              ],
              [
                -71.38022481362819,
                41.887739638608394
              ],
              [
                -71.3801867877931,
                41.88769631108898
              ],
              [
                -71.38029337797505,
                41.88740112937633
              ],
              [
                -71.38013765483025,
                41.88733422550644
              ],
              [
                -71.3800998394812,
                41.887447198131696
              ],
              [
                -71.38015035090572,
                41.887457831531194
              ],
              [
                -71.38016910648334,
                41.88741437867795
              ],
              [
                -71.3802528214139,
                41.88743492779227
              ],
              [
                -71.38016302255711,
                41.887695111362824
              ],
              [
                -71.38021651320159,
                41.88776221292258
              ]
            ]
          ],
          [
            [
              [
                -71.38296252722702,
                41.89653889595665
              ],
              [
                -71.3829658933702,
                41.89664756091892
              ],
              [
                -71.38311535802806,
                41.89688811881559
              ],
              [
                -71.38345653857769,
                41.896840523076634
              ],
              [
                -71.38337162195361,
                41.896494210195584
              ],
              [
                -71.3831321311627,
                41.89653118360284
              ],
              [
                -71.3827793031116,
                41.89489548530395
              ],
              [
                -71.38342144330639,
                41.89482503369392
              ],
              [
                -71.38340644497727,
                41.89476910805815
              ],
              [
                -71.38256132116156,
                41.894858299607606
              ],
              [
                -71.38255835520059,
                41.89492101796932
              ],
              [
                -71.38262161881813,
                41.89498274795618
              ],
              [
                -71.38258520407486,
                41.895136218560744
              ],
              [
                -71.38263895124268,
                41.89518973591199
              ],
              [
                -71.38266606240381,
                41.89527895736708
              ],
              [
                -71.38260398381325,
                41.89532732800066
              ],
              [
                -71.38259039357762,
                41.895397715299595
              ],
              [
                -71.38261468987376,
                41.89557838025556
              ],
              [
                -71.38296252722702,
                41.89653889595665
              ]
            ]
          ],
          [
            [
              [
                -71.40449172182616,
                41.89632342070572
              ],
              [
                -71.40451372278181,
                41.89589512121247
              ],
              [
                -71.40444083168835,
                41.89569283958441
              ],
              [
                -71.4043484804585,
                41.89556284528653
              ],
              [
                -71.40419482569423,
                41.895396165414645
              ],
              [
                -71.40402652986607,
                41.895277537143066
              ],
              [
                -71.4036534356674,
                41.8951001291954
              ],
              [
                -71.40311430569052,
                41.89496006436139
              ],
              [
                -71.4027248379308,
                41.89429859942295
              ],
              [
                -71.40305632414201,
                41.89414706087647
              ],
              [
                -71.4025758184752,
                41.89366985089619
              ],
              [
                -71.40227088203034,
                41.89331628833122
              ],
              [
                -71.40199289799989,
                41.89312689322089
              ],
              [
                -71.40162561922932,
                41.893411162378115
              ],
              [
                -71.40152651408918,
                41.89331916196008
              ],
              [
                -71.40185281461379,
                41.893062679168025
              ],
              [
                -71.40158945420752,
                41.892888928882975
              ],
              [
                -71.40127166179266,
                41.89273858027783
              ],
              [
                -71.40098834819425,
                41.892991212682084
              ],
              [
                -71.40083761467854,
                41.89292272604964
              ],
              [
                -71.40114622401428,
                41.89267437704827
              ],
              [
                -71.40057349404707,
                41.89232057999725
              ],
              [
                -71.40005484018873,
                41.89273772582956
              ],
              [
                -71.3998896624892,
                41.8927089451953
              ],
              [
                -71.39996832017854,
                41.89264990803366
              ],
              [
                -71.39897765467363,
                41.89259012603272
              ],
              [
                -71.39876794470904,
                41.892761142538056
              ],
              [
                -71.39840615591335,
                41.89288253583785
              ],
              [
                -71.39833053316222,
                41.892820682035556
              ],
              [
                -71.39804176777038,
                41.89286074546611
              ],
              [
                -71.39778884339243,
                41.89300707529466
              ],
              [
                -71.39725559603467,
                41.89380938945142
              ],
              [
                -71.39685731225336,
                41.894245404710105
              ],
              [
                -71.39635811471572,
                41.89489572640105
              ],
              [
                -71.3958456853561,
                41.89580645208196
              ],
              [
                -71.39588395829063,
                41.895845854552306
              ],
              [
                -71.3960457500563,
                41.8959489725932
              ],
              [
                -71.39607559428518,
                41.89560833328889
              ],
              [
                -71.39617303770424,
                41.89544916410449
              ],
              [
                -71.39656757015987,
                41.895058086939784
              ],
              [
                -71.39659486208876,
                41.89488510525916
              ],
              [
                -71.397236084073,
                41.894092469592216
              ],
              [
                -71.39734252899706,
                41.893918663577985
              ],
              [
                -71.39765299862043,
                41.893832905260716
              ],
              [
                -71.39792907088608,
                41.8938069126782
              ],
              [
                -71.39811425730618,
                41.893930333940865
              ],
              [
                -71.39839099688916,
                41.894247543486
              ],
              [
                -71.3986249761864,
                41.894422776880724
              ],
              [
                -71.39933812097625,
                41.89430164641741
              ],
              [
                -71.3993893083535,
                41.89413427513206
              ],
              [
                -71.39937931478676,
                41.89401250950762
              ],
              [
                -71.39931837183273,
                41.89390591838311
              ],
              [
                -71.3993389334597,
                41.89378417863337
              ],
              [
                -71.3995019039038,
                41.89377671178344
              ],
              [
                -71.39972567488458,
                41.89396715317533
              ],
              [
                -71.39985775902161,
                41.89417273426992
              ],
              [
                -71.39992867400034,
                41.89441631071465
              ],
              [
                -71.40030503621782,
                41.89472864067697
              ],
              [
                -71.4003862092486,
                41.89492656645144
              ],
              [
                -71.40055920321676,
                41.89502564449121
              ],
              [
                -71.40085490168487,
                41.894812824761985
              ],
              [
                -71.40113011015369,
                41.89467608511086
              ],
              [
                -71.4017517047057,
                41.89447876322311
              ],
              [
                -71.40207770786145,
                41.89442577280483
              ],
              [
                -71.4021895575127,
                41.89454762498178
              ],
              [
                -71.40239304955409,
                41.89468477502975
              ],
              [
                -71.40270868371283,
                41.89475353176638
              ],
              [
                -71.4028510906814,
                41.894875409175604
              ],
              [
                -71.40285082545086,
                41.895050435550544
              ],
              [
                -71.40341080281259,
                41.895187884793415
              ],
              [
                -71.4036442358821,
                41.89541725594186
              ],
              [
                -71.40395491852757,
                41.89580143071116
              ],
              [
                -71.4040389633329,
                41.895959372680544
              ],
              [
                -71.40407293042814,
                41.89626006216541
              ],
              [
                -71.40396666284624,
                41.89650524983781
              ],
              [
                -71.40386588938644,
                41.896617913656016
              ],
              [
                -71.4033888728332,
                41.896926086512984
              ],
              [
                -71.40333592281277,
                41.89692604195635
              ],
              [
                -71.40325398461704,
                41.896836961091466
              ],
              [
                -71.40317709694085,
                41.89690909542803
              ],
              [
                -71.40300239214444,
                41.896888177425865
              ],
              [
                -71.40299718693946,
                41.89682883238464
              ],
              [
                -71.40334833701121,
                41.896776760850045
              ],
              [
                -71.40342895605217,
                41.89668084375822
              ],
              [
                -71.40354546350919,
                41.89666907354141
              ],
              [
                -71.40354553455295,
                41.896621856776775
              ],
              [
                -71.40359017792397,
                41.89658103555832
              ],
              [
                -71.40364351700264,
                41.89660585826313
              ],
              [
                -71.40381045834107,
                41.896507097131625
              ],
              [
                -71.40382349642196,
                41.896403027380046
              ],
              [
                -71.40386626907275,
                41.896364725405704
              ],
              [
                -71.4038081729633,
                41.89626577477461
              ],
              [
                -71.40387132037272,
                41.896240327645586
              ],
              [
                -71.4038824534839,
                41.896164956960135
              ],
              [
                -71.40381829966117,
                41.89604280879773
              ],
              [
                -71.40376759302329,
                41.89601702412579
              ],
              [
                -71.40371671906112,
                41.89604811484505
              ],
              [
                -71.40358367375258,
                41.89590756277536
              ],
              [
                -71.40326071240372,
                41.895887510959255
              ],
              [
                -71.403189328405,
                41.89582217518461
              ],
              [
                -71.40293256895099,
                41.895792288124575
              ],
              [
                -71.40261165948924,
                41.89590064917891
              ],
              [
                -71.4025743309926,
                41.896125921130654
              ],
              [
                -71.40244433157548,
                41.89620021031907
              ],
              [
                -71.40230518567036,
                41.89606094716272
              ],
              [
                -71.4022624026702,
                41.89593246358928
              ],
              [
                -71.40200471420535,
                41.895536745856354
              ],
              [
                -71.40212766836291,
                41.89505743110872
              ],
              [
                -71.40205677920004,
                41.894791026433985
              ],
              [
                -71.40195477266377,
                41.89469468614883
              ],
              [
                -71.40187368179146,
                41.89469203924888
              ],
              [
                -71.40179323718343,
                41.894732415052786
              ],
              [
                -71.4016897888035,
                41.89500378825273
              ],
              [
                -71.40158778532178,
                41.895102629003034
              ],
              [
                -71.40144559082916,
                41.89484377240593
              ],
              [
                -71.40125194514485,
                41.89492731412294
              ],
              [
                -71.40125164038264,
                41.895125170091674
              ],
              [
                -71.40136313842457,
                41.895475318186065
              ],
              [
                -71.40141347887493,
                41.89585585287449
              ],
              [
                -71.4015953974972,
                41.89596377552441
              ],
              [
                -71.40159573331141,
                41.896248997183584
              ],
              [
                -71.40113869616155,
                41.896493456183876
              ],
              [
                -71.40080006155488,
                41.89660154120785
              ],
              [
                -71.40048017125066,
                41.896834026346596
              ],
              [
                -71.4004162546876,
                41.89698255843495
              ],
              [
                -71.40025313144955,
                41.89710783350929
              ],
              [
                -71.40010650994489,
                41.896922057457054
              ],
              [
                -71.39985397693353,
                41.89693789307285
              ],
              [
                -71.3996018889347,
                41.896668737671945
              ],
              [
                -71.39939770305615,
                41.896688628205666
              ],
              [
                -71.39936519075904,
                41.89686521444111
              ],
              [
                -71.39938680069578,
                41.896969812819
              ],
              [
                -71.39953230858201,
                41.89709982787825
              ],
              [
                -71.39947297523838,
                41.89715510653463
              ],
              [
                -71.39899905333502,
                41.897121492900254
              ],
              [
                -71.39896006223604,
                41.896800539255544
              ],
              [
                -71.3989917424338,
                41.89672980671377
              ],
              [
                -71.39889297951287,
                41.896510135104755
              ],
              [
                -71.3988935394978,
                41.89615508206324
              ],
              [
                -71.39881870327004,
                41.896028878329055
              ],
              [
                -71.39854325261626,
                41.89623419291422
              ],
              [
                -71.39851805592454,
                41.89635096486232
              ],
              [
                -71.39792969588973,
                41.89671951147395
              ],
              [
                -71.39734797113631,
                41.89684513077689
              ],
              [
                -71.39701012336899,
                41.89696162248988
              ],
              [
                -71.39683486826007,
                41.897068915775094
              ],
              [
                -71.39680500543392,
                41.8972517591336
              ],
              [
                -71.39673195870057,
                41.89729638396831
              ],
              [
                -71.39671028898314,
                41.897408756063406
              ],
              [
                -71.39655976564022,
                41.89746481547258
              ],
              [
                -71.39650554780924,
                41.897769827549205
              ],
              [
                -71.39670953225507,
                41.89787838820835
              ],
              [
                -71.39686021549002,
                41.89772197906599
              ],
              [
                -71.39683354712948,
                41.897601537108415
              ],
              [
                -71.39688740814388,
                41.89751729224713
              ],
              [
                -71.39717200052412,
                41.89761388164596
              ],
              [
                -71.39744073166112,
                41.89754989883514
              ],
              [
                -71.39838632376933,
                41.89753869751445
              ],
              [
                -71.39907953675603,
                41.89744297366289
              ],
              [
                -71.39951469603277,
                41.89745539713914
              ],
              [
                -71.39998178282825,
                41.89766453069205
              ],
              [
                -71.40028155545677,
                41.8983672346501
              ],
              [
                -71.4001145034098,
                41.89868820590587
              ],
              [
                -71.39992078005635,
                41.89888472111993
              ],
              [
                -71.3998442624921,
                41.89891036598136
              ],
              [
                -71.39980086918347,
                41.89901082274645
              ],
              [
                -71.39945506850417,
                41.89912855982121
              ],
              [
                -71.39904022938386,
                41.899190903720225
              ],
              [
                -71.39881319142867,
                41.89913906198509
              ],
              [
                -71.39883818632599,
                41.898943581372656
              ],
              [
                -71.39851234355699,
                41.8989285393033
              ],
              [
                -71.39822571905341,
                41.89909058958556
              ],
              [
                -71.39813705099728,
                41.89896140573127
              ],
              [
                -71.39815693602796,
                41.89887658275347
              ],
              [
                -71.39826067925291,
                41.89883978736687
              ],
              [
                -71.39894697701124,
                41.898836704674416
              ],
              [
                -71.39910401641129,
                41.898861667498196
              ],
              [
                -71.39974395839373,
                41.898579506022045
              ],
              [
                -71.39985188870949,
                41.89827453930937
              ],
              [
                -71.39978787391553,
                41.89798146445549
              ],
              [
                -71.399530260125,
                41.8978086392458
              ],
              [
                -71.39926174955362,
                41.89773213901862
              ],
              [
                -71.39904146136124,
                41.89773997289818
              ],
              [
                -71.39880496541062,
                41.89780398876258
              ],
              [
                -71.39875111935342,
                41.897880206305935
              ],
              [
                -71.39848769677677,
                41.897984337104944
              ],
              [
                -71.39799333396746,
                41.898036080277336
              ],
              [
                -71.39731098601207,
                41.898051527712845
              ],
              [
                -71.39702608962736,
                41.89814359406244
              ],
              [
                -71.39673106721926,
                41.89833148872973
              ],
              [
                -71.3969009868139,
                41.8987565638594
              ],
              [
                -71.39683096118108,
                41.89879795387741
              ],
              [
                -71.39668626166447,
                41.89877078874167
              ],
              [
                -71.39635847681537,
                41.8985848556413
              ],
              [
                -71.39601810011973,
                41.898726930340096
              ],
              [
                -71.39567797417462,
                41.89871400557391
              ],
              [
                -71.3955526658228,
                41.8986309858629
              ],
              [
                -71.3959168444537,
                41.89868718816523
              ],
              [
                -71.39617774474227,
                41.89846393768433
              ],
              [
                -71.39628157489496,
                41.89840275337226
              ],
              [
                -71.39635838012394,
                41.89841211590013
              ],
              [
                -71.39626130182538,
                41.89830816909456
              ],
              [
                -71.39598233786019,
                41.898465563316776
              ],
              [
                -71.39590275359328,
                41.898451072450456
              ],
              [
                -71.39584479810155,
                41.89848706633923
              ],
              [
                -71.39568084432484,
                41.89843284831844
              ],
              [
                -71.39544105548616,
                41.89825350096182
              ],
              [
                -71.395199332126,
                41.898182080874626
              ],
              [
                -71.39493593544996,
                41.89826613342781
              ],
              [
                -71.39497863954463,
                41.89843475893226
              ],
              [
                -71.39520381189077,
                41.89872798361404
              ],
              [
                -71.39552576688581,
                41.8989771420392
              ],
              [
                -71.39598750545235,
                41.8991702313673
              ],
              [
                -71.39739475137277,
                41.89942437603041
              ],
              [
                -71.39847409027905,
                41.8997906055553
              ],
              [
                -71.39950601446075,
                41.90054715027786
              ],
              [
                -71.4006834948381,
                41.89998647268407
              ],
              [
                -71.40074020246654,
                41.899890827659625
              ],
              [
                -71.40396517596194,
                41.9001931782282
              ],
              [
                -71.40436923386198,
                41.89975736325689
              ],
              [
                -71.40445677108896,
                41.899576652964726
              ],
              [
                -71.40450635127415,
                41.89954443815248
              ],
              [
                -71.40448776425632,
                41.8994025715188
              ],
              [
                -71.40411573151904,
                41.89876775260485
              ],
              [
                -71.40378931143911,
                41.89838961818943
              ],
              [
                -71.40355104546738,
                41.8983076577285
              ],
              [
                -71.40333399152637,
                41.89810847569251
              ],
              [
                -71.4032000947286,
                41.89802916463763
              ],
              [
                -71.40287565465086,
                41.89797277775216
              ],
              [
                -71.40280422852786,
                41.8979307746323
              ],
              [
                -71.40277710460019,
                41.89783234309566
              ],
              [
                -71.40285100535414,
                41.89767586195995
              ],
              [
                -71.40299478764052,
                41.897486634559485
              ],
              [
                -71.40320218077747,
                41.89734839668159
              ],
              [
                -71.40360674027121,
                41.897157930380146
              ],
              [
                -71.40429214132904,
                41.89663260290891
              ],
              [
                -71.40442114210158,
                41.89647479903642
              ],
              [
                -71.40449172182616,
                41.89632342070572
              ]
            ]
          ],
          [
            [
              [
                -71.39062188947405,
                41.8985119016574
              ],
              [
                -71.39029855899015,
                41.89823117435425
              ],
              [
                -71.3899735136635,
                41.89841758694697
              ],
              [
                -71.3903513873935,
                41.89876649687152
              ],
              [
                -71.38995371412351,
                41.89901075182204
              ],
              [
                -71.39003701661575,
                41.89908497722988
              ],
              [
                -71.39013188173847,
                41.899067368478484
              ],
              [
                -71.39082059420946,
                41.898721548465694
              ],
              [
                -71.39062188947405,
                41.8985119016574
              ]
            ]
          ],
          [
            [
              [
                -71.3944911417387,
                41.900871795101786
              ],
              [
                -71.3945050288992,
                41.90098280656474
              ],
              [
                -71.39631752232215,
                41.90060885763365
              ],
              [
                -71.39637155901228,
                41.90035532818039
              ],
              [
                -71.39649898167612,
                41.90013477273752
              ],
              [
                -71.3964881251658,
                41.9000151471921
              ],
              [
                -71.39598812955946,
                41.899656012894305
              ],
              [
                -71.39548871044296,
                41.89936064265249
              ],
              [
                -71.39511967706034,
                41.89921137936402
              ],
              [
                -71.39453521625775,
                41.899030881140845
              ],
              [
                -71.39452798419119,
                41.89942142147936
              ],
              [
                -71.39458327971764,
                41.90011567278958
              ],
              [
                -71.39460898271042,
                41.900223954502366
              ],
              [
                -71.39477029679242,
                41.90048403787644
              ],
              [
                -71.39477726642268,
                41.90072163266163
              ],
              [
                -71.39476048760463,
                41.90081622642839
              ],
              [
                -71.3944911417387,
                41.900871795101786
              ]
            ]
          ],
          [
            [
              [
                -71.39804934553398,
                41.91015343362133
              ],
              [
                -71.39778646161201,
                41.91037260584522
              ],
              [
                -71.39755468928183,
                41.910640346305456
              ],
              [
                -71.39762446259274,
                41.91089670618728
              ],
              [
                -71.39785281541953,
                41.91114349896589
              ],
              [
                -71.39821529055038,
                41.911442474295384
              ],
              [
                -71.39862922489058,
                41.91165678222492
              ],
              [
                -71.39907623145409,
                41.91171736544688
              ],
              [
                -71.39993676311911,
                41.91163851257634
              ],
              [
                -71.40075340070184,
                41.91136739030565
              ],
              [
                -71.40268524129745,
                41.91105255470142
              ],
              [
                -71.40254367175872,
                41.910134036160585
              ],
              [
                -71.402635952933,
                41.90909123937112
              ],
              [
                -71.40279605548585,
                41.90876470323662
              ],
              [
                -71.40269712531014,
                41.9087479283008
              ],
              [
                -71.40246460190964,
                41.90841867429494
              ],
              [
                -71.40245207649492,
                41.908258904303885
              ],
              [
                -71.40256105304888,
                41.90796570732072
              ],
              [
                -71.402216945715,
                41.90791057143303
              ],
              [
                -71.4023659240892,
                41.90737286192731
              ],
              [
                -71.40127190723072,
                41.907199119672654
              ],
              [
                -71.40119410087667,
                41.9070883791855
              ],
              [
                -71.40119428948564,
                41.90696605464748
              ],
              [
                -71.40128014188348,
                41.90691564625812
              ],
              [
                -71.4016493783684,
                41.90682082194179
              ],
              [
                -71.40091130662209,
                41.90675028788672
              ],
              [
                -71.40069031616879,
                41.90678698878256
              ],
              [
                -71.40023298356046,
                41.906703101469205
              ],
              [
                -71.39978476105063,
                41.90744247909855
              ],
              [
                -71.3995394969808,
                41.90803835038567
              ],
              [
                -71.39912432071546,
                41.90923986653566
              ],
              [
                -71.39911604072704,
                41.90954664008557
              ],
              [
                -71.39905568884029,
                41.90990579205951
              ],
              [
                -71.39876156096705,
                41.91015988882398
              ],
              [
                -71.39861864876612,
                41.9101267549823
              ],
              [
                -71.39871786326523,
                41.909849186394354
              ],
              [
                -71.39804934553398,
                41.91015343362133
              ]
            ]
          ],
          [
            [
              [
                -71.41346489465789,
                41.91481381585705
              ],
              [
                -71.4114170952559,
                41.913640097930475
              ],
              [
                -71.41144997152452,
                41.91361230862155
              ],
              [
                -71.4105628729214,
                41.91303599242758
              ],
              [
                -71.41030045055244,
                41.91292005715554
              ],
              [
                -71.40976280887318,
                41.91256592669455
              ],
              [
                -71.41008461649372,
                41.9123941061202
              ],
              [
                -71.40996145742601,
                41.91231298388465
              ],
              [
                -71.40973485999754,
                41.912419099379136
              ],
              [
                -71.40868144118198,
                41.91175163452458
              ],
              [
                -71.40905210813632,
                41.91158231265203
              ],
              [
                -71.40850215127614,
                41.91085541430987
              ],
              [
                -71.40826400067279,
                41.91048625171209
              ],
              [
                -71.40787291820426,
                41.90966427561327
              ],
              [
                -71.40797671253785,
                41.90964885611463
              ],
              [
                -71.40750134076808,
                41.90755671578175
              ],
              [
                -71.40740485475597,
                41.90752959761122
              ],
              [
                -71.40735694345305,
                41.90728620515065
              ],
              [
                -71.40716433684655,
                41.90697960357617
              ],
              [
                -71.40722474352754,
                41.906925573362656
              ],
              [
                -71.40672514181811,
                41.90615454646423
              ],
              [
                -71.40639705895887,
                41.90650147888838
              ],
              [
                -71.4066039469196,
                41.90664134925513
              ],
              [
                -71.4068768603269,
                41.90710031712005
              ],
              [
                -71.40703655933338,
                41.907463141349076
              ],
              [
                -71.40701353945548,
                41.9077070275228
              ],
              [
                -71.40712298973105,
                41.90809060123788
              ],
              [
                -71.40711582705107,
                41.90828918589067
              ],
              [
                -71.40734491461325,
                41.90911365502224
              ],
              [
                -71.40747075378712,
                41.90939303145124
              ],
              [
                -71.40679575138137,
                41.90945414444228
              ],
              [
                -71.40695562957211,
                41.90969727939226
              ],
              [
                -71.40701055202412,
                41.909688425053076
              ],
              [
                -71.40718835200356,
                41.909933219976786
              ],
              [
                -71.4076131398421,
                41.909905140104954
              ],
              [
                -71.40809744758882,
                41.91084578897099
              ],
              [
                -71.40809944410755,
                41.910900052328955
              ],
              [
                -71.40821550494117,
                41.91101641777733
              ],
              [
                -71.40793798574252,
                41.911345566450585
              ],
              [
                -71.40743596813103,
                41.91094226513559
              ],
              [
                -71.40724178063935,
                41.91104128927881
              ],
              [
                -71.40777413348046,
                41.91160034340782
              ],
              [
                -71.40765101800652,
                41.911652624537886
              ],
              [
                -71.4080160085469,
                41.91188564006095
              ],
              [
                -71.40808700458872,
                41.912213770307716
              ],
              [
                -71.40832230101691,
                41.91244595709427
              ],
              [
                -71.40859844491638,
                41.912472795355875
              ],
              [
                -71.40879281399148,
                41.91285318994746
              ],
              [
                -71.40880448053036,
                41.91299805174449
              ],
              [
                -71.40887159827085,
                41.913113395354344
              ],
              [
                -71.40921555084786,
                41.913373810634056
              ],
              [
                -71.40967031990276,
                41.91363726786389
              ],
              [
                -71.41069805669134,
                41.913839834690336
              ],
              [
                -71.41110482197932,
                41.91400815017472
              ],
              [
                -71.41276618623438,
                41.914983804375346
              ],
              [
                -71.41335205609484,
                41.915481873164424
              ],
              [
                -71.4139296464251,
                41.91607430752801
              ],
              [
                -71.41477478868687,
                41.91684293969695
              ],
              [
                -71.41517076059101,
                41.91709923677731
              ],
              [
                -71.41639105142319,
                41.91769213157213
              ],
              [
                -71.4182424686377,
                41.91848486300705
              ],
              [
                -71.41846145898369,
                41.91860854780737
              ],
              [
                -71.41875651941871,
                41.918842791920895
              ],
              [
                -71.41889663398824,
                41.919072584570806
              ],
              [
                -71.41892325290975,
                41.919239479494436
              ],
              [
                -71.41905785240404,
                41.9195448485108
              ],
              [
                -71.41925129733828,
                41.919709022990105
              ],
              [
                -71.41941466257754,
                41.91991263637054
              ],
              [
                -71.41972637065717,
                41.920704801052516
              ],
              [
                -71.42021709958982,
                41.92115729509334
              ],
              [
                -71.42129226958737,
                41.921850243504885
              ],
              [
                -71.42158714865658,
                41.92199725215445
              ],
              [
                -71.42179891698073,
                41.922053861315305
              ],
              [
                -71.42248144260074,
                41.92211695426152
              ],
              [
                -71.42364650507609,
                41.92215725998288
              ],
              [
                -71.4260469518541,
                41.92256672837438
              ],
              [
                -71.42723074942512,
                41.92293573533012
              ],
              [
                -71.42824998413084,
                41.92337752031062
              ],
              [
                -71.42883823541281,
                41.923561096046676
              ],
              [
                -71.42908853191614,
                41.923729608817204
              ],
              [
                -71.42935871829545,
                41.9240365617217
              ],
              [
                -71.42981344062673,
                41.92509562530362
              ],
              [
                -71.42999367269007,
                41.92544558772233
              ],
              [
                -71.43005523648078,
                41.92564842770977
              ],
              [
                -71.43038336413423,
                41.92594035996482
              ],
              [
                -71.43115027832275,
                41.926936777656906
              ],
              [
                -71.43170883670847,
                41.926971906908335
              ],
              [
                -71.43181019706878,
                41.92694219163729
              ],
              [
                -71.43187477960723,
                41.92684592594052
              ],
              [
                -71.4318692329919,
                41.926748067360705
              ],
              [
                -71.43182195224183,
                41.926694964312006
              ],
              [
                -71.43175690841359,
                41.926664157110274
              ],
              [
                -71.43161263699093,
                41.926672462297816
              ],
              [
                -71.43122043478736,
                41.92632474447865
              ],
              [
                -71.4303778126274,
                41.925322420163546
              ],
              [
                -71.43012772276381,
                41.92451259873955
              ],
              [
                -71.42997169318555,
                41.92415597443242
              ],
              [
                -71.42974987244827,
                41.92384391892607
              ],
              [
                -71.4294438768544,
                41.92356063246622
              ],
              [
                -71.42911696367257,
                41.92333651148404
              ],
              [
                -71.42753426808922,
                41.9226905564649
              ],
              [
                -71.42735438616563,
                41.92253522237854
              ],
              [
                -71.4272296640005,
                41.92221568038546
              ],
              [
                -71.42715555503837,
                41.92211304232403
              ],
              [
                -71.42694350838967,
                41.922045633568914
              ],
              [
                -71.42684458080406,
                41.922042146654384
              ],
              [
                -71.42675049098813,
                41.92211773463942
              ],
              [
                -71.4264866867509,
                41.922078599116254
              ],
              [
                -71.42623315913862,
                41.92190828510575
              ],
              [
                -71.42544554403165,
                41.9215915797717
              ],
              [
                -71.42501211422285,
                41.92133016110683
              ],
              [
                -71.42408914536703,
                41.92060290624952
              ],
              [
                -71.42310642015978,
                41.920006913560314
              ],
              [
                -71.42125896509843,
                41.91918257652216
              ],
              [
                -71.42012837671678,
                41.918793404527925
              ],
              [
                -71.42008280657569,
                41.918848415091325
              ],
              [
                -71.41777811986162,
                41.918065694843726
              ],
              [
                -71.41766305786955,
                41.91800879288325
              ],
              [
                -71.41778270070054,
                41.91794256606009
              ],
              [
                -71.41636306564632,
                41.91725001731143
              ],
              [
                -71.4163483788867,
                41.91715656906033
              ],
              [
                -71.41628762106609,
                41.917115278184355
              ],
              [
                -71.41616170541653,
                41.917113144386796
              ],
              [
                -71.41566114487358,
                41.91695324200972
              ],
              [
                -71.41528890573485,
                41.91673873381559
              ],
              [
                -71.41470380140795,
                41.916273170125145
              ],
              [
                -71.41756869509418,
                41.915612577829414
              ],
              [
                -71.41714996230813,
                41.91518204783605
              ],
              [
                -71.41764896889555,
                41.91491788481487
              ],
              [
                -71.4169740113621,
                41.91415632921748
              ],
              [
                -71.41638235697164,
                41.91445309743619
              ],
              [
                -71.41577706046341,
                41.913808263166544
              ],
              [
                -71.41346489465789,
                41.91481381585705
              ]
            ],
            [
              [
                -71.42083287595467,
                41.91942172767464
              ],
              [
                -71.42273055752582,
                41.920137606302184
              ],
              [
                -71.42384178201911,
                41.920864159840555
              ],
              [
                -71.42473511686603,
                41.92162193714324
              ],
              [
                -71.4249277754095,
                41.92177026748053
              ],
              [
                -71.42521767932216,
                41.92193336586145
              ],
              [
                -71.42394748541021,
                41.921771872337885
              ],
              [
                -71.42356473821566,
                41.92179111383702
              ],
              [
                -71.4228153447031,
                41.921909125894096
              ],
              [
                -71.42234355124086,
                41.921905689084014
              ],
              [
                -71.42188302470869,
                41.92182906882029
              ],
              [
                -71.42122385741418,
                41.92162965669785
              ],
              [
                -71.42083330710159,
                41.921353235158065
              ],
              [
                -71.42029859842965,
                41.92087996346623
              ],
              [
                -71.41982667226837,
                41.9203675158516
              ],
              [
                -71.41942905920507,
                41.91982103302008
              ],
              [
                -71.41991887282516,
                41.919087477614845
              ],
              [
                -71.42083287595467,
                41.91942172767464
              ]
            ]
          ],
          [
            [
              [
                -71.4321084156531,
                41.927188721218705
              ],
              [
                -71.43223453213186,
                41.9273803179694
              ],
              [
                -71.43230086693914,
                41.92769622484312
              ],
              [
                -71.43238274859287,
                41.92748855311973
              ],
              [
                -71.43235914365349,
                41.927186010655724
              ],
              [
                -71.4321084156531,
                41.927188721218705
              ]
            ]
          ],
          [
            [
              [
                -71.4317334198504,
                41.927101442096124
              ],
              [
                -71.43119421564033,
                41.92706269355789
              ],
              [
                -71.43115368424614,
                41.92731128104878
              ],
              [
                -71.43110643979058,
                41.927781560175376
              ],
              [
                -71.43120167374012,
                41.92927548621805
              ],
              [
                -71.43127640467019,
                41.929668366348245
              ],
              [
                -71.4315733812035,
                41.93055006458672
              ],
              [
                -71.43147659801635,
                41.9307226933555
              ],
              [
                -71.43094698466537,
                41.93212406290637
              ],
              [
                -71.43083786103325,
                41.932821891503416
              ],
              [
                -71.43089658937541,
                41.933596363781724
              ],
              [
                -71.43105977118911,
                41.93412265633952
              ],
              [
                -71.43143207529971,
                41.93489408474802
              ],
              [
                -71.43169514041479,
                41.935360722902246
              ],
              [
                -71.43219218881484,
                41.9361117593925
              ],
              [
                -71.433916617407,
                41.93791604341041
              ],
              [
                -71.4340825922549,
                41.93784562829061
              ],
              [
                -71.43429213189818,
                41.93760372651705
              ],
              [
                -71.43445556061225,
                41.937525686370066
              ],
              [
                -71.43417745946972,
                41.93716412359179
              ],
              [
                -71.43407650852745,
                41.93666452822416
              ],
              [
                -71.43387281982976,
                41.936602430221036
              ],
              [
                -71.43394083513219,
                41.93650808949111
              ],
              [
                -71.43405211868902,
                41.936533509232966
              ],
              [
                -71.43399767835234,
                41.93627006076879
              ],
              [
                -71.43373164624693,
                41.93629103720922
              ],
              [
                -71.43366219313731,
                41.93595292158219
              ],
              [
                -71.43392357193025,
                41.935926102232685
              ],
              [
                -71.43368825641711,
                41.93416938793469
              ],
              [
                -71.43327626115813,
                41.93254576745544
              ],
              [
                -71.43315321198264,
                41.93194193394709
              ],
              [
                -71.43288945485243,
                41.93098038185909
              ],
              [
                -71.4324477987042,
                41.93102757891935
              ],
              [
                -71.43236822281025,
                41.930769565197345
              ],
              [
                -71.43222665511725,
                41.93057844036007
              ],
              [
                -71.43204867366266,
                41.92938463258025
              ],
              [
                -71.43185737816658,
                41.92842488068482
              ],
              [
                -71.43228806269398,
                41.92838642604531
              ],
              [
                -71.43209373599723,
                41.92738880227444
              ],
              [
                -71.43188932529952,
                41.92717585639765
              ],
              [
                -71.4317334198504,
                41.927101442096124
              ]
            ]
          ],
          [
            [
              [
                -71.4004951049273,
                41.90613017899583
              ],
              [
                -71.40042276688554,
                41.90628161610479
              ],
              [
                -71.40031452346648,
                41.906335388753156
              ],
              [
                -71.40103994393633,
                41.90644373487768
              ],
              [
                -71.4011804110551,
                41.90594222788833
              ],
              [
                -71.40200581403003,
                41.90549179663802
              ],
              [
                -71.40303844148323,
                41.90508866129207
              ],
              [
                -71.40334545969061,
                41.90470512145344
              ],
              [
                -71.40318881890714,
                41.903967705244874
              ],
              [
                -71.40325336419762,
                41.902984708404354
              ],
              [
                -71.40320410516931,
                41.90277257135582
              ],
              [
                -71.4006984851724,
                41.90278057606991
              ],
              [
                -71.40043667335517,
                41.90306651575709
              ],
              [
                -71.4003732184674,
                41.90330549134621
              ],
              [
                -71.4004222303222,
                41.90367249377682
              ],
              [
                -71.4007089495757,
                41.904793817798755
              ],
              [
                -71.40079875542702,
                41.905009355396594
              ],
              [
                -71.40080731903468,
                41.905305624424535
              ],
              [
                -71.4004951049273,
                41.90613017899583
              ]
            ]
          ],
          [
            [
              [
                -71.43883445204261,
                41.944441811056855
              ],
              [
                -71.44051373777278,
                41.9454658477172
              ],
              [
                -71.4409913737567,
                41.94586577358675
              ],
              [
                -71.44105529012162,
                41.945960415723675
              ],
              [
                -71.44108871254602,
                41.94580848573931
              ],
              [
                -71.4409738629616,
                41.945510163077884
              ],
              [
                -71.43989363199513,
                41.94429032867503
              ],
              [
                -71.43960760647828,
                41.9440684601336
              ],
              [
                -71.43883445204261,
                41.944441811056855
              ]
            ]
          ],
          [
            [
              [
                -71.4354230784628,
                41.94127475402018
              ],
              [
                -71.43736572710297,
                41.94333396828185
              ],
              [
                -71.43801918038186,
                41.943872378181204
              ],
              [
                -71.43873913975635,
                41.94352099018444
              ],
              [
                -71.43788721409352,
                41.94287260015575
              ],
              [
                -71.43689262342065,
                41.94196304662523
              ],
              [
                -71.43622585510057,
                41.94124995227418
              ],
              [
                -71.43608786278115,
                41.94120292648488
              ],
              [
                -71.43573899070589,
                41.94123086231639
              ],
              [
                -71.43568322391955,
                41.941162940549944
              ],
              [
                -71.43570721693555,
                41.94109982884415
              ],
              [
                -71.43591357781459,
                41.9410576209898
              ],
              [
                -71.43535613306112,
                41.94058628728428
              ],
              [
                -71.43502286794465,
                41.94075570536141
              ],
              [
                -71.43498030186518,
                41.940804125769056
              ],
              [
                -71.4354230784628,
                41.94127475402018
              ]
            ]
          ],
          [
            [
              [
                -71.44159116658587,
                41.94443117853382
              ],
              [
                -71.44213390307473,
                41.944631981824074
              ],
              [
                -71.44243648007415,
                41.94498199322754
              ],
              [
                -71.44255626294928,
                41.945240181518066
              ],
              [
                -71.44265049201537,
                41.945317026890606
              ],
              [
                -71.44283030518505,
                41.94555177798476
              ],
              [
                -71.44346425997944,
                41.94601928183866
              ],
              [
                -71.44354613567815,
                41.94606506922065
              ],
              [
                -71.44394260311383,
                41.94581116503075
              ],
              [
                -71.44317064137404,
                41.945222354770735
              ],
              [
                -71.44231387875625,
                41.9446822049549
              ],
              [
                -71.44021178143277,
                41.94360701963034
              ],
              [
                -71.44013454888437,
                41.94369444378646
              ],
              [
                -71.4406029854981,
                41.94389094985497
              ],
              [
                -71.44094563021665,
                41.94415992104433
              ],
              [
                -71.44110827715134,
                41.94440746591543
              ],
              [
                -71.44128261763129,
                41.94436915560848
              ],
              [
                -71.44159116658587,
                41.94443117853382
              ]
            ]
          ],
          [
            [
              [
                -71.4539624191971,
                41.95648849316504
              ],
              [
                -71.45362844788755,
                41.95672547671622
              ],
              [
                -71.45381610673886,
                41.9567904896653
              ],
              [
                -71.45415743630208,
                41.95679627235053
              ],
              [
                -71.45444467222566,
                41.95686143112277
              ],
              [
                -71.4553623428853,
                41.95722694744018
              ],
              [
                -71.45673237871969,
                41.95766266266586
              ],
              [
                -71.45766179835958,
                41.95805353956957
              ],
              [
                -71.45792168373158,
                41.95808841982395
              ],
              [
                -71.45839434456018,
                41.95806719058651
              ],
              [
                -71.45881405467354,
                41.958153374573406
              ],
              [
                -71.45928876197766,
                41.958392809904836
              ],
              [
                -71.45962592077055,
                41.9587182141385
              ],
              [
                -71.4602915634296,
                41.95988063705301
              ],
              [
                -71.46042903354727,
                41.9610157871825
              ],
              [
                -71.46014796031875,
                41.96211525865546
              ],
              [
                -71.45931917961589,
                41.96457667164619
              ],
              [
                -71.45913586725456,
                41.96526184203371
              ],
              [
                -71.46018065525534,
                41.967106499837065
              ],
              [
                -71.46144886108061,
                41.96850050777507
              ],
              [
                -71.46165245362405,
                41.968679445578246
              ],
              [
                -71.46266835425615,
                41.969114186123214
              ],
              [
                -71.46459310925648,
                41.97045448107034
              ],
              [
                -71.46485356656243,
                41.96996882027688
              ],
              [
                -71.46476369908373,
                41.96939830592652
              ],
              [
                -71.46434991145244,
                41.96896597014735
              ],
              [
                -71.46424782664634,
                41.96863492418248
              ],
              [
                -71.46424261565792,
                41.96849994339845
              ],
              [
                -71.46413769886512,
                41.96809694576879
              ],
              [
                -71.46422192539313,
                41.967825870290916
              ],
              [
                -71.46425379563368,
                41.96741610976269
              ],
              [
                -71.46439791599383,
                41.96716703310475
              ],
              [
                -71.46476765849252,
                41.966759903845386
              ],
              [
                -71.46483390457891,
                41.96663136961426
              ],
              [
                -71.4648606160662,
                41.966409434208465
              ],
              [
                -71.46478015148175,
                41.96622793433866
              ],
              [
                -71.46449667109745,
                41.96582874162716
              ],
              [
                -71.46430316064469,
                41.96543669320625
              ],
              [
                -71.46398540562846,
                41.96421601059479
              ],
              [
                -71.46359299755723,
                41.96318624806179
              ],
              [
                -71.46332829819673,
                41.962816774108894
              ],
              [
                -71.46257335784685,
                41.96209692778453
              ],
              [
                -71.4623112504569,
                41.961594136726355
              ],
              [
                -71.46213885960674,
                41.960832109945756
              ],
              [
                -71.46196433678456,
                41.958398213676354
              ],
              [
                -71.46189092661322,
                41.95817568633477
              ],
              [
                -71.46175939470693,
                41.95795336377473
              ],
              [
                -71.46148247493387,
                41.957626114222315
              ],
              [
                -71.46128586329316,
                41.9574870370507
              ],
              [
                -71.46098714733571,
                41.95740895121502
              ],
              [
                -71.45975950367735,
                41.95727962526481
              ],
              [
                -71.45891071016796,
                41.95713792055339
              ],
              [
                -71.45717345976468,
                41.95676757691102
              ],
              [
                -71.45659749405,
                41.95653963122553
              ],
              [
                -71.4565553260019,
                41.956566427681906
              ],
              [
                -71.45680594560177,
                41.956721744450824
              ],
              [
                -71.45698689082323,
                41.956786198696655
              ],
              [
                -71.45881680308224,
                41.957219284752824
              ],
              [
                -71.45965608809111,
                41.957343381978355
              ],
              [
                -71.45970127089366,
                41.95736435547058
              ],
              [
                -71.45973664221607,
                41.95744910680276
              ],
              [
                -71.45972357963848,
                41.957501949144785
              ],
              [
                -71.4596559731628,
                41.9575256164037
              ],
              [
                -71.45824820193201,
                41.95735191697134
              ],
              [
                -71.45720667871566,
                41.95713072848623
              ],
              [
                -71.45651221392764,
                41.956935013699905
              ],
              [
                -71.45508736480193,
                41.9563412647561
              ],
              [
                -71.45482298850133,
                41.95616027431571
              ],
              [
                -71.45400872054736,
                41.955403148102135
              ],
              [
                -71.45359009567709,
                41.95492885349342
              ],
              [
                -71.45325803885838,
                41.95462161355125
              ],
              [
                -71.45281065895621,
                41.95397489404266
              ],
              [
                -71.45207795198795,
                41.953423644523596
              ],
              [
                -71.4519210326426,
                41.95352604789902
              ],
              [
                -71.45171494660545,
                41.95357229636768
              ],
              [
                -71.45172209204206,
                41.95378278238218
              ],
              [
                -71.4539624191971,
                41.95648849316504
              ]
            ]
          ],
          [
            [
              [
                -71.52451527897044,
                42.00242463339319
              ],
              [
                -71.52435205556941,
                42.00220994914452
              ],
              [
                -71.52413638233931,
                42.00202925887303
              ],
              [
                -71.52387505624718,
                42.001885963151835
              ],
              [
                -71.52355372074524,
                42.00178014294597
              ],
              [
                -71.52326262747724,
                42.001734696040145
              ],
              [
                -71.52293828835617,
                42.00173333612227
              ],
              [
                -71.52222596962562,
                42.00188703528439
              ],
              [
                -71.52391808586918,
                42.00255009901394
              ],
              [
                -71.52451527897044,
                42.00242463339319
              ]
            ]
          ],
          [
            [
              [
                -71.44473268963293,
                41.94925663260745
              ],
              [
                -71.44543858815884,
                41.94940800882951
              ],
              [
                -71.44782769776215,
                41.949760130668665
              ],
              [
                -71.44793454327511,
                41.94921712131684
              ],
              [
                -71.4471813170469,
                41.949254534033116
              ],
              [
                -71.44655011050624,
                41.94919586877808
              ],
              [
                -71.4448133125238,
                41.94866190629295
              ],
              [
                -71.44432301230275,
                41.9485527065247
              ],
              [
                -71.44349995835135,
                41.94839986673685
              ],
              [
                -71.443347345178,
                41.948486322231666
              ],
              [
                -71.44311557590537,
                41.9483888794108
              ],
              [
                -71.44273656584546,
                41.94816829888808
              ],
              [
                -71.4430440986763,
                41.94844968852941
              ],
              [
                -71.44358969964937,
                41.948821352615965
              ],
              [
                -71.44422556725083,
                41.94909572164362
              ],
              [
                -71.44473268963293,
                41.94925663260745
              ]
            ]
          ],
          [
            [
              [
                -71.44127666645063,
                41.944626569642104
              ],
              [
                -71.44157576655734,
                41.945301789145496
              ],
              [
                -71.44182425631716,
                41.945775979244665
              ],
              [
                -71.44218435293806,
                41.946424680160234
              ],
              [
                -71.442448221322,
                41.94675476133623
              ],
              [
                -71.44329707878754,
                41.946216646942965
              ],
              [
                -71.44258629668094,
                41.94573843769237
              ],
              [
                -71.4423021454271,
                41.94537042146968
              ],
              [
                -71.442023181216,
                41.94488863178401
              ],
              [
                -71.44167286436263,
                41.944668488854354
              ],
              [
                -71.44136816091857,
                41.94456593566424
              ],
              [
                -71.44127666645063,
                41.944626569642104
              ]
            ]
          ],
          [
            [
              [
                -71.44070782346316,
                41.94667939949948
              ],
              [
                -71.44068810972857,
                41.947054793305185
              ],
              [
                -71.44106802290499,
                41.947636583387414
              ],
              [
                -71.4412432151248,
                41.94775991894177
              ],
              [
                -71.44191632313205,
                41.94801178033503
              ],
              [
                -71.44215705230788,
                41.94823466993956
              ],
              [
                -71.44230608048268,
                41.948594214033456
              ],
              [
                -71.44235718795908,
                41.94899354616766
              ],
              [
                -71.44392582881974,
                41.949535856561276
              ],
              [
                -71.44444993249091,
                41.94967336422729
              ],
              [
                -71.44740775609247,
                41.95003626355125
              ],
              [
                -71.4477513863831,
                41.95011145220905
              ],
              [
                -71.44815575752435,
                41.950254375852374
              ],
              [
                -71.44845144719075,
                41.95040515323797
              ],
              [
                -71.44871615031799,
                41.950585181826206
              ],
              [
                -71.45032879233214,
                41.95192931667194
              ],
              [
                -71.45076332484973,
                41.95236028524355
              ],
              [
                -71.45156684514593,
                41.9532863933222
              ],
              [
                -71.451712330289,
                41.95333130852089
              ],
              [
                -71.4518933879394,
                41.953252326554306
              ],
              [
                -71.45158344928439,
                41.952950699036585
              ],
              [
                -71.45146077964792,
                41.952783626238556
              ],
              [
                -71.45117962285904,
                41.95206154062356
              ],
              [
                -71.45105007483576,
                41.95144727465215
              ],
              [
                -71.45021511640071,
                41.95088089441182
              ],
              [
                -71.44942173824579,
                41.950488619460714
              ],
              [
                -71.44833997662244,
                41.950120283276405
              ],
              [
                -71.4476554830122,
                41.949968736598954
              ],
              [
                -71.44467695078764,
                41.94956970112642
              ],
              [
                -71.44358567932251,
                41.94920919241379
              ],
              [
                -71.4428126196104,
                41.948791987810246
              ],
              [
                -71.44238280891001,
                41.94842435220497
              ],
              [
                -71.44198617698179,
                41.94796101686925
              ],
              [
                -71.44172188220739,
                41.94751627326554
              ],
              [
                -71.4415073045812,
                41.946982013872386
              ],
              [
                -71.44112863678534,
                41.94643593163386
              ],
              [
                -71.44070782346316,
                41.94667939949948
              ]
            ]
          ],
          [
            [
              [
                -71.55066654245762,
                42.01451113979761
              ],
              [
                -71.55318253563188,
                42.014458259018475
              ],
              [
                -71.55309584357819,
                42.01386852945522
              ],
              [
                -71.55292465551787,
                42.013475508810075
              ],
              [
                -71.55277896669293,
                42.01339803307904
              ],
              [
                -71.55221650719086,
                42.01326485535701
              ],
              [
                -71.5519314799757,
                42.01303385793174
              ],
              [
                -71.55186543613067,
                42.01292641055883
              ],
              [
                -71.55181025642862,
                42.01204096318886
              ],
              [
                -71.55173052458657,
                42.01135183132405
              ],
              [
                -71.5517378881896,
                42.01109364686272
              ],
              [
                -71.551655737691,
                42.01086230495306
              ],
              [
                -71.55162018083632,
                42.01057724660634
              ],
              [
                -71.55049093425288,
                42.01175952167763
              ],
              [
                -71.55066654245762,
                42.01451113979761
              ]
            ]
          ],
          [
            [
              [
                -71.55261547593882,
                42.004855032552044
              ],
              [
                -71.552641214582,
                42.0051301694447
              ],
              [
                -71.55262365465114,
                42.005473975822056
              ],
              [
                -71.55252298687282,
                42.005724423734065
              ],
              [
                -71.5523507395432,
                42.00599162299589
              ],
              [
                -71.55234257174685,
                42.006238419155494
              ],
              [
                -71.55219967201113,
                42.006627945373324
              ],
              [
                -71.55186333024434,
                42.00704999086111
              ],
              [
                -71.55162160836637,
                42.00748294510363
              ],
              [
                -71.5515603100754,
                42.007664083732266
              ],
              [
                -71.55135669599386,
                42.007943988082936
              ],
              [
                -71.55129056056613,
                42.00813251846974
              ],
              [
                -71.55106771431068,
                42.00834965849688
              ],
              [
                -71.55106317640603,
                42.00886862403546
              ],
              [
                -71.55108635547441,
                42.0089036934345
              ],
              [
                -71.5513741643025,
                42.008962257146806
              ],
              [
                -71.5514553624645,
                42.00915761523872
              ],
              [
                -71.55163071112707,
                42.009299340855726
              ],
              [
                -71.55161721902607,
                42.00949403463055
              ],
              [
                -71.55247819466203,
                42.009103760137485
              ],
              [
                -71.55270611462186,
                42.008884845960594
              ],
              [
                -71.55294886587238,
                42.00818904508249
              ],
              [
                -71.55285268006746,
                42.00778372077764
              ],
              [
                -71.55318743312206,
                42.006961886418885
              ],
              [
                -71.55349338727915,
                42.00663927168011
              ],
              [
                -71.55378698702201,
                42.00600413233598
              ],
              [
                -71.55406598166294,
                42.005748910651064
              ],
              [
                -71.55396909526995,
                42.005579847158245
              ],
              [
                -71.5525998481771,
                42.004811579877305
              ],
              [
                -71.55261547593882,
                42.004855032552044
              ]
            ]
          ],
          [
            [
              [
                -71.55164239755933,
                42.010081109629255
              ],
              [
                -71.55189541077307,
                42.01075972709669
              ],
              [
                -71.55200748426941,
                42.01248984165599
              ],
              [
                -71.55207386974253,
                42.01290387955661
              ],
              [
                -71.55215871965983,
                42.013019348132765
              ],
              [
                -71.55241702993008,
                42.01316494477031
              ],
              [
                -71.55306619013653,
                42.013312877159265
              ],
              [
                -71.55332715505725,
                42.01347180140597
              ],
              [
                -71.55347357284018,
                42.013690695014
              ],
              [
                -71.55351725112436,
                42.013812811626245
              ],
              [
                -71.55355970681107,
                42.01445027075378
              ],
              [
                -71.55865329628756,
                42.01434227276394
              ],
              [
                -71.55863399615063,
                42.01416402394255
              ],
              [
                -71.55934382604207,
                42.01270599941196
              ],
              [
                -71.55940686042591,
                42.01214912398456
              ],
              [
                -71.55940669801309,
                42.011491987510524
              ],
              [
                -71.55623169681543,
                42.0094518209921
              ],
              [
                -71.55416482433988,
                42.00993959042316
              ],
              [
                -71.55387950439408,
                42.00948692872563
              ],
              [
                -71.55164239755933,
                42.010081109629255
              ]
            ]
          ]
        ]
      }
    }
  ],
  "bbox": [
    -71.55940686042591,
    41.88716428490658,
    -71.3800998394812,
    42.01451113979761
  ]
}
