{
  "$schema": "https://ripota.org/schemas/web/v1/display-geojson.schema.json",
  "type": "FeatureCollection",
  "properties": {
    "schemaVersion": 1,
    "geometryRole": "display",
    "geometryKind": "boundary",
    "potaReference": "US-2876",
    "potaName": "Goddard Memorial State Park",
    "sourceName": "Rhode Island DEM State Conservation Land",
    "sourceUrl": "https://risegis.ri.gov/hosting/rest/services/RIDEM/State_Conservation_Land/MapServer/0",
    "sourceQuery": "DEM_AREA = 'Goddard State Park'",
    "sourceFeatureIds": [
      94
    ],
    "fidelity": "web",
    "detailedArtifact": "@ripota/parks/boundaries/us-2876.geojson"
  },
  "features": [
    {
      "type": "Feature",
      "properties": {
        "potaReference": "US-2876",
        "potaName": "Goddard Memorial State Park",
        "geometryKind": "boundary",
        "geometryRole": "display",
        "fidelity": "web"
      },
      "geometry": {
        "type": "Polygon",
        "coordinates": [
          [
            [
              -71.42481861408285,
              41.67049076227315
            ],
            [
              -71.42484883207693,
              41.670569830395664
            ],
            [
              -71.42498280570794,
              41.67063796922611
            ],
            [
              -71.42519414753501,
              41.67081200597102
            ],
            [
              -71.4254149226095,
              41.67108836130291
            ],
            [
              -71.42551543876516,
              41.67110883683374
            ],
            [
              -71.4256472501855,
              41.671068550754974
            ],
            [
              -71.42617228074374,
              41.67074375244149
            ],
            [
              -71.42625805870536,
              41.67059915231973
            ],
            [
              -71.4263946788862,
              41.67021434415387
            ],
            [
              -71.42671662243329,
              41.66977516406552
            ],
            [
              -71.42712596619205,
              41.66938007079891
            ],
            [
              -71.42793885396443,
              41.66885526216102
            ],
            [
              -71.42999822138142,
              41.66787415529999
            ],
            [
              -71.43043748714749,
              41.667702344316716
            ],
            [
              -71.43149557864272,
              41.66735878303503
            ],
            [
              -71.43292301265386,
              41.66697053143595
            ],
            [
              -71.43310265595674,
              41.66689581042556
            ],
            [
              -71.4338012785366,
              41.6667466067078
            ],
            [
              -71.43505885599953,
              41.66657520407694
            ],
            [
              -71.43631620826979,
              41.666508586406415
            ],
            [
              -71.43717428716022,
              41.666561414818766
            ],
            [
              -71.43794251193144,
              41.66668905727348
            ],
            [
              -71.43862090854016,
              41.666868959646266
            ],
            [
              -71.4390300045879,
              41.666884143231414
            ],
            [
              -71.4398181161358,
              41.6670342090725
            ],
            [
              -71.44028034769691,
              41.666978534809665
            ],
            [
              -71.44057206599037,
              41.666903646010965
            ],
            [
              -71.44107780340545,
              41.66667093971412
            ],
            [
              -71.44137877936214,
              41.666474489067255
            ],
            [
              -71.44149990699745,
              41.66633804197945
            ],
            [
              -71.44149145936308,
              41.66628940177722
            ],
            [
              -71.44136308867847,
              41.666246101748506
            ],
            [
              -71.4408108444098,
              41.66618801708992
            ],
            [
              -71.44050666239019,
              41.666074978622014
            ],
            [
              -71.44026238634265,
              41.66586960747319
            ],
            [
              -71.44018606052842,
              41.66572928553986
            ],
            [
              -71.44016874043758,
              41.66559645560471
            ],
            [
              -71.44052010376399,
              41.664831272860525
            ],
            [
              -71.44084780812888,
              41.66428823914776
            ],
            [
              -71.44104267722678,
              41.663552004464314
            ],
            [
              -71.4410423935331,
              41.66332990763534
            ],
            [
              -71.44100251415699,
              41.66313619790548
            ],
            [
              -71.44095412145454,
              41.66302740713455
            ],
            [
              -71.44063042128158,
              41.66264256473392
            ],
            [
              -71.44058066161628,
              41.662530279672964
            ],
            [
              -71.44058089544369,
              41.662275915776775
            ],
            [
              -71.44065981070267,
              41.662084905309825
            ],
            [
              -71.44098069494993,
              41.661542830825816
            ],
            [
              -71.44107064646752,
              41.661348373716656
            ],
            [
              -71.441100800835,
              41.661138876812124
            ],
            [
              -71.44120069441853,
              41.66095184279327
            ],
            [
              -71.44154890938879,
              41.6605916355463
            ],
            [
              -71.44173246492751,
              41.66032971062531
            ],
            [
              -71.44174011992962,
              41.66021140915457
            ],
            [
              -71.44153089534558,
              41.659897034766914
            ],
            [
              -71.44143137723597,
              41.6596725076113
            ],
            [
              -71.44142170011129,
              41.65937319947652
            ],
            [
              -71.44157015708457,
              41.658718711738274
            ],
            [
              -71.4416210701748,
              41.65831154979888
            ],
            [
              -71.44167206728457,
              41.658192454563256
            ],
            [
              -71.44189225458811,
              41.65788164267489
            ],
            [
              -71.442015776921,
              41.657607402218225
            ],
            [
              -71.4420869377881,
              41.65731799739094
            ],
            [
              -71.44213231195398,
              41.656832961460026
            ],
            [
              -71.44220030152592,
              41.65663401112455
            ],
            [
              -71.44241420888676,
              41.65636809085851
            ],
            [
              -71.44305681222717,
              41.655856787709865
            ],
            [
              -71.44365364443182,
              41.65530272890273
            ],
            [
              -71.44398388628498,
              41.65478065431577
            ],
            [
              -71.4442152778065,
              41.6545133660699
            ],
            [
              -71.44419802947225,
              41.65442478953522
            ],
            [
              -71.44427767211141,
              41.65436082920969
            ],
            [
              -71.44456926069482,
              41.654232373521175
            ],
            [
              -71.44483724492777,
              41.65415857692929
            ],
            [
              -71.44575933691237,
              41.65405130125752
            ],
            [
              -71.44606585778472,
              41.65397486209347
            ],
            [
              -71.44627976407564,
              41.653884227803275
            ],
            [
              -71.44654644961673,
              41.65371887822662
            ],
            [
              -71.44680094105625,
              41.65350000728437
            ],
            [
              -71.446998281258,
              41.65325135141003
            ],
            [
              -71.44720806994033,
              41.652881092854436
            ],
            [
              -71.44748337781822,
              41.652649580672076
            ],
            [
              -71.44836154271147,
              41.652388110394256
            ],
            [
              -71.4486509640958,
              41.652231084591776
            ],
            [
              -71.44881069174185,
              41.65210397269243
            ],
            [
              -71.448840840366,
              41.651864544312765
            ],
            [
              -71.44882086516968,
              41.65181964041997
            ],
            [
              -71.44874107652285,
              41.65178967486792
            ],
            [
              -71.4486813271228,
              41.65172232596488
            ],
            [
              -71.4486079274758,
              41.65156560949696
            ],
            [
              -71.44859935098049,
              41.65142255804118
            ],
            [
              -71.448631931259,
              41.65128859347752
            ],
            [
              -71.44870679869788,
              41.651179111653605
            ],
            [
              -71.44907083419072,
              41.65093706484507
            ],
            [
              -71.44924104059115,
              41.65071004681385
            ],
            [
              -71.44924589511636,
              41.65049912262871
            ],
            [
              -71.44903067387844,
              41.65009807765011
            ],
            [
              -71.44929096888552,
              41.64988621478739
            ],
            [
              -71.44932135458916,
              41.649777227015214
            ],
            [
              -71.44929153265139,
              41.64960509333536
            ],
            [
              -71.44936150096382,
              41.649470438220206
            ],
            [
              -71.44979055849478,
              41.649261156843984
            ],
            [
              -71.45006010124384,
              41.649059222798144
            ],
            [
              -71.45029079510249,
              41.64882189588102
            ],
            [
              -71.44603720320086,
              41.64720305531824
            ],
            [
              -71.44575953565982,
              41.647407033502496
            ],
            [
              -71.44513043662396,
              41.64796078880014
            ],
            [
              -71.44455941436685,
              41.64851229609641
            ],
            [
              -71.44201731728636,
              41.651299448053
            ],
            [
              -71.44129766993639,
              41.652014193028606
            ],
            [
              -71.44094548467524,
              41.65226477564428
            ],
            [
              -71.4406323612003,
              41.65243622069227
            ],
            [
              -71.43947047301462,
              41.65293838322134
            ],
            [
              -71.43721235648523,
              41.65374344593512
            ],
            [
              -71.43618606852975,
              41.654214089478735
            ],
            [
              -71.43468625405418,
              41.655123589702306
            ],
            [
              -71.43067958018173,
              41.65771282697952
            ],
            [
              -71.42989429412776,
              41.65792687914354
            ],
            [
              -71.42848674233576,
              41.65838890193808
            ],
            [
              -71.43266056726968,
              41.66221400362185
            ],
            [
              -71.42578987145387,
              41.6631603797539
            ],
            [
              -71.42616182454681,
              41.66573131623355
            ],
            [
              -71.42600106510501,
              41.66579145896179
            ],
            [
              -71.42384454679654,
              41.66594626279529
            ],
            [
              -71.42481861408285,
              41.67049076227315
            ]
          ]
        ]
      }
    }
  ],
  "bbox": [
    -71.45029079510249,
    41.64720305531824,
    -71.42384454679654,
    41.67110883683374
  ]
}
