{
  "$schema": "https://ripota.org/schemas/web/v1/display-geojson.schema.json",
  "type": "FeatureCollection",
  "properties": {
    "schemaVersion": 1,
    "geometryRole": "display",
    "geometryKind": "boundary",
    "potaReference": "US-2871",
    "potaName": "Burlingame State Park",
    "sourceName": "Rhode Island DEM State Conservation Land",
    "sourceUrl": "https://risegis.ri.gov/hosting/rest/services/RIDEM/State_Conservation_Land/MapServer/0",
    "sourceQuery": "DEM_AREA LIKE 'Burlingame State Park%' OR DEM_AREA = 'Burlingame Management Area'",
    "sourceFeatureIds": [
      24,
      75,
      135,
      177,
      244,
      245,
      509,
      549,
      587,
      763,
      768,
      775,
      888,
      911,
      950
    ],
    "fidelity": "web",
    "detailedArtifact": "@ripota/parks/boundaries/us-2871.geojson"
  },
  "features": [
    {
      "type": "Feature",
      "properties": {
        "potaReference": "US-2871",
        "potaName": "Burlingame State Park",
        "geometryKind": "boundary",
        "geometryRole": "display",
        "fidelity": "web"
      },
      "geometry": {
        "type": "MultiPolygon",
        "coordinates": [
          [
            [
              [
                -71.69449433850173,
                41.4178282823818
              ],
              [
                -71.6960944267233,
                41.420822336063196
              ],
              [
                -71.69739417493088,
                41.419415037592074
              ],
              [
                -71.69860490136368,
                41.41879687131279
              ],
              [
                -71.70052021946866,
                41.41753499636597
              ],
              [
                -71.70026378737171,
                41.41551626418168
              ],
              [
                -71.70216770341777,
                41.41408714451725
              ],
              [
                -71.70295550017546,
                41.41343581282507
              ],
              [
                -71.70280501354297,
                41.41340887967994
              ],
              [
                -71.70254312114746,
                41.41323371903854
              ],
              [
                -71.70102967318087,
                41.41201511491094
              ],
              [
                -71.69919043829053,
                41.41130694765744
              ],
              [
                -71.69847634192861,
                41.41332294913653
              ],
              [
                -71.69596230930034,
                41.413702438708256
              ],
              [
                -71.69608939267378,
                41.40973302559851
              ],
              [
                -71.69457052970407,
                41.40894752234688
              ],
              [
                -71.69406415101267,
                41.40888037718657
              ],
              [
                -71.69365267399586,
                41.408879280461235
              ],
              [
                -71.69328452477333,
                41.40892963153857
              ],
              [
                -71.69245445194836,
                41.40919786685476
              ],
              [
                -71.6915942352555,
                41.409396026470084
              ],
              [
                -71.69111010174541,
                41.40940397903225
              ],
              [
                -71.69083460970452,
                41.40934011318823
              ],
              [
                -71.69027444744184,
                41.40931960046443
              ],
              [
                -71.69449433850173,
                41.4178282823818
              ]
            ]
          ],
          [
            [
              [
                -71.69207934255691,
                41.41296135058595
              ],
              [
                -71.68866816051407,
                41.41343044253671
              ],
              [
                -71.68846432086073,
                41.41407400351595
              ],
              [
                -71.6883430329187,
                41.41481272228491
              ],
              [
                -71.68820819671531,
                41.415244143539994
              ],
              [
                -71.68825659507145,
                41.41556567772207
              ],
              [
                -71.68874467944087,
                41.41690612538566
              ],
              [
                -71.68887795864272,
                41.417029787763255
              ],
              [
                -71.6891060919535,
                41.417122323846726
              ],
              [
                -71.68932913873037,
                41.41738456505509
              ],
              [
                -71.69409825825215,
                41.41703011709423
              ],
              [
                -71.69207934255691,
                41.41296135058595
              ]
            ]
          ],
          [
            [
              [
                -71.68649996196375,
                41.37439549284034
              ],
              [
                -71.68656953425352,
                41.37451805012872
              ],
              [
                -71.68557003441138,
                41.37535704931433
              ],
              [
                -71.68299763653894,
                41.37631519352548
              ],
              [
                -71.68093836662193,
                41.37723871357625
              ],
              [
                -71.68003981341965,
                41.37759840489896
              ],
              [
                -71.67930375793921,
                41.377767137467316
              ],
              [
                -71.6779196844254,
                41.37826369431051
              ],
              [
                -71.67724339061834,
                41.379304013918826
              ],
              [
                -71.67656622641942,
                41.38003092347777
              ],
              [
                -71.67489841499759,
                41.380376106760274
              ],
              [
                -71.67498430878344,
                41.38105150542697
              ],
              [
                -71.67464092808895,
                41.3816431140865
              ],
              [
                -71.67656288175937,
                41.38118549893288
              ],
              [
                -71.67718746689492,
                41.381003452234935
              ],
              [
                -71.67933967018351,
                41.381121121456644
              ],
              [
                -71.6792422665141,
                41.38098162067449
              ],
              [
                -71.6791597219644,
                41.38075765540804
              ],
              [
                -71.6789367188569,
                41.38041699044225
              ],
              [
                -71.67892807841503,
                41.38037178262868
              ],
              [
                -71.6790885962057,
                41.37997993326616
              ],
              [
                -71.67947281631093,
                41.37936064094897
              ],
              [
                -71.67990876217716,
                41.378738018651525
              ],
              [
                -71.68051684967554,
                41.37799820655501
              ],
              [
                -71.68078437240915,
                41.377758461329535
              ],
              [
                -71.68114712237562,
                41.37748894483441
              ],
              [
                -71.68161205973836,
                41.377223521293125
              ],
              [
                -71.68212266538902,
                41.37710092491159
              ],
              [
                -71.68263303744156,
                41.37689550785215
              ],
              [
                -71.68274940736573,
                41.37687827294772
              ],
              [
                -71.68276894400881,
                41.37692614641626
              ],
              [
                -71.68282718923746,
                41.37693904410348
              ],
              [
                -71.68296499536972,
                41.37687793037334
              ],
              [
                -71.68351235728086,
                41.376795053075654
              ],
              [
                -71.68377963041571,
                41.37699803268703
              ],
              [
                -71.68397230011844,
                41.37705738596791
              ],
              [
                -71.6847390729946,
                41.37680121016849
              ],
              [
                -71.68491769594505,
                41.3766896884608
              ],
              [
                -71.68455436837766,
                41.376324908871425
              ],
              [
                -71.68491542624253,
                41.376130161287726
              ],
              [
                -71.68462733827576,
                41.37584532270602
              ],
              [
                -71.685106618118,
                41.37568820018491
              ],
              [
                -71.68555514314842,
                41.37631336708948
              ],
              [
                -71.68581536508867,
                41.376221380026394
              ],
              [
                -71.68592081654144,
                41.37615625504268
              ],
              [
                -71.68605170333765,
                41.375938445069814
              ],
              [
                -71.68609020820075,
                41.375832831368605
              ],
              [
                -71.68610453958135,
                41.37556649307218
              ],
              [
                -71.68614731418883,
                41.37544625788709
              ],
              [
                -71.68622687184651,
                41.37537305460144
              ],
              [
                -71.68648102247533,
                41.37528982602876
              ],
              [
                -71.68677222479265,
                41.37497568606285
              ],
              [
                -71.68699725851559,
                41.37481723923024
              ],
              [
                -71.68712944465155,
                41.374766771572354
              ],
              [
                -71.68718283811177,
                41.3746800490866
              ],
              [
                -71.68738174887264,
                41.374584534021416
              ],
              [
                -71.68814355593904,
                41.37433509030554
              ],
              [
                -71.6884690022005,
                41.374282594194945
              ],
              [
                -71.68891953890143,
                41.374284377485615
              ],
              [
                -71.68939476307915,
                41.374374668308725
              ],
              [
                -71.68991523400172,
                41.37468106554123
              ],
              [
                -71.69009003855749,
                41.37487539243101
              ],
              [
                -71.69019573308044,
                41.37507442628372
              ],
              [
                -71.69020518696433,
                41.375205625592756
              ],
              [
                -71.69012489667068,
                41.375502229028996
              ],
              [
                -71.68984045459167,
                41.375855726805185
              ],
              [
                -71.68976281064823,
                41.37601201563817
              ],
              [
                -71.68985656832106,
                41.376208818421794
              ],
              [
                -71.6898150539838,
                41.37641250826265
              ],
              [
                -71.68979085243122,
                41.37684403259979
              ],
              [
                -71.68982666665016,
                41.37732009481776
              ],
              [
                -71.68980894359383,
                41.377397033435145
              ],
              [
                -71.6899942688756,
                41.37759589098983
              ],
              [
                -71.69027587371586,
                41.37780593604124
              ],
              [
                -71.69040872552043,
                41.37805013424492
              ],
              [
                -71.69070945827849,
                41.37846115035742
              ],
              [
                -71.69090386203787,
                41.37886172807267
              ],
              [
                -71.69087039212576,
                41.37964882862182
              ],
              [
                -71.69080819001918,
                41.38003651380302
              ],
              [
                -71.69088386337575,
                41.38021740474949
              ],
              [
                -71.6911006625483,
                41.38040040332556
              ],
              [
                -71.69188468858185,
                41.380547594997786
              ],
              [
                -71.6924176847616,
                41.38070602696886
              ],
              [
                -71.6932810208108,
                41.38102365535099
              ],
              [
                -71.69367481515337,
                41.38106369983476
              ],
              [
                -71.69404120266599,
                41.381006526112905
              ],
              [
                -71.69424964325194,
                41.38105116427681
              ],
              [
                -71.69470884817387,
                41.38120910958422
              ],
              [
                -71.69508841321856,
                41.38150268612929
              ],
              [
                -71.69525074627543,
                41.38153861444407
              ],
              [
                -71.69538957706446,
                41.38136676086584
              ],
              [
                -71.69554153812696,
                41.381298205826184
              ],
              [
                -71.69577875055697,
                41.3812457489518
              ],
              [
                -71.6961758888174,
                41.38141258106734
              ],
              [
                -71.69652456821764,
                41.381514536379726
              ],
              [
                -71.69676604563793,
                41.381542024694355
              ],
              [
                -71.69734203361898,
                41.38151019125005
              ],
              [
                -71.69853311728154,
                41.38162464275969
              ],
              [
                -71.69890181712138,
                41.38159342097108
              ],
              [
                -71.69937849571156,
                41.381225969373794
              ],
              [
                -71.69970251439747,
                41.38105339700053
              ],
              [
                -71.70003286510627,
                41.38101661958136
              ],
              [
                -71.70036750886038,
                41.38091884003823
              ],
              [
                -71.70088586204476,
                41.38087707484804
              ],
              [
                -71.70134810638828,
                41.38075713836554
              ],
              [
                -71.70184616676376,
                41.380581957443844
              ],
              [
                -71.70214443176756,
                41.380533079218445
              ],
              [
                -71.70309590091269,
                41.380563843816006
              ],
              [
                -71.70357950086124,
                41.38023499640049
              ],
              [
                -71.7038027664268,
                41.38002484281265
              ],
              [
                -71.70409283007895,
                41.380019537649765
              ],
              [
                -71.70424857793274,
                41.3798848482492
              ],
              [
                -71.70424658827834,
                41.38006735659129
              ],
              [
                -71.7046652406311,
                41.379873213896296
              ],
              [
                -71.70479825349717,
                41.37984158898863
              ],
              [
                -71.7049343793756,
                41.37985914142762
              ],
              [
                -71.70507930050334,
                41.37992089261801
              ],
              [
                -71.70519953076393,
                41.380024836703974
              ],
              [
                -71.7053092881706,
                41.38016572422116
              ],
              [
                -71.70533551273509,
                41.380322195525835
              ],
              [
                -71.70520392008741,
                41.380624064564266
              ],
              [
                -71.70464364938776,
                41.38130324037167
              ],
              [
                -71.70430060802727,
                41.38215613184289
              ],
              [
                -71.70391365881784,
                41.382808261147055
              ],
              [
                -71.70381700495999,
                41.38321711792986
              ],
              [
                -71.70375159878847,
                41.38382326450316
              ],
              [
                -71.70327892368404,
                41.384597200122506
              ],
              [
                -71.70311935226712,
                41.38526276926934
              ],
              [
                -71.70322762073373,
                41.385751126984616
              ],
              [
                -71.70335155934447,
                41.385998275353835
              ],
              [
                -71.7034587319276,
                41.38613413757385
              ],
              [
                -71.70350073255936,
                41.38643708663429
              ],
              [
                -71.7034604091484,
                41.38667215722944
              ],
              [
                -71.70323276229466,
                41.38740229063563
              ],
              [
                -71.70322518405993,
                41.38760638146487
              ],
              [
                -71.70309620573313,
                41.38837962998722
              ],
              [
                -71.70304080117187,
                41.38904761777019
              ],
              [
                -71.7027225794973,
                41.38970369896854
              ],
              [
                -71.70236311918967,
                41.39030419486113
              ],
              [
                -71.70225676618233,
                41.39043424941249
              ],
              [
                -71.70216641709507,
                41.390428225086396
              ],
              [
                -71.70208462204636,
                41.390533499434405
              ],
              [
                -71.70207673707597,
                41.39063864304915
              ],
              [
                -71.70197057436027,
                41.390830539674084
              ],
              [
                -71.70194626444342,
                41.39093571210279
              ],
              [
                -71.70210259684693,
                41.39103438519458
              ],
              [
                -71.70191639692655,
                41.39103120049149
              ],
              [
                -71.70186279025833,
                41.390915164508584
              ],
              [
                -71.70173078939757,
                41.390933812031676
              ],
              [
                -71.70159629143208,
                41.39106802385679
              ],
              [
                -71.70105147788436,
                41.39116802367129
              ],
              [
                -71.70052894057623,
                41.39106148717385
              ],
              [
                -71.70034034359144,
                41.3905855839225
              ],
              [
                -71.70013652604077,
                41.3903021571873
              ],
              [
                -71.69999464517178,
                41.38991822250447
              ],
              [
                -71.69978303939317,
                41.38958094986518
              ],
              [
                -71.69909863955687,
                41.38911067905697
              ],
              [
                -71.69832641264084,
                41.38833173548987
              ],
              [
                -71.69776191829835,
                41.38781359580762
              ],
              [
                -71.69759562690406,
                41.38757883180232
              ],
              [
                -71.69677198098515,
                41.38780531095875
              ],
              [
                -71.69560154390194,
                41.38827110295894
              ],
              [
                -71.69497840527762,
                41.388369080412566
              ],
              [
                -71.69460706488223,
                41.388265203194884
              ],
              [
                -71.6940286929851,
                41.38844988829447
              ],
              [
                -71.69371520260802,
                41.38878596873223
              ],
              [
                -71.69353739797054,
                41.389312527410944
              ],
              [
                -71.69347592531882,
                41.38985884866136
              ],
              [
                -71.69307537478925,
                41.390160939178514
              ],
              [
                -71.69256229684206,
                41.39046116912559
              ],
              [
                -71.69227827622116,
                41.390949675714246
              ],
              [
                -71.69227496972272,
                41.39143158646904
              ],
              [
                -71.69252601487207,
                41.3917904742424
              ],
              [
                -71.69272670458692,
                41.39224060482261
              ],
              [
                -71.69255967699326,
                41.39262277865388
              ],
              [
                -71.69223597064021,
                41.39293698212946
              ],
              [
                -71.69213823968559,
                41.39294007348504
              ],
              [
                -71.6919595115714,
                41.39303120485237
              ],
              [
                -71.69135898370635,
                41.39322279157318
              ],
              [
                -71.69039397316018,
                41.3931886579033
              ],
              [
                -71.68963369961354,
                41.39284447488115
              ],
              [
                -71.68922132522164,
                41.392463980778466
              ],
              [
                -71.68907772080574,
                41.39203539699413
              ],
              [
                -71.68869188313245,
                41.3917971036761
              ],
              [
                -71.68845226220039,
                41.39192387032916
              ],
              [
                -71.68835879192149,
                41.39193453022476
              ],
              [
                -71.68805875764211,
                41.391869935930515
              ],
              [
                -71.68788656063701,
                41.39206553447622
              ],
              [
                -71.68778072580618,
                41.39206134386477
              ],
              [
                -71.68649866219738,
                41.39177754962459
              ],
              [
                -71.68589622940138,
                41.39130205769098
              ],
              [
                -71.68580074580082,
                41.391099713882234
              ],
              [
                -71.68557079840946,
                41.390860291137685
              ],
              [
                -71.68552108819934,
                41.390876066297295
              ],
              [
                -71.68502037095698,
                41.390433971951516
              ],
              [
                -71.68476706483857,
                41.39014691484839
              ],
              [
                -71.68472769932393,
                41.39003836818588
              ],
              [
                -71.6847626318471,
                41.38962638731262
              ],
              [
                -71.68505432057019,
                41.38863239967741
              ],
              [
                -71.68510742475195,
                41.388299639674884
              ],
              [
                -71.68518818372759,
                41.38815469713286
              ],
              [
                -71.6851405030254,
                41.38806966910404
              ],
              [
                -71.68225931737669,
                41.38891892150319
              ],
              [
                -71.67822437028646,
                41.39005141592014
              ],
              [
                -71.67848836327444,
                41.39029147319257
              ],
              [
                -71.6787049040681,
                41.39054995205832
              ],
              [
                -71.6795784250463,
                41.392091031493734
              ],
              [
                -71.68105390782368,
                41.39167056027319
              ],
              [
                -71.68132997190298,
                41.39220595076582
              ],
              [
                -71.67988931544645,
                41.39266679123248
              ],
              [
                -71.68006846848394,
                41.392806643191086
              ],
              [
                -71.68019303140338,
                41.39295904380316
              ],
              [
                -71.68028642194665,
                41.39316518079746
              ],
              [
                -71.6803113698321,
                41.39335885709668
              ],
              [
                -71.68028516971059,
                41.39353679788281
              ],
              [
                -71.67974123068026,
                41.39535869576628
              ],
              [
                -71.67973325067344,
                41.39568699113942
              ],
              [
                -71.67978588316588,
                41.39614535999774
              ],
              [
                -71.68012366910757,
                41.39724841956195
              ],
              [
                -71.68015754382607,
                41.39759639614211
              ],
              [
                -71.6800694703556,
                41.39807977042066
              ],
              [
                -71.67984009016644,
                41.39853935169793
              ],
              [
                -71.67979771516002,
                41.39870359079973
              ],
              [
                -71.67964618677694,
                41.39980587333049
              ],
              [
                -71.6796420116226,
                41.40052305776855
              ],
              [
                -71.67967966199951,
                41.40097783004577
              ],
              [
                -71.6798197892216,
                41.401876777131925
              ],
              [
                -71.67994172062467,
                41.402226609344346
              ],
              [
                -71.68018431399854,
                41.40275232774173
              ],
              [
                -71.68023271902423,
                41.403121293974756
              ],
              [
                -71.68019337555091,
                41.403351587497056
              ],
              [
                -71.67970181857837,
                41.40482547806542
              ],
              [
                -71.679472254956,
                41.40568293662736
              ],
              [
                -71.67939304205747,
                41.4061228576495
              ],
              [
                -71.67934143971112,
                41.40695229488122
              ],
              [
                -71.67938236275184,
                41.40721789557301
              ],
              [
                -71.67995454757094,
                41.407998880378194
              ],
              [
                -71.67983169855815,
                41.40825318829336
              ],
              [
                -71.6799481172342,
                41.40845804555058
              ],
              [
                -71.6803356654267,
                41.40895208151623
              ],
              [
                -71.68071986948434,
                41.40930671174023
              ],
              [
                -71.68125115346423,
                41.40966280361944
              ],
              [
                -71.68159961761855,
                41.409834809485375
              ],
              [
                -71.68230859245111,
                41.410123890481294
              ],
              [
                -71.68324031210925,
                41.41039430374387
              ],
              [
                -71.68506629636246,
                41.40993231001822
              ],
              [
                -71.68562052245775,
                41.410052256921176
              ],
              [
                -71.68596705050116,
                41.41021286795199
              ],
              [
                -71.68632243631727,
                41.41016946436313
              ],
              [
                -71.68695765812059,
                41.40994464112712
              ],
              [
                -71.6876348188228,
                41.40975865066981
              ],
              [
                -71.68857540792189,
                41.409408161170546
              ],
              [
                -71.68872730057511,
                41.409407912126845
              ],
              [
                -71.6891162328601,
                41.40930721606297
              ],
              [
                -71.68978991792261,
                41.40919175451373
              ],
              [
                -71.69058722241931,
                41.40914755483229
              ],
              [
                -71.69086052623075,
                41.40923767889715
              ],
              [
                -71.69151410870464,
                41.40916943890431
              ],
              [
                -71.69228537299428,
                41.40902642798471
              ],
              [
                -71.69330777196636,
                41.408750314725204
              ],
              [
                -71.69373815383781,
                41.40871097609722
              ],
              [
                -71.6943344922967,
                41.40878061707804
              ],
              [
                -71.694524512771,
                41.408743867408695
              ],
              [
                -71.69643547902376,
                41.40654586345418
              ],
              [
                -71.69688150362225,
                41.405128819809704
              ],
              [
                -71.69735999122,
                41.4029270006739
              ],
              [
                -71.69751093204152,
                41.402560141564656
              ],
              [
                -71.69768291104006,
                41.40232262807426
              ],
              [
                -71.6979981437127,
                41.4020388940872
              ],
              [
                -71.69968009043974,
                41.40104440674792
              ],
              [
                -71.69990318462803,
                41.400843954611005
              ],
              [
                -71.70008699053697,
                41.40057216907842
              ],
              [
                -71.7008286849833,
                41.39889147212544
              ],
              [
                -71.70096948178822,
                41.39867445802617
              ],
              [
                -71.7012272499261,
                41.39849358143835
              ],
              [
                -71.70219277529016,
                41.39814389987395
              ],
              [
                -71.70279524880742,
                41.397886107696905
              ],
              [
                -71.7031317250827,
                41.39778206110756
              ],
              [
                -71.7035410860847,
                41.39774784799682
              ],
              [
                -71.70482333296493,
                41.39792050808327
              ],
              [
                -71.70522714134297,
                41.39789562436624
              ],
              [
                -71.7056130801412,
                41.397803019197404
              ],
              [
                -71.70600127886291,
                41.3976319553893
              ],
              [
                -71.70742954396322,
                41.39673645924325
              ],
              [
                -71.70859714631199,
                41.39584178635346
              ],
              [
                -71.71107522386765,
                41.3942794467584
              ],
              [
                -71.71122550799117,
                41.39414597561105
              ],
              [
                -71.71134232525591,
                41.39394259062325
              ],
              [
                -71.71178480390559,
                41.39278723573736
              ],
              [
                -71.71180394379785,
                41.39190769550349
              ],
              [
                -71.71186004408561,
                41.391232699231566
              ],
              [
                -71.7120350296703,
                41.38993140088058
              ],
              [
                -71.71208518265693,
                41.389764161317906
              ],
              [
                -71.71222998495841,
                41.38961691992827
              ],
              [
                -71.71244350075766,
                41.38955114373881
              ],
              [
                -71.7158048727889,
                41.38916052103783
              ],
              [
                -71.71526374542916,
                41.386738218701815
              ],
              [
                -71.71485023290758,
                41.38454269631712
              ],
              [
                -71.71485222885232,
                41.38078583336054
              ],
              [
                -71.71537826071025,
                41.38071102188723
              ],
              [
                -71.71434947943084,
                41.37800346335205
              ],
              [
                -71.71619446324345,
                41.37682690637409
              ],
              [
                -71.71606752061197,
                41.376706900512204
              ],
              [
                -71.7159879757066,
                41.376538010563856
              ],
              [
                -71.71584866278948,
                41.37570964754453
              ],
              [
                -71.71585641197835,
                41.3754289221956
              ],
              [
                -71.71606675000862,
                41.374417984984504
              ],
              [
                -71.71603970660104,
                41.374142097954426
              ],
              [
                -71.71595581991339,
                41.3739117963965
              ],
              [
                -71.71576884710221,
                41.373578752333245
              ],
              [
                -71.71545349019402,
                41.373244416787486
              ],
              [
                -71.71305154385587,
                41.37141971718959
              ],
              [
                -71.71284586897355,
                41.371210712762114
              ],
              [
                -71.71277609786165,
                41.37104081189455
              ],
              [
                -71.71145382863645,
                41.371185000739914
              ],
              [
                -71.71102616139966,
                41.37071730313688
              ],
              [
                -71.71068264478411,
                41.36881174349489
              ],
              [
                -71.71095311484522,
                41.368519434784076
              ],
              [
                -71.7111693491921,
                41.36856567137537
              ],
              [
                -71.71127331950093,
                41.36839055593712
              ],
              [
                -71.71142147952705,
                41.368258889586095
              ],
              [
                -71.71117956921955,
                41.366779406617994
              ],
              [
                -71.71117526446906,
                41.36624095606788
              ],
              [
                -71.71001551614455,
                41.36563290842736
              ],
              [
                -71.70929533715174,
                41.36533759346417
              ],
              [
                -71.70897282891553,
                41.36524136732578
              ],
              [
                -71.70873520798715,
                41.36520658528387
              ],
              [
                -71.70847141031807,
                41.36521751093282
              ],
              [
                -71.70764007720541,
                41.365313501268346
              ],
              [
                -71.70728652077398,
                41.36527160951658
              ],
              [
                -71.70690149805606,
                41.36516113579821
              ],
              [
                -71.70647954395127,
                41.3649368106109
              ],
              [
                -71.7058939072508,
                41.36450114772477
              ],
              [
                -71.705298727901,
                41.3640065894201
              ],
              [
                -71.70499278355742,
                41.36380740010388
              ],
              [
                -71.70472803098669,
                41.36369204695251
              ],
              [
                -71.70321194551893,
                41.363336356709475
              ],
              [
                -71.70288944584061,
                41.36319180187525
              ],
              [
                -71.7026311211658,
                41.36297555132317
              ],
              [
                -71.70248637312429,
                41.36274237705347
              ],
              [
                -71.70246006649386,
                41.36250013873325
              ],
              [
                -71.70253103445523,
                41.36203772171308
              ],
              [
                -71.7025298445734,
                41.361581093413044
              ],
              [
                -71.70226155050219,
                41.360660384336626
              ],
              [
                -71.69623671739222,
                41.362868689488906
              ],
              [
                -71.69121260117058,
                41.36440957916112
              ],
              [
                -71.68647751613275,
                41.365775878460596
              ],
              [
                -71.68839324351502,
                41.370444709213224
              ],
              [
                -71.68702135356976,
                41.37062922516815
              ],
              [
                -71.68703922017895,
                41.370705385276224
              ],
              [
                -71.68677091574729,
                41.37073563003837
              ],
              [
                -71.68673544095128,
                41.3706395957861
              ],
              [
                -71.68513908896136,
                41.37074159932706
              ],
              [
                -71.68596307669901,
                41.37288113345719
              ],
              [
                -71.68649996196375,
                41.37439549284034
              ]
            ]
          ],
          [
            [
              [
                -71.7066108961906,
                41.413449479459516
              ],
              [
                -71.7076976214778,
                41.413364219312804
              ],
              [
                -71.70883969862348,
                41.41385644304476
              ],
              [
                -71.71352782517106,
                41.41459309859591
              ],
              [
                -71.71321535791841,
                41.41483222917581
              ],
              [
                -71.71301252099906,
                41.41518083413093
              ],
              [
                -71.71159428538189,
                41.4158963607897
              ],
              [
                -71.7109631832529,
                41.41672833352207
              ],
              [
                -71.71059920305925,
                41.41696206250218
              ],
              [
                -71.70977119385942,
                41.41714329560002
              ],
              [
                -71.70967546283563,
                41.41686134676302
              ],
              [
                -71.70578804399129,
                41.41729965050092
              ],
              [
                -71.70584466569261,
                41.417607185459154
              ],
              [
                -71.70711565690118,
                41.417421548219714
              ],
              [
                -71.70723011421299,
                41.41776256969807
              ],
              [
                -71.70599173636658,
                41.41796652163305
              ],
              [
                -71.70645899778236,
                41.41879223156446
              ],
              [
                -71.71014638002771,
                41.41847224606537
              ],
              [
                -71.71028417024375,
                41.418944345688324
              ],
              [
                -71.71087611945697,
                41.4189764934345
              ],
              [
                -71.71154459462646,
                41.41907165441443
              ],
              [
                -71.7111611574024,
                41.41874266995889
              ],
              [
                -71.71093057663472,
                41.41838462089165
              ],
              [
                -71.71032376720603,
                41.41777345139521
              ],
              [
                -71.71017715920587,
                41.41758270869317
              ],
              [
                -71.7101247238021,
                41.41742469548027
              ],
              [
                -71.71168909144353,
                41.417191358861835
              ],
              [
                -71.71311864871554,
                41.41704504962589
              ],
              [
                -71.71411144704336,
                41.417131335130044
              ],
              [
                -71.71755741596006,
                41.41770588557985
              ],
              [
                -71.71811976517807,
                41.41668529622018
              ],
              [
                -71.71865689988633,
                41.41581961583261
              ],
              [
                -71.71976704462128,
                41.414572131148084
              ],
              [
                -71.72191291810014,
                41.41291612286554
              ],
              [
                -71.72248586448131,
                41.41252140217681
              ],
              [
                -71.72295511552116,
                41.41039536758067
              ],
              [
                -71.72298356488642,
                41.410143431589134
              ],
              [
                -71.7229263350111,
                41.40993929209725
              ],
              [
                -71.72301188171738,
                41.40927819357427
              ],
              [
                -71.72298592814093,
                41.40895907935004
              ],
              [
                -71.72302961776651,
                41.408752403188785
              ],
              [
                -71.7231844829992,
                41.4085710873946
              ],
              [
                -71.72323102166767,
                41.40844788841632
              ],
              [
                -71.72321485877114,
                41.40825105354176
              ],
              [
                -71.72312340812155,
                41.40807940132787
              ],
              [
                -71.72309179356404,
                41.4079220413075
              ],
              [
                -71.72311693772365,
                41.40725154590063
              ],
              [
                -71.72331045753018,
                41.405858267757196
              ],
              [
                -71.72334209236168,
                41.405417504086664
              ],
              [
                -71.72325904358003,
                41.40498114533806
              ],
              [
                -71.72339572586128,
                41.40413354396781
              ],
              [
                -71.72419926985538,
                41.40349346414132
              ],
              [
                -71.7250492924123,
                41.40307511699264
              ],
              [
                -71.72581381207888,
                41.40262017502744
              ],
              [
                -71.7262381265163,
                41.40244349415186
              ],
              [
                -71.72674427725606,
                41.40216579245919
              ],
              [
                -71.72720037742243,
                41.401554539421866
              ],
              [
                -71.72733612605587,
                41.401034952501405
              ],
              [
                -71.7272059669112,
                41.40058772420907
              ],
              [
                -71.72714521722574,
                41.40017187113385
              ],
              [
                -71.72705700406264,
                41.398956591945165
              ],
              [
                -71.72704946778696,
                41.39833083638644
              ],
              [
                -71.7271186351393,
                41.397857857055314
              ],
              [
                -71.72745223520712,
                41.39717187559073
              ],
              [
                -71.7261700232169,
                41.39720574346282
              ],
              [
                -71.72627952032919,
                41.395756949135645
              ],
              [
                -71.72375260112933,
                41.39509654336056
              ],
              [
                -71.7230731312838,
                41.394446114115865
              ],
              [
                -71.72096972302164,
                41.395441619334754
              ],
              [
                -71.72087315776298,
                41.39532526962293
              ],
              [
                -71.72003381962506,
                41.39563883793591
              ],
              [
                -71.71880709492005,
                41.396209981944565
              ],
              [
                -71.71821096553008,
                41.39640077649126
              ],
              [
                -71.71699548899652,
                41.39597349930999
              ],
              [
                -71.71531549698183,
                41.39520440988051
              ],
              [
                -71.71240850014823,
                41.39455491194771
              ],
              [
                -71.71234286256356,
                41.39484429864431
              ],
              [
                -71.7110797693607,
                41.39455645665579
              ],
              [
                -71.71095154941632,
                41.394497794388606
              ],
              [
                -71.70880564348727,
                41.39587161142716
              ],
              [
                -71.70692308644391,
                41.39728038458947
              ],
              [
                -71.705996311322,
                41.3978261548991
              ],
              [
                -71.7054991319403,
                41.398003738723695
              ],
              [
                -71.70506025729847,
                41.398070001932304
              ],
              [
                -71.7046792243965,
                41.39805725889602
              ],
              [
                -71.70357714021388,
                41.39787773714803
              ],
              [
                -71.70327205472509,
                41.397894229009786
              ],
              [
                -71.70297697132979,
                41.3979766544751
              ],
              [
                -71.70252829327748,
                41.3981876521143
              ],
              [
                -71.70134338996844,
                41.39862927026989
              ],
              [
                -71.70118388675411,
                41.398726292500044
              ],
              [
                -71.70105694792878,
                41.398930224055924
              ],
              [
                -71.700595954133,
                41.399992356130454
              ],
              [
                -71.7001083083808,
                41.40091158590162
              ],
              [
                -71.69994488835054,
                41.401072141320704
              ],
              [
                -71.6997773373594,
                41.40118398992411
              ],
              [
                -71.69812505811981,
                41.40216787662859
              ],
              [
                -71.69796793895566,
                41.4023038264818
              ],
              [
                -71.69776841651391,
                41.4025437287976
              ],
              [
                -71.69761627783663,
                41.40285773649915
              ],
              [
                -71.69712789697562,
                41.40506266026162
              ],
              [
                -71.69689784373469,
                41.40579640261564
              ],
              [
                -71.69688742057356,
                41.40603905799835
              ],
              [
                -71.69678104689727,
                41.40629920220009
              ],
              [
                -71.69665641559912,
                41.40648893972071
              ],
              [
                -71.69661528060233,
                41.406620126986
              ],
              [
                -71.69539449789599,
                41.40805964615031
              ],
              [
                -71.69471718311729,
                41.40876352148877
              ],
              [
                -71.69466222232025,
                41.40885477594991
              ],
              [
                -71.69525841666156,
                41.409086024196704
              ],
              [
                -71.69667669706126,
                41.409933758796065
              ],
              [
                -71.697691967802,
                41.4106394737519
              ],
              [
                -71.6980297141945,
                41.41077535191412
              ],
              [
                -71.698609313432,
                41.410938733393735
              ],
              [
                -71.69888499415616,
                41.411059755939185
              ],
              [
                -71.701051313288,
                41.41182154244921
              ],
              [
                -71.70123191721441,
                41.41193388888037
              ],
              [
                -71.70355865584962,
                41.41046960245248
              ],
              [
                -71.70395998098391,
                41.41049266691385
              ],
              [
                -71.70462177253606,
                41.41193061143048
              ],
              [
                -71.7061249646434,
                41.411668652452335
              ],
              [
                -71.7066108961906,
                41.413449479459516
              ]
            ]
          ],
          [
            [
              [
                -71.73766525360206,
                41.40047238546986
              ],
              [
                -71.73744414497014,
                41.40046068108191
              ],
              [
                -71.73681698699309,
                41.4006484034429
              ],
              [
                -71.73551741037593,
                41.400737627701524
              ],
              [
                -71.73476613245579,
                41.40083903598321
              ],
              [
                -71.73270592374524,
                41.40088982781284
              ],
              [
                -71.73212246413276,
                41.40093761402286
              ],
              [
                -71.73160064258657,
                41.40091203243687
              ],
              [
                -71.73127298597548,
                41.40077952779914
              ],
              [
                -71.73105139685931,
                41.40063349228754
              ],
              [
                -71.7310506657972,
                41.40042708927277
              ],
              [
                -71.73109417272794,
                41.4002272559114
              ],
              [
                -71.7313500681384,
                41.40007360338971
              ],
              [
                -71.73235994178005,
                41.39999340336456
              ],
              [
                -71.73255195279468,
                41.4000492124778
              ],
              [
                -71.73311688075985,
                41.400104158303876
              ],
              [
                -71.73376677745289,
                41.40006276723754
              ],
              [
                -71.73430957177686,
                41.39991730115944
              ],
              [
                -71.73471397433549,
                41.39977211490096
              ],
              [
                -71.73485195875676,
                41.39962747130067
              ],
              [
                -71.73483039930248,
                41.39955538830095
              ],
              [
                -71.73477677592881,
                41.39946722464792
              ],
              [
                -71.73447777753296,
                41.399275402314146
              ],
              [
                -71.73413615419243,
                41.39910767886117
              ],
              [
                -71.73374157109792,
                41.3990042780269
              ],
              [
                -71.73252642348903,
                41.39886237798723
              ],
              [
                -71.73191902280199,
                41.398839568406736
              ],
              [
                -71.73137529225701,
                41.39875241245978
              ],
              [
                -71.73041611455051,
                41.39868218858081
              ],
              [
                -71.72911538705989,
                41.39846027780965
              ],
              [
                -71.72873186009798,
                41.398453021829276
              ],
              [
                -71.72847626655195,
                41.398517659242195
              ],
              [
                -71.7280307468977,
                41.39905581072887
              ],
              [
                -71.72789372881442,
                41.39948106293921
              ],
              [
                -71.72784059149883,
                41.39952936779297
              ],
              [
                -71.72773400802718,
                41.39953757619583
              ],
              [
                -71.72766999676057,
                41.3995056484219
              ],
              [
                -71.7276586750154,
                41.399329255210326
              ],
              [
                -71.72784807670295,
                41.39860715637159
              ],
              [
                -71.72821930200563,
                41.39812524192285
              ],
              [
                -71.72814338013674,
                41.397748503217045
              ],
              [
                -71.72814279118477,
                41.397580086126
              ],
              [
                -71.72831191926178,
                41.397218899402084
              ],
              [
                -71.72823633580259,
                41.39690626804871
              ],
              [
                -71.72805507289652,
                41.396858534950375
              ],
              [
                -71.72794866191968,
                41.39691485731812
              ],
              [
                -71.7278001305701,
                41.397075551629776
              ],
              [
                -71.72756679164812,
                41.3974128291795
              ],
              [
                -71.72737669524066,
                41.397870325852345
              ],
              [
                -71.72726108528197,
                41.39832761115539
              ],
              [
                -71.72727296382529,
                41.39869645880784
              ],
              [
                -71.72733811868612,
                41.39905718127185
              ],
              [
                -71.72737353441744,
                41.400035504848056
              ],
              [
                -71.72752286794788,
                41.40072316371342
              ],
              [
                -71.72755527446833,
                41.40103352166157
              ],
              [
                -71.72753204158356,
                41.40145899931799
              ],
              [
                -71.72742645365807,
                41.401819180270046
              ],
              [
                -71.72730714027671,
                41.40200007698391
              ],
              [
                -71.72713832240646,
                41.40216115343535
              ],
              [
                -71.72674251758745,
                41.402494525825325
              ],
              [
                -71.72620471857837,
                41.40287661157698
              ],
              [
                -71.7256247283757,
                41.4032141156325
              ],
              [
                -71.7239069734602,
                41.4040728362638
              ],
              [
                -71.72369549806332,
                41.40422166136906
              ],
              [
                -71.72362691399036,
                41.40435174835133
              ],
              [
                -71.72355880036271,
                41.40458567358871
              ],
              [
                -71.72350617956516,
                41.40605019079481
              ],
              [
                -71.72346425885986,
                41.40628282066599
              ],
              [
                -71.72344330071584,
                41.40691487615776
              ],
              [
                -71.72335335402744,
                41.40749384890437
              ],
              [
                -71.72337480308362,
                41.40803559779041
              ],
              [
                -71.72351455484203,
                41.40842735259828
              ],
              [
                -71.7237702441952,
                41.408710067918854
              ],
              [
                -71.72402896728084,
                41.408880234307865
              ],
              [
                -71.7244225207867,
                41.409068769269595
              ],
              [
                -71.72491590621969,
                41.40920172570327
              ],
              [
                -71.72606711353835,
                41.40938255419178
              ],
              [
                -71.72633753123628,
                41.409473060634866
              ],
              [
                -71.72971348227648,
                41.40907048489784
              ],
              [
                -71.73662007713338,
                41.40591131915675
              ],
              [
                -71.73568828886482,
                41.40566531053514
              ],
              [
                -71.73905072113399,
                41.40428553199578
              ],
              [
                -71.73912958904347,
                41.40193531247011
              ],
              [
                -71.73917336435592,
                41.40178873994233
              ],
              [
                -71.7389692456662,
                41.401589418119876
              ],
              [
                -71.73881864741972,
                41.40151649091634
              ],
              [
                -71.73858775854879,
                41.401250641684825
              ],
              [
                -71.73851626140818,
                41.401044385467905
              ],
              [
                -71.73848878358433,
                41.400784772680574
              ],
              [
                -71.73835521722974,
                41.40053203728562
              ],
              [
                -71.73819534135536,
                41.40033928088442
              ],
              [
                -71.73794767280519,
                41.40031981872281
              ],
              [
                -71.73766525360206,
                41.40047238546986
              ]
            ],
            [
              [
                -71.73323477957219,
                41.405968209903456
              ],
              [
                -71.73345349110427,
                41.40596776635551
              ],
              [
                -71.73345397460744,
                41.40610284409354
              ],
              [
                -71.73323526262237,
                41.40610328764359
              ],
              [
                -71.73323477957219,
                41.405968209903456
              ]
            ]
          ],
          [
            [
              [
                -71.7153479387491,
                41.421262816400194
              ],
              [
                -71.71509685466667,
                41.42118554443335
              ],
              [
                -71.71491921419745,
                41.42100818106367
              ],
              [
                -71.71467212386305,
                41.420649551013064
              ],
              [
                -71.71365176376699,
                41.41994807377229
              ],
              [
                -71.71282819442635,
                41.419261032454024
              ],
              [
                -71.71245415789579,
                41.41918027960309
              ],
              [
                -71.711608412658,
                41.419229964740566
              ],
              [
                -71.71101791346058,
                41.419127393096076
              ],
              [
                -71.71027701458479,
                41.41908151623728
              ],
              [
                -71.71064234764434,
                41.4200942981258
              ],
              [
                -71.71100216764341,
                41.42145878420486
              ],
              [
                -71.71249136947479,
                41.42659291475339
              ],
              [
                -71.71364971686339,
                41.42682635061769
              ],
              [
                -71.71448974762583,
                41.42501081929536
              ],
              [
                -71.71541652391812,
                41.422669438873214
              ],
              [
                -71.71608024536191,
                41.42110966164581
              ],
              [
                -71.7153479387491,
                41.421262816400194
              ]
            ]
          ],
          [
            [
              [
                -71.7195806725847,
                41.42781117566825
              ],
              [
                -71.72000536499033,
                41.42787299085261
              ],
              [
                -71.72081223950775,
                41.42812246977878
              ],
              [
                -71.72113953010552,
                41.428331027799686
              ],
              [
                -71.72157769679681,
                41.42845046757009
              ],
              [
                -71.72203626475044,
                41.428439123525756
              ],
              [
                -71.72264714727004,
                41.428265363932226
              ],
              [
                -71.72349350536176,
                41.427866267758795
              ],
              [
                -71.72438816672836,
                41.42737293686795
              ],
              [
                -71.72431449659463,
                41.42722136647908
              ],
              [
                -71.71943619424911,
                41.42047327577882
              ],
              [
                -71.71880316657484,
                41.420462569052155
              ],
              [
                -71.71787823682286,
                41.42070851259563
              ],
              [
                -71.71647744093896,
                41.420999946479554
              ],
              [
                -71.7158325793129,
                41.42254708321111
              ],
              [
                -71.71729897086932,
                41.42287852620186
              ],
              [
                -71.71648021006743,
                41.424745517313085
              ],
              [
                -71.71505095840148,
                41.424406430323394
              ],
              [
                -71.71401294464609,
                41.42688785052737
              ],
              [
                -71.71352582320336,
                41.427808123666885
              ],
              [
                -71.71292191174679,
                41.428730979327135
              ],
              [
                -71.71231423189056,
                41.429471112110484
              ],
              [
                -71.71185540826595,
                41.42995232375511
              ],
              [
                -71.710827792362,
                41.430851271157884
              ],
              [
                -71.71010989355034,
                41.431366721541956
              ],
              [
                -71.70934312763801,
                41.43185082604233
              ],
              [
                -71.70784774737213,
                41.432661260804245
              ],
              [
                -71.70698888508923,
                41.433058069853146
              ],
              [
                -71.70590393324889,
                41.433495983542954
              ],
              [
                -71.7063149167374,
                41.4341550968267
              ],
              [
                -71.70678451935805,
                41.43480950937249
              ],
              [
                -71.70697031517096,
                41.43501063356382
              ],
              [
                -71.70707576439199,
                41.43508537153012
              ],
              [
                -71.70756361754854,
                41.435267487964694
              ],
              [
                -71.70788980651722,
                41.43535740634381
              ],
              [
                -71.70818958770964,
                41.43539865092554
              ],
              [
                -71.70846860888594,
                41.43539904606712
              ],
              [
                -71.70879743317823,
                41.43532505362203
              ],
              [
                -71.7089493741601,
                41.435277047542634
              ],
              [
                -71.70904737876151,
                41.435183840139246
              ],
              [
                -71.70902304681267,
                41.435075545476316
              ],
              [
                -71.70853840662251,
                41.43460281435863
              ],
              [
                -71.70849689223702,
                41.434521838253666
              ],
              [
                -71.70851542193905,
                41.4343596119317
              ],
              [
                -71.70866081433637,
                41.43424002274922
              ],
              [
                -71.70889839071907,
                41.434182404474015
              ],
              [
                -71.70899660816079,
                41.434186999115425
              ],
              [
                -71.7091236471322,
                41.43425350144754
              ],
              [
                -71.70937136482745,
                41.43443433573171
              ],
              [
                -71.70942058290277,
                41.434516377979506
              ],
              [
                -71.70966875672252,
                41.43465434361969
              ],
              [
                -71.70987079266145,
                41.43471629555424
              ],
              [
                -71.710160641215,
                41.43473891123408
              ],
              [
                -71.71058741878596,
                41.434680583538594
              ],
              [
                -71.7114339970999,
                41.434239732627006
              ],
              [
                -71.71183606669803,
                41.434081572378574
              ],
              [
                -71.71226985038882,
                41.43396396927913
              ],
              [
                -71.71278212551805,
                41.433946361944955
              ],
              [
                -71.71335329781,
                41.43383075157547
              ],
              [
                -71.71386969121961,
                41.433774947575564
              ],
              [
                -71.71444601649432,
                41.43360690898308
              ],
              [
                -71.71476936160597,
                41.43364205892514
              ],
              [
                -71.71631440233456,
                41.43410430938422
              ],
              [
                -71.71649198381427,
                41.434142159537146
              ],
              [
                -71.71660288669725,
                41.434132404744474
              ],
              [
                -71.71667884687672,
                41.43409164554196
              ],
              [
                -71.71671321024786,
                41.43394848016843
              ],
              [
                -71.716652624588,
                41.43383413176347
              ],
              [
                -71.71626435243378,
                41.433357829174625
              ],
              [
                -71.71620683973286,
                41.43321726768572
              ],
              [
                -71.71619043191863,
                41.43303124063431
              ],
              [
                -71.716240427826,
                41.432840315759144
              ],
              [
                -71.71634141062638,
                41.43269702432971
              ],
              [
                -71.71671144256375,
                41.4324673127895
              ],
              [
                -71.71705007587046,
                41.43232357373148
              ],
              [
                -71.71717642812052,
                41.432182665675214
              ],
              [
                -71.71717135891036,
                41.43163881964901
              ],
              [
                -71.71729447931054,
                41.43147639436518
              ],
              [
                -71.71732882405499,
                41.43132845575405
              ],
              [
                -71.71730006472141,
                41.43125700383906
              ],
              [
                -71.71721425992907,
                41.431185570493504
              ],
              [
                -71.71693188196306,
                41.43109073281615
              ],
              [
                -71.71670300926559,
                41.43088124106234
              ],
              [
                -71.71663608682616,
                41.43075969951291
              ],
              [
                -71.71661346969333,
                41.43063573346987
              ],
              [
                -71.7166351829686,
                41.430487818825306
              ],
              [
                -71.71670761969332,
                41.43036844589642
              ],
              [
                -71.71681823056696,
                41.43027286701475
              ],
              [
                -71.71756780818853,
                41.42980630653141
              ],
              [
                -71.71759596333625,
                41.42969656371545
              ],
              [
                -71.71737662328941,
                41.42950380538286
              ],
              [
                -71.71735101380573,
                41.429429916422805
              ],
              [
                -71.71739475547449,
                41.4292294566911
              ],
              [
                -71.71818176216316,
                41.42859828656751
              ],
              [
                -71.71840635405381,
                41.428473851756145
              ],
              [
                -71.71856744978851,
                41.428337559109934
              ],
              [
                -71.71867483994998,
                41.428225233464204
              ],
              [
                -71.71878021023555,
                41.42795252035364
              ],
              [
                -71.7189002671323,
                41.42784152910843
              ],
              [
                -71.71920270824941,
                41.42777695903985
              ],
              [
                -71.7195806725847,
                41.42781117566825
              ]
            ]
          ]
        ]
      }
    }
  ],
  "bbox": [
    -71.73917336435592,
    41.360660384336626,
    -71.67464092808895,
    41.43539904606712
  ]
}
