{
  "$schema": "https://ripota.org/schemas/web/v1/display-geojson.schema.json",
  "type": "FeatureCollection",
  "properties": {
    "schemaVersion": 1,
    "geometryRole": "display",
    "geometryKind": "boundary",
    "potaReference": "US-2868",
    "potaName": "Beavertail State Park",
    "sourceName": "Rhode Island DEM State Conservation Land",
    "sourceUrl": "https://risegis.ri.gov/hosting/rest/services/RIDEM/State_Conservation_Land/MapServer/0",
    "sourceQuery": "DEM_AREA = 'Beavertail State Park'",
    "sourceFeatureIds": [
      37984,
      37985,
      37986,
      47339
    ],
    "fidelity": "web",
    "detailedArtifact": "@ripota/parks/boundaries/us-2868.geojson"
  },
  "features": [
    {
      "type": "Feature",
      "properties": {
        "potaReference": "US-2868",
        "potaName": "Beavertail State Park",
        "geometryKind": "boundary",
        "geometryRole": "display",
        "fidelity": "web"
      },
      "geometry": {
        "type": "Polygon",
        "coordinates": [
          [
            [
              -71.39757555920096,
              41.450245267146855
            ],
            [
              -71.39705540572206,
              41.45074776999579
            ],
            [
              -71.3966883640788,
              41.451241780428276
            ],
            [
              -71.3960587705994,
              41.45182229980714
            ],
            [
              -71.39554027943379,
              41.451923204230056
            ],
            [
              -71.39532804047703,
              41.45205371403679
            ],
            [
              -71.39486728279341,
              41.452261440761646
            ],
            [
              -71.39404713292875,
              41.45300807195519
            ],
            [
              -71.39335175777241,
              41.453427882015426
            ],
            [
              -71.39251847552669,
              41.453823502245356
            ],
            [
              -71.39142253631901,
              41.454215570655265
            ],
            [
              -71.39128312719357,
              41.45420947746135
            ],
            [
              -71.39120289233892,
              41.4542651902652
            ],
            [
              -71.3908881674116,
              41.454659015256
            ],
            [
              -71.39036827598012,
              41.45496705490997
            ],
            [
              -71.39008083339093,
              41.455738561949744
            ],
            [
              -71.39009329763523,
              41.45618865742831
            ],
            [
              -71.39012986983609,
              41.45626896731038
            ],
            [
              -71.3901183640673,
              41.45634433580651
            ],
            [
              -71.39188046515851,
              41.45658118292171
            ],
            [
              -71.39592055935127,
              41.4572834859981
            ],
            [
              -71.39529569039564,
              41.459981300558944
            ],
            [
              -71.39480324978955,
              41.46163563314107
            ],
            [
              -71.39516396406329,
              41.46169999684574
            ],
            [
              -71.39507825557105,
              41.46196734554219
            ],
            [
              -71.3947281477728,
              41.461902759875905
            ],
            [
              -71.39447493026616,
              41.46268724337969
            ],
            [
              -71.3986608055907,
              41.46391734699638
            ],
            [
              -71.39896731717583,
              41.463722367432645
            ],
            [
              -71.39948020994856,
              41.46324331598824
            ],
            [
              -71.4002731338947,
              41.461929816886716
            ],
            [
              -71.40053175433981,
              41.461230901588124
            ],
            [
              -71.40068100367708,
              41.460327131971546
            ],
            [
              -71.4006973473562,
              41.45977740416712
            ],
            [
              -71.40066883648248,
              41.45963389857511
            ],
            [
              -71.40072089512132,
              41.45936258903087
            ],
            [
              -71.40074540179621,
              41.45876767273203
            ],
            [
              -71.4007261988291,
              41.458128594684
            ],
            [
              -71.40059602148946,
              41.45774400629494
            ],
            [
              -71.40064926206227,
              41.45722050989131
            ],
            [
              -71.40064272403878,
              41.45702252214182
            ],
            [
              -71.4005848339638,
              41.45693366322098
            ],
            [
              -71.40089344237593,
              41.456332772752496
            ],
            [
              -71.40076496508547,
              41.455732022021245
            ],
            [
              -71.40084873825725,
              41.454919702252155
            ],
            [
              -71.40066277865685,
              41.45381577281933
            ],
            [
              -71.40046735749989,
              41.45338751866236
            ],
            [
              -71.40022826673291,
              41.45296921529483
            ],
            [
              -71.40022912954251,
              41.452852105756726
            ],
            [
              -71.40042763626255,
              41.45245167797513
            ],
            [
              -71.40055302964424,
              41.45207978869667
            ],
            [
              -71.40048881349448,
              41.451657822722005
            ],
            [
              -71.40031352601095,
              41.451084154103384
            ],
            [
              -71.40019818672042,
              41.45105425991891
            ],
            [
              -71.40015636639068,
              41.45100542293609
            ],
            [
              -71.40033411602586,
              41.45085840783318
            ],
            [
              -71.40042051866924,
              41.45065182769251
            ],
            [
              -71.40035258874673,
              41.450486462907975
            ],
            [
              -71.40019275110977,
              41.4504513789837
            ],
            [
              -71.40014034811131,
              41.45037064699456
            ],
            [
              -71.40007059914565,
              41.45035176539971
            ],
            [
              -71.40026097712122,
              41.450223879524174
            ],
            [
              -71.40022661382788,
              41.450173741645926
            ],
            [
              -71.4003428012354,
              41.45008869705891
            ],
            [
              -71.40017164006855,
              41.45000500337822
            ],
            [
              -71.4001290814689,
              41.44994717345508
            ],
            [
              -71.40009517431318,
              41.4497480820834
            ],
            [
              -71.40014938940749,
              41.449648003919336
            ],
            [
              -71.40008899802892,
              41.44954364030139
            ],
            [
              -71.40014298637996,
              41.44942274922378
            ],
            [
              -71.39994603963561,
              41.449266832541475
            ],
            [
              -71.39992274723177,
              41.44921334210315
            ],
            [
              -71.40001768033058,
              41.44913157209719
            ],
            [
              -71.39993522328034,
              41.44902634373613
            ],
            [
              -71.39991218205881,
              41.44891771309065
            ],
            [
              -71.39976176119741,
              41.44897798177876
            ],
            [
              -71.39968352740641,
              41.448972585027626
            ],
            [
              -71.3996471028046,
              41.448939048521694
            ],
            [
              -71.3997745943588,
              41.44883603788791
            ],
            [
              -71.39977546405525,
              41.448764706351305
            ],
            [
              -71.39965477055232,
              41.448697294531016
            ],
            [
              -71.3990840970828,
              41.44881727592479
            ],
            [
              -71.398806237419,
              41.449092457537475
            ],
            [
              -71.39851796397468,
              41.44924081352261
            ],
            [
              -71.39856991306719,
              41.44935754290588
            ],
            [
              -71.3985287011623,
              41.44941202930704
            ],
            [
              -71.39816770904244,
              41.449486381304844
            ],
            [
              -71.39814778647356,
              41.449533361778755
            ],
            [
              -71.39818289555818,
              41.449669379167105
            ],
            [
              -71.39812973630382,
              41.44972447162104
            ],
            [
              -71.39796062783891,
              41.44976827831565
            ],
            [
              -71.39790662932043,
              41.449815023225725
            ],
            [
              -71.39774625251754,
              41.4499704885824
            ],
            [
              -71.39757555920096,
              41.450245267146855
            ]
          ]
        ]
      }
    }
  ],
  "bbox": [
    -71.40089344237593,
    41.448697294531016,
    -71.39008083339093,
    41.46391734699638
  ]
}
