{
  "$schema": "https://ripota.org/schemas/web/v1/display-geojson.schema.json",
  "type": "FeatureCollection",
  "properties": {
    "schemaVersion": 1,
    "geometryRole": "display",
    "geometryKind": "boundary",
    "potaReference": "US-2881",
    "potaName": "World War II Veterans Memorial State Park",
    "sourceName": "Rhode Island DEM State Conservation Land",
    "sourceUrl": "https://risegis.ri.gov/hosting/rest/services/RIDEM/State_Conservation_Land/MapServer/0",
    "sourceQuery": "DEM_AREA = 'World War II Veterans Memorial State Park'",
    "sourceFeatureIds": [
      390,
      899
    ],
    "fidelity": "web",
    "detailedArtifact": "@ripota/parks/boundaries/us-2881.geojson"
  },
  "features": [
    {
      "type": "Feature",
      "properties": {
        "potaReference": "US-2881",
        "potaName": "World War II Veterans Memorial State Park",
        "geometryKind": "boundary",
        "geometryRole": "display",
        "fidelity": "web"
      },
      "geometry": {
        "type": "MultiPolygon",
        "coordinates": [
          [
            [
              [
                -71.5109030718925,
                42.01072567603713
              ],
              [
                -71.51085105122829,
                42.01010787788481
              ],
              [
                -71.51066720571282,
                42.01036560185502
              ],
              [
                -71.51051471176325,
                42.01074608900766
              ],
              [
                -71.5109030718925,
                42.01072567603713
              ]
            ]
          ],
          [
            [
              [
                -71.51087471305556,
                42.01085027541395
              ],
              [
                -71.50993252862708,
                42.01087103196091
              ],
              [
                -71.50889254912627,
                42.010830147729294
              ],
              [
                -71.50896942232315,
                42.01110347153715
              ],
              [
                -71.50899714646606,
                42.01138197953116
              ],
              [
                -71.50912773910576,
                42.01155938260457
              ],
              [
                -71.50926573676811,
                42.01163158995023
              ],
              [
                -71.50945277250727,
                42.01181346171735
              ],
              [
                -71.50976326718123,
                42.01195519410042
              ],
              [
                -71.50982643789337,
                42.01259252292435
              ],
              [
                -71.50964751336438,
                42.01279896935639
              ],
              [
                -71.50982127411429,
                42.012958422975224
              ],
              [
                -71.51037007249218,
                42.01287258322841
              ],
              [
                -71.51044545721942,
                42.01298196859106
              ],
              [
                -71.51060411805658,
                42.012706903845924
              ],
              [
                -71.51074227445126,
                42.01227018016054
              ],
              [
                -71.51087471305556,
                42.01085027541395
              ]
            ]
          ]
        ]
      }
    }
  ],
  "bbox": [
    -71.5109030718925,
    42.01010787788481,
    -71.50889254912627,
    42.01298196859106
  ]
}
