{
  "$schema": "https://ripota.org/schemas/web/v1/display-geojson.schema.json",
  "type": "FeatureCollection",
  "properties": {
    "schemaVersion": 1,
    "geometryRole": "display",
    "geometryKind": "boundary",
    "potaReference": "US-5482",
    "potaName": "Wickaboxet Wildlife Management Area",
    "sourceName": "Rhode Island DEM State Conservation Land",
    "sourceUrl": "https://risegis.ri.gov/hosting/rest/services/RIDEM/State_Conservation_Land/MapServer/0",
    "sourceQuery": "DEM_AREA = 'Wickaboxet Management Area'",
    "sourceFeatureIds": [
      368,
      411
    ],
    "fidelity": "web",
    "detailedArtifact": "@ripota/parks/boundaries/us-5482.geojson"
  },
  "features": [
    {
      "type": "Feature",
      "properties": {
        "potaReference": "US-5482",
        "potaName": "Wickaboxet Wildlife Management Area",
        "geometryKind": "boundary",
        "geometryRole": "display",
        "fidelity": "web"
      },
      "geometry": {
        "type": "Polygon",
        "coordinates": [
          [
            [
              -71.72365893790362,
              41.64080370861586
            ],
            [
              -71.72089362575286,
              41.64099886335752
            ],
            [
              -71.72057133714064,
              41.64121650783137
            ],
            [
              -71.72051500246037,
              41.641427496491616
            ],
            [
              -71.72034361430816,
              41.64153778798359
            ],
            [
              -71.72023769950256,
              41.641729730604936
            ],
            [
              -71.72019028467162,
              41.641911341902606
            ],
            [
              -71.72006185673503,
              41.64193201988895
            ],
            [
              -71.71998422255417,
              41.641997845820164
            ],
            [
              -71.720001030327,
              41.64217572363205
            ],
            [
              -71.72019534609245,
              41.64231462405604
            ],
            [
              -71.72041607894357,
              41.64258843411843
            ],
            [
              -71.7204399141867,
              41.64265699913329
            ],
            [
              -71.72038547504059,
              41.64278752808581
            ],
            [
              -71.7205281605589,
              41.642955877993934
            ],
            [
              -71.72048852935966,
              41.64298845549188
            ],
            [
              -71.72053166427911,
              41.643427246143766
            ],
            [
              -71.72040638221114,
              41.64366076447158
            ],
            [
              -71.72027363940919,
              41.64417170648273
            ],
            [
              -71.72014009929883,
              41.64444937452734
            ],
            [
              -71.72009899597417,
              41.64472055837124
            ],
            [
              -71.72018392827135,
              41.64497889298869
            ],
            [
              -71.72016808337182,
              41.645262638991056
            ],
            [
              -71.72004234718098,
              41.64536375690897
            ],
            [
              -71.7200259009735,
              41.645470969913895
            ],
            [
              -71.72022866091439,
              41.64577321216447
            ],
            [
              -71.72022087743802,
              41.645956065548596
            ],
            [
              -71.72039714071671,
              41.646296432061746
            ],
            [
              -71.72077720705491,
              41.646746794726276
            ],
            [
              -71.72059805107936,
              41.64730934407454
            ],
            [
              -71.72050253241585,
              41.647428691819336
            ],
            [
              -71.71985042019695,
              41.64778636018557
            ],
            [
              -71.71926571324398,
              41.64792632351607
            ],
            [
              -71.71913385390495,
              41.648019495534534
            ],
            [
              -71.71896451684032,
              41.64822165437861
            ],
            [
              -71.71887686274749,
              41.648403846685376
            ],
            [
              -71.71875400262066,
              41.648537131374
            ],
            [
              -71.71864349125678,
              41.64874266128034
            ],
            [
              -71.7183802541443,
              41.64932062180601
            ],
            [
              -71.71844041767805,
              41.649403918357756
            ],
            [
              -71.7184408078235,
              41.64951940944965
            ],
            [
              -71.7185614163071,
              41.64976941368082
            ],
            [
              -71.71855056248849,
              41.64989032744338
            ],
            [
              -71.71822044792309,
              41.650129369903475
            ],
            [
              -71.71795657423333,
              41.650521260793354
            ],
            [
              -71.71771922714079,
              41.65116974845973
            ],
            [
              -71.71752149285699,
              41.651380243128855
            ],
            [
              -71.71684138079156,
              41.65100081993552
            ],
            [
              -71.71663889250904,
              41.65034810830948
            ],
            [
              -71.71576767077454,
              41.64999096804505
            ],
            [
              -71.71481399641223,
              41.64944928125237
            ],
            [
              -71.71471669843993,
              41.64933989562033
            ],
            [
              -71.71463279507037,
              41.649148026606234
            ],
            [
              -71.71267255023392,
              41.65373492410556
            ],
            [
              -71.71302977446366,
              41.656005268008286
            ],
            [
              -71.71340048128732,
              41.65804094785047
            ],
            [
              -71.7166063531842,
              41.657958636136385
            ],
            [
              -71.7173998973382,
              41.6574558910524
            ],
            [
              -71.71761277647992,
              41.65685198674914
            ],
            [
              -71.71712070142837,
              41.65566570242184
            ],
            [
              -71.71723932466467,
              41.65504610047926
            ],
            [
              -71.71843636251943,
              41.65468816125728
            ],
            [
              -71.71904928323166,
              41.65519123119652
            ],
            [
              -71.719947266904,
              41.65491317881095
            ],
            [
              -71.72239508756991,
              41.65548973136191
            ],
            [
              -71.72450815186353,
              41.65570002307195
            ],
            [
              -71.72702537319729,
              41.656119114089456
            ],
            [
              -71.7285008457194,
              41.656568813120735
            ],
            [
              -71.72889986677683,
              41.65619406587921
            ],
            [
              -71.72930076668368,
              41.65637910585778
            ],
            [
              -71.73037934677815,
              41.6551916601286
            ],
            [
              -71.73380536630515,
              41.656447344729195
            ],
            [
              -71.73201588732265,
              41.64879383364926
            ],
            [
              -71.73530396161829,
              41.64901346044122
            ],
            [
              -71.73593810021259,
              41.64484023831766
            ],
            [
              -71.73621539028919,
              41.64182180353442
            ],
            [
              -71.73681011422299,
              41.638947287819356
            ],
            [
              -71.73699392838516,
              41.63829091690653
            ],
            [
              -71.73707802960153,
              41.63698759800163
            ],
            [
              -71.73675524811252,
              41.63655044556166
            ],
            [
              -71.73618997206893,
              41.63633857941735
            ],
            [
              -71.73531438002514,
              41.6359045391158
            ],
            [
              -71.73396421224643,
              41.63542990968573
            ],
            [
              -71.73289378292944,
              41.63845166191174
            ],
            [
              -71.72674581388485,
              41.63920381406276
            ],
            [
              -71.72706010251997,
              41.640532477351485
            ],
            [
              -71.72365893790362,
              41.64080370861586
            ]
          ]
        ]
      }
    }
  ],
  "bbox": [
    -71.73707802960153,
    41.63542990968573,
    -71.71267255023392,
    41.65804094785047
  ]
}
