{
  "$schema": "https://ripota.org/schemas/web/v1/display-geojson.schema.json",
  "type": "FeatureCollection",
  "properties": {
    "schemaVersion": 1,
    "geometryRole": "display",
    "geometryKind": "boundary",
    "potaReference": "US-5484",
    "potaName": "George Washington Memorial State Forest",
    "sourceName": "Rhode Island DEM State Conservation Land",
    "sourceUrl": "https://risegis.ri.gov/hosting/rest/services/RIDEM/State_Conservation_Land/MapServer/0",
    "sourceQuery": "DEM_AREA = 'George Washington Management Area'",
    "sourceFeatureIds": [
      27,
      29,
      30,
      167,
      536,
      543,
      557,
      638,
      721,
      916
    ],
    "fidelity": "web",
    "detailedArtifact": "@ripota/parks/boundaries/us-5484.geojson"
  },
  "features": [
    {
      "type": "Feature",
      "properties": {
        "potaReference": "US-5484",
        "potaName": "George Washington Memorial State Forest",
        "geometryKind": "boundary",
        "geometryRole": "display",
        "fidelity": "web"
      },
      "geometry": {
        "type": "MultiPolygon",
        "coordinates": [
          [
            [
              [
                -71.75627398825804,
                41.9197233617772
              ],
              [
                -71.75626619699564,
                41.92033010294642
              ],
              [
                -71.75765658252077,
                41.92032699150578
              ],
              [
                -71.75773486315863,
                41.91959231537657
              ],
              [
                -71.75734727406976,
                41.91964789737511
              ],
              [
                -71.75627398825804,
                41.9197233617772
              ]
            ]
          ],
          [
            [
              [
                -71.79268271826508,
                41.92616613302855
              ],
              [
                -71.78637979856663,
                41.922975096361995
              ],
              [
                -71.78682123712844,
                41.92618846797316
              ],
              [
                -71.78434275648688,
                41.92641708491177
              ],
              [
                -71.77463679991368,
                41.92913859127378
              ],
              [
                -71.76480713885745,
                41.931257762181936
              ],
              [
                -71.7647212961773,
                41.931306333528894
              ],
              [
                -71.76471629778423,
                41.93150006734949
              ],
              [
                -71.76461153044751,
                41.9316467723258
              ],
              [
                -71.76443679573333,
                41.93173606817077
              ],
              [
                -71.76416780329438,
                41.931708559491334
              ],
              [
                -71.76405579242612,
                41.93174757870147
              ],
              [
                -71.76393478288905,
                41.93170755220849
              ],
              [
                -71.76365578561453,
                41.93169755858326
              ],
              [
                -71.7633867989453,
                41.931315533647556
              ],
              [
                -71.76333628414422,
                41.931284563190204
              ],
              [
                -71.76285181485792,
                41.93155653336073
              ],
              [
                -71.7625128095093,
                41.93192357071948
              ],
              [
                -71.76208930870072,
                41.93222206937791
              ],
              [
                -71.7620507717362,
                41.93226953677761
              ],
              [
                -71.76203677163022,
                41.93244056507166
              ],
              [
                -71.76182681671185,
                41.932562561371604
              ],
              [
                -71.7618087874037,
                41.93268960728978
              ],
              [
                -71.76161980618144,
                41.93292758165918
              ],
              [
                -71.76149979507716,
                41.932935571700234
              ],
              [
                -71.76122328751897,
                41.93304408216457
              ],
              [
                -71.7610047620386,
                41.933250886054964
              ],
              [
                -71.76089979328833,
                41.93331160463294
              ],
              [
                -71.76081278085579,
                41.933321578006385
              ],
              [
                -71.76067082109225,
                41.93317860245819
              ],
              [
                -71.76057478638597,
                41.933130538881635
              ],
              [
                -71.7604618187434,
                41.93315455018599
              ],
              [
                -71.76036378667602,
                41.93309560247135
              ],
              [
                -71.76026579216867,
                41.932897556662596
              ],
              [
                -71.76020489846177,
                41.93285169362945
              ],
              [
                -71.7601484054328,
                41.932867470133054
              ],
              [
                -71.75982279836263,
                41.933271554276516
              ],
              [
                -71.75976181619166,
                41.933250552698
              ],
              [
                -71.75955681550509,
                41.933349552011606
              ],
              [
                -71.7593837729474,
                41.933130576940215
              ],
              [
                -71.75889779812746,
                41.932647582377534
              ],
              [
                -71.75883178595802,
                41.93266758510085
              ],
              [
                -71.75870452873271,
                41.932776763128025
              ],
              [
                -71.75859581043076,
                41.93280356842669
              ],
              [
                -71.75850677694773,
                41.93276860773899
              ],
              [
                -71.75830080254372,
                41.93252655517025
              ],
              [
                -71.75828780314944,
                41.93242153304836
              ],
              [
                -71.7584107777846,
                41.93223053485072
              ],
              [
                -71.75850382066506,
                41.932003907039
              ],
              [
                -71.75851485318861,
                41.931942456830505
              ],
              [
                -71.75846480973814,
                41.93183156248465
              ],
              [
                -71.76058379222289,
                41.929431527055236
              ],
              [
                -71.76483544818943,
                41.92412877388027
              ],
              [
                -71.76562000541948,
                41.923417758143444
              ],
              [
                -71.76792170253975,
                41.92096667742544
              ],
              [
                -71.76770001000082,
                41.9208189804971
              ],
              [
                -71.76751836113779,
                41.9206004694223
              ],
              [
                -71.76740437473264,
                41.92031276547443
              ],
              [
                -71.76686366508733,
                41.919956551623095
              ],
              [
                -71.76662350497482,
                41.91971920614171
              ],
              [
                -71.7665894825962,
                41.91944085996997
              ],
              [
                -71.7668261779671,
                41.91911995783282
              ],
              [
                -71.7669508120359,
                41.9188782678805
              ],
              [
                -71.76696275368352,
                41.91859056048147
              ],
              [
                -71.76663443792937,
                41.91833656581672
              ],
              [
                -71.766384508122,
                41.918351579890064
              ],
              [
                -71.76610854311946,
                41.91843893177589
              ],
              [
                -71.76584958630917,
                41.91822827235936
              ],
              [
                -71.76582571262291,
                41.91793730325345
              ],
              [
                -71.7642294451927,
                41.91704818098582
              ],
              [
                -71.76353030902717,
                41.91722713081662
              ],
              [
                -71.76272663889469,
                41.91753469194552
              ],
              [
                -71.76012067718753,
                41.91896631875859
              ],
              [
                -71.75918985050332,
                41.919312907393056
              ],
              [
                -71.75811808286724,
                41.91955825783377
              ],
              [
                -71.76090983129423,
                41.92746797276415
              ],
              [
                -71.7549171866312,
                41.928624663912444
              ],
              [
                -71.75408437514042,
                41.92620417700372
              ],
              [
                -71.75193330544113,
                41.9202505051357
              ],
              [
                -71.74870109980031,
                41.92063559542709
              ],
              [
                -71.74771068787643,
                41.920787949915095
              ],
              [
                -71.74771872359804,
                41.920856479636164
              ],
              [
                -71.74659847721117,
                41.92103500506743
              ],
              [
                -71.7442909554583,
                41.92153097587741
              ],
              [
                -71.7472143311553,
                41.92843956510841
              ],
              [
                -71.75037017121623,
                41.928139785619315
              ],
              [
                -71.75103259773886,
                41.929621563991205
              ],
              [
                -71.73138276312702,
                41.93001359278114
              ],
              [
                -71.73133281727753,
                41.93049358330882
              ],
              [
                -71.73155075662922,
                41.93080255152246
              ],
              [
                -71.73262374570541,
                41.930364570838904
              ],
              [
                -71.7324987317626,
                41.931611542731325
              ],
              [
                -71.73576480912625,
                41.93134058429911
              ],
              [
                -71.73575483770475,
                41.932780531434304
              ],
              [
                -71.73649859209,
                41.93271161731837
              ],
              [
                -71.73691076843471,
                41.934924533986226
              ],
              [
                -71.73271380079471,
                41.93539354058184
              ],
              [
                -71.73157172882915,
                41.93723556933539
              ],
              [
                -71.73088977264246,
                41.93718454489944
              ],
              [
                -71.7314438059367,
                41.939084550502756
              ],
              [
                -71.73144777446068,
                41.93913359379696
              ],
              [
                -71.73113280778784,
                41.93957158262713
              ],
              [
                -71.73141077659342,
                41.93966955566314
              ],
              [
                -71.73720784069589,
                41.939003580271006
              ],
              [
                -71.73730281996816,
                41.93869157760712
              ],
              [
                -71.73896683436156,
                41.938407532345956
              ],
              [
                -71.74163383994593,
                41.9383605304875
              ],
              [
                -71.7432588030429,
                41.93953461206301
              ],
              [
                -71.74158179251522,
                41.93954261298876
              ],
              [
                -71.7414628159355,
                41.94170853628611
              ],
              [
                -71.74230780603607,
                41.944911533788606
              ],
              [
                -71.74603581899063,
                41.94495257047762
              ],
              [
                -71.74613176786946,
                41.94517061411671
              ],
              [
                -71.74620878386915,
                41.94582656618266
              ],
              [
                -71.74633377916427,
                41.946174550819066
              ],
              [
                -71.74636580636279,
                41.94639255847776
              ],
              [
                -71.74635381564364,
                41.94699253120857
              ],
              [
                -71.74626278522761,
                41.947710585595246
              ],
              [
                -71.74599977080916,
                41.949006575089854
              ],
              [
                -71.74600076907731,
                41.94928159082105
              ],
              [
                -71.74807580202298,
                41.94902457571575
              ],
              [
                -71.7483637919116,
                41.95136156536292
              ],
              [
                -71.75033179978074,
                41.95101255284152
              ],
              [
                -71.75042396087431,
                41.95155402791528
              ],
              [
                -71.75041977169217,
                41.95179856818965
              ],
              [
                -71.75226981122935,
                41.951700616686644
              ],
              [
                -71.75239181755151,
                41.95384157673939
              ],
              [
                -71.74878781747873,
                41.95412557686557
              ],
              [
                -71.74881379139809,
                41.95377357972194
              ],
              [
                -71.74811082786577,
                41.95383521436235
              ],
              [
                -71.74809981565511,
                41.954061547655286
              ],
              [
                -71.74595876709846,
                41.95505954691385
              ],
              [
                -71.7456147926508,
                41.95471357332823
              ],
              [
                -71.74516562804074,
                41.953975234916726
              ],
              [
                -71.74496623647119,
                41.95410830716405
              ],
              [
                -71.74469973526102,
                41.95420805817019
              ],
              [
                -71.744180767202,
                41.95425458144948
              ],
              [
                -71.74423778167869,
                41.95484960316815
              ],
              [
                -71.74273598963457,
                41.95479222185645
              ],
              [
                -71.7443826372875,
                41.96030351380971
              ],
              [
                -71.74586320923217,
                41.963540019779344
              ],
              [
                -71.74988437816494,
                41.963445582781645
              ],
              [
                -71.75158581797622,
                41.96203617912466
              ],
              [
                -71.75644435935799,
                41.96291658790914
              ],
              [
                -71.75604534380585,
                41.95890600947205
              ],
              [
                -71.76689482521508,
                41.95726643934095
              ],
              [
                -71.76708502532219,
                41.963113745677504
              ],
              [
                -71.76890833041647,
                41.96292391439792
              ],
              [
                -71.77629983226005,
                41.963411178786394
              ],
              [
                -71.77655715853685,
                41.95743319620652
              ],
              [
                -71.77934624791547,
                41.95781468350557
              ],
              [
                -71.77796462073034,
                41.95204947089331
              ],
              [
                -71.78666850866722,
                41.948890608644334
              ],
              [
                -71.78655745088638,
                41.94352868526131
              ],
              [
                -71.78671602715147,
                41.94075134718753
              ],
              [
                -71.79259179072335,
                41.94102158276414
              ],
              [
                -71.7925808093476,
                41.936659560764404
              ],
              [
                -71.79467881263533,
                41.936781542304296
              ],
              [
                -71.79806277189994,
                41.93711205578006
              ],
              [
                -71.79797828805346,
                41.930855106350876
              ],
              [
                -71.79783088400316,
                41.92757163857678
              ],
              [
                -71.7957810125019,
                41.92675333759548
              ],
              [
                -71.79527885353723,
                41.92602304681085
              ],
              [
                -71.79268271826508,
                41.92616613302855
              ]
            ],
            [
              [
                -71.75027977544163,
                41.937491570922184
              ],
              [
                -71.74940681352277,
                41.94087859171092
              ],
              [
                -71.74411081771899,
                41.94039259041148
              ],
              [
                -71.743981768022,
                41.93998458181355
              ],
              [
                -71.74358381812036,
                41.93996355975056
              ],
              [
                -71.74371979901623,
                41.939794589769996
              ],
              [
                -71.7437018160999,
                41.93924956373898
              ],
              [
                -71.74324736215902,
                41.9370375136949
              ],
              [
                -71.74327579368367,
                41.93679759524559
              ],
              [
                -71.75027977544163,
                41.937491570922184
              ]
            ],
            [
              [
                -71.74303424887363,
                41.935857988412366
              ],
              [
                -71.74045375810881,
                41.93544156675231
              ],
              [
                -71.74052115424773,
                41.93488166411253
              ],
              [
                -71.74302942701003,
                41.93532856272273
              ],
              [
                -71.74296078547017,
                41.93560359867708
              ],
              [
                -71.74303424887363,
                41.935857988412366
              ]
            ],
            [
              [
                -71.74054082584733,
                41.934687390199215
              ],
              [
                -71.74047962748968,
                41.93412155541846
              ],
              [
                -71.74342979549077,
                41.934588542414886
              ],
              [
                -71.74315678057631,
                41.935112574233244
              ],
              [
                -71.74054082584733,
                41.934687390199215
              ]
            ],
            [
              [
                -71.74044806215014,
                41.93389557502143
              ],
              [
                -71.74036800866607,
                41.93333161534187
              ],
              [
                -71.74376178914581,
                41.93385556946657
              ],
              [
                -71.743531763088,
                41.9343875715486
              ],
              [
                -71.74044806215014,
                41.93389557502143
              ]
            ]
          ],
          [
            [
              [
                -71.77847956386373,
                41.924783333364516
              ],
              [
                -71.77816286322845,
                41.92427755406653
              ],
              [
                -71.77817126484838,
                41.924149056709986
              ],
              [
                -71.77807447892619,
                41.92414527569917
              ],
              [
                -71.77786874539288,
                41.92422607176106
              ],
              [
                -71.77828629831458,
                41.92484670208649
              ],
              [
                -71.77847956386373,
                41.924783333364516
              ]
            ]
          ]
        ]
      }
    }
  ],
  "bbox": [
    -71.79806277189994,
    41.91704818098582,
    -71.73088977264246,
    41.963540019779344
  ]
}
