{
  "$schema": "https://ripota.org/schemas/web/v1/display-geojson.schema.json",
  "type": "FeatureCollection",
  "properties": {
    "schemaVersion": 1,
    "geometryRole": "display",
    "geometryKind": "boundary",
    "potaReference": "US-6987",
    "potaName": "Cocumcussoc State Park",
    "sourceName": "Rhode Island DEM State Conservation Land",
    "sourceUrl": "https://risegis.ri.gov/hosting/rest/services/RIDEM/State_Conservation_Land/MapServer/0",
    "sourceQuery": "DEM_AREA = 'Cocumcussoc'",
    "sourceFeatureIds": [
      436
    ],
    "fidelity": "web",
    "detailedArtifact": "@ripota/parks/boundaries/us-6987.geojson"
  },
  "features": [
    {
      "type": "Feature",
      "properties": {
        "potaReference": "US-6987",
        "potaName": "Cocumcussoc State Park",
        "geometryKind": "boundary",
        "geometryRole": "display",
        "fidelity": "web"
      },
      "geometry": {
        "type": "Polygon",
        "coordinates": [
          [
            [
              -71.47872943127838,
              41.58760461114978
            ],
            [
              -71.48252817057666,
              41.58283405595141
            ],
            [
              -71.48292106160235,
              41.58156187543818
            ],
            [
              -71.48278207827182,
              41.57845661272897
            ],
            [
              -71.48318919024621,
              41.57800274076903
            ],
            [
              -71.47883449057025,
              41.57715295558383
            ],
            [
              -71.47426977875578,
              41.57571757085678
            ],
            [
              -71.47251530311493,
              41.57502434481386
            ],
            [
              -71.47094907598387,
              41.57447795726753
            ],
            [
              -71.4702580348726,
              41.5742599167504
            ],
            [
              -71.4695220616579,
              41.57407620604016
            ],
            [
              -71.46944562158593,
              41.57422719736565
            ],
            [
              -71.46874452337718,
              41.577554031772245
            ],
            [
              -71.46857753925033,
              41.57810819815796
            ],
            [
              -71.46697026980081,
              41.57770112140679
            ],
            [
              -71.46689658151045,
              41.57793339611787
            ],
            [
              -71.46412634424168,
              41.57723985168128
            ],
            [
              -71.46359047670022,
              41.57851873779246
            ],
            [
              -71.46518903211795,
              41.57893517801037
            ],
            [
              -71.46485828492415,
              41.580638233143716
            ],
            [
              -71.46485939453075,
              41.58152902082694
            ],
            [
              -71.46140352713441,
              41.580653870668975
            ],
            [
              -71.46123601137433,
              41.58106430754661
            ],
            [
              -71.4602728661604,
              41.580873607361504
            ],
            [
              -71.46031044665193,
              41.58105183939639
            ],
            [
              -71.46023647212661,
              41.581410425450045
            ],
            [
              -71.46024477417546,
              41.58154112090372
            ],
            [
              -71.46017110382968,
              41.58167442609751
            ],
            [
              -71.4600688028711,
              41.58203929313026
            ],
            [
              -71.4650199633341,
              41.583296481114786
            ],
            [
              -71.4650653475219,
              41.584201605951634
            ],
            [
              -71.46676097966119,
              41.58466839617996
            ],
            [
              -71.46737939280943,
              41.58480690729374
            ],
            [
              -71.46994314405401,
              41.58662161087021
            ],
            [
              -71.47005507815119,
              41.586726901383706
            ],
            [
              -71.4700096892876,
              41.58653540271141
            ],
            [
              -71.47065622629218,
              41.586591238947925
            ],
            [
              -71.47074216846657,
              41.5867950243331
            ],
            [
              -71.47127613240782,
              41.58678480101604
            ],
            [
              -71.4725441716475,
              41.586947071541616
            ],
            [
              -71.47304058373916,
              41.587075225344165
            ],
            [
              -71.47465553692285,
              41.586591875743444
            ],
            [
              -71.47450862561284,
              41.586976051364715
            ],
            [
              -71.47581780314029,
              41.587251732519974
            ],
            [
              -71.47442136938864,
              41.5892204298467
            ],
            [
              -71.47554656094697,
              41.58957893369271
            ],
            [
              -71.47676886560295,
              41.58782777471557
            ],
            [
              -71.47805628121903,
              41.58824501203942
            ],
            [
              -71.47872943127838,
              41.58760461114978
            ]
          ]
        ]
      }
    }
  ],
  "bbox": [
    -71.48318919024621,
    41.57407620604016,
    -71.4600688028711,
    41.58957893369271
  ]
}
