{
  "$schema": "https://ripota.org/schemas/web/v1/display-geojson.schema.json",
  "type": "FeatureCollection",
  "properties": {
    "schemaVersion": 1,
    "geometryRole": "display",
    "geometryKind": "boundary",
    "potaReference": "US-6990",
    "potaName": "Nicholas Farm Wildlife Management Area",
    "sourceName": "Rhode Island DEM State Conservation Land",
    "sourceUrl": "https://risegis.ri.gov/hosting/rest/services/RIDEM/State_Conservation_Land/MapServer/0",
    "sourceQuery": "DEM_AREA = 'Nicholas Farm Management Area'",
    "sourceFeatureIds": [
      67,
      100,
      101,
      103,
      107,
      363,
      393,
      394,
      395,
      787,
      40720
    ],
    "fidelity": "web",
    "detailedArtifact": "@ripota/parks/boundaries/us-6990.geojson"
  },
  "features": [
    {
      "type": "Feature",
      "properties": {
        "potaReference": "US-6990",
        "potaName": "Nicholas Farm Wildlife Management Area",
        "geometryKind": "boundary",
        "geometryRole": "display",
        "fidelity": "web"
      },
      "geometry": {
        "type": "MultiPolygon",
        "coordinates": [
          [
            [
              [
                -71.75702147255895,
                41.69453879894078
              ],
              [
                -71.75668156329387,
                41.69431045859283
              ],
              [
                -71.75645083962382,
                41.69423653016545
              ],
              [
                -71.75607640513552,
                41.69421537651736
              ],
              [
                -71.75594543151563,
                41.694023258780206
              ],
              [
                -71.7558142907317,
                41.69401461649848
              ],
              [
                -71.75371920957372,
                41.694352607253045
              ],
              [
                -71.75379501867562,
                41.69476353312628
              ],
              [
                -71.75251282600706,
                41.69502633355985
              ],
              [
                -71.75216552288359,
                41.69726260400867
              ],
              [
                -71.75408041259833,
                41.69641524704669
              ],
              [
                -71.75443346013458,
                41.69633880069328
              ],
              [
                -71.75518308304393,
                41.696250662750955
              ],
              [
                -71.75557252975425,
                41.696260606153274
              ],
              [
                -71.7560055030281,
                41.696335309546896
              ],
              [
                -71.75632333043811,
                41.696469718889105
              ],
              [
                -71.7566487167424,
                41.69669058634577
              ],
              [
                -71.75675012757914,
                41.696803859079054
              ],
              [
                -71.75686210557981,
                41.696854953624474
              ],
              [
                -71.75693716744824,
                41.696689941812785
              ],
              [
                -71.75696474370447,
                41.69637100091498
              ],
              [
                -71.75678685686316,
                41.69516073605299
              ],
              [
                -71.75681411075064,
                41.69476072387748
              ],
              [
                -71.75702147255895,
                41.69453879894078
              ]
            ]
          ],
          [
            [
              [
                -71.78263911930377,
                41.66561459103195
              ],
              [
                -71.78077317902573,
                41.66671646981208
              ],
              [
                -71.78157257428616,
                41.66777537007527
              ],
              [
                -71.77930439182461,
                41.66860855240015
              ],
              [
                -71.7784326283167,
                41.66941132985561
              ],
              [
                -71.77730965344632,
                41.66990530355276
              ],
              [
                -71.77586940118842,
                41.670372209703054
              ],
              [
                -71.7746221029698,
                41.67064632029519
              ],
              [
                -71.77435348442867,
                41.67068724854516
              ],
              [
                -71.77383325178121,
                41.67065618145293
              ],
              [
                -71.77367673440574,
                41.670743026001155
              ],
              [
                -71.77353478763469,
                41.671052303617174
              ],
              [
                -71.77345626969206,
                41.671491717144825
              ],
              [
                -71.77345759160323,
                41.67243592796341
              ],
              [
                -71.77351870841348,
                41.67281925596783
              ],
              [
                -71.77363893581533,
                41.67321009357689
              ],
              [
                -71.77407405550174,
                41.67404001570274
              ],
              [
                -71.7655656670333,
                41.67408409997356
              ],
              [
                -71.76545073942087,
                41.67418019104046
              ],
              [
                -71.76544618009132,
                41.67434514706338
              ],
              [
                -71.76524117807921,
                41.67452297012518
              ],
              [
                -71.76524731086079,
                41.67461593819375
              ],
              [
                -71.76528045881041,
                41.67473194360558
              ],
              [
                -71.76546124607607,
                41.67476006226864
              ],
              [
                -71.76553917031192,
                41.674858875297744
              ],
              [
                -71.76553903150406,
                41.67502991924539
              ],
              [
                -71.7656385853541,
                41.67543998427502
              ],
              [
                -71.76575360762892,
                41.675435328207044
              ],
              [
                -71.76589409603964,
                41.67534595835406
              ],
              [
                -71.76617060724045,
                41.67533494614994
              ],
              [
                -71.76623686407036,
                41.675274086665134
              ],
              [
                -71.76635042359175,
                41.67523979076214
              ],
              [
                -71.76652834560029,
                41.67523283987146
              ],
              [
                -71.76678763473507,
                41.67549711405428
              ],
              [
                -71.7668698398939,
                41.67569427089366
              ],
              [
                -71.76693070022758,
                41.675713512559284
              ],
              [
                -71.76711603506214,
                41.6756864051416
              ],
              [
                -71.76729494890397,
                41.67575083957454
              ],
              [
                -71.76730875706062,
                41.67580075955301
              ],
              [
                -71.7672224782848,
                41.67596452357332
              ],
              [
                -71.76724580287569,
                41.67612628962248
              ],
              [
                -71.76732617958739,
                41.67616720422962
              ],
              [
                -71.76750570175257,
                41.676177770050344
              ],
              [
                -71.76786891187419,
                41.675988824958814
              ],
              [
                -71.76812267360577,
                41.67594733429925
              ],
              [
                -71.76832611063128,
                41.67601981767198
              ],
              [
                -71.76846431290812,
                41.676237715697305
              ],
              [
                -71.7686365207215,
                41.67641927919203
              ],
              [
                -71.7687868952103,
                41.67646602285526
              ],
              [
                -71.76913533072386,
                41.67647226719936
              ],
              [
                -71.76921144999874,
                41.676572413566504
              ],
              [
                -71.7692358628434,
                41.67663788832913
              ],
              [
                -71.76914201711605,
                41.67683595007105
              ],
              [
                -71.76918988863522,
                41.67705174295474
              ],
              [
                -71.76926202208058,
                41.677186880374755
              ],
              [
                -71.76924430285406,
                41.67748441496066
              ],
              [
                -71.76950444524498,
                41.67767461353348
              ],
              [
                -71.76953762223292,
                41.67775967304641
              ],
              [
                -71.7695202807193,
                41.67786394139878
              ],
              [
                -71.76936498580743,
                41.67793501357978
              ],
              [
                -71.7692825888568,
                41.678073215018095
              ],
              [
                -71.76928900146717,
                41.67814194261462
              ],
              [
                -71.7691536862,
                41.678512807057295
              ],
              [
                -71.7691626305573,
                41.67867582900873
              ],
              [
                -71.76913022828568,
                41.678841281519105
              ],
              [
                -71.76916360001015,
                41.67888542913374
              ],
              [
                -71.76916320687391,
                41.6834139223412
              ],
              [
                -71.76954171543419,
                41.683186336073966
              ],
              [
                -71.7697714318902,
                41.68300833594643
              ],
              [
                -71.77023567662914,
                41.68246446354984
              ],
              [
                -71.77051694366017,
                41.682215731670645
              ],
              [
                -71.77113612885968,
                41.681882556143385
              ],
              [
                -71.77109593944819,
                41.687622532431014
              ],
              [
                -71.76977699899135,
                41.68762981550152
              ],
              [
                -71.76985833955506,
                41.6914094932822
              ],
              [
                -71.76980776067727,
                41.68905927482882
              ],
              [
                -71.76962993019103,
                41.688903581443384
              ],
              [
                -71.76954382125274,
                41.68889524441577
              ],
              [
                -71.76947444526637,
                41.68895328405164
              ],
              [
                -71.7695713137389,
                41.68911340560304
              ],
              [
                -71.76955363225457,
                41.68918728200032
              ],
              [
                -71.76949056644757,
                41.689234850061574
              ],
              [
                -71.76935867879286,
                41.68921342545644
              ],
              [
                -71.76921059546481,
                41.6891011481927
              ],
              [
                -71.76908276820791,
                41.68910539923041
              ],
              [
                -71.7689368796736,
                41.68920354592261
              ],
              [
                -71.76884718371795,
                41.68918597277101
              ],
              [
                -71.76875918976286,
                41.68894413658674
              ],
              [
                -71.7688072632278,
                41.688778052677584
              ],
              [
                -71.76868144418076,
                41.6886311452153
              ],
              [
                -71.76865983074654,
                41.688504741061195
              ],
              [
                -71.76856738307968,
                41.68845951235594
              ],
              [
                -71.76852084496154,
                41.68846977175922
              ],
              [
                -71.76787229340927,
                41.689307452349716
              ],
              [
                -71.76766853052582,
                41.689425696892016
              ],
              [
                -71.76738584386031,
                41.68945579760325
              ],
              [
                -71.76698478487044,
                41.68935662526823
              ],
              [
                -71.76684269937756,
                41.68919207772441
              ],
              [
                -71.76681835287243,
                41.689003702393556
              ],
              [
                -71.76647194727568,
                41.688821961688205
              ],
              [
                -71.76640173105193,
                41.68893989517449
              ],
              [
                -71.76608762374828,
                41.68897006552301
              ],
              [
                -71.76577479946583,
                41.68931232205595
              ],
              [
                -71.76569643508584,
                41.68935961098875
              ],
              [
                -71.76556269396931,
                41.689312812365415
              ],
              [
                -71.76553097987224,
                41.68924222358546
              ],
              [
                -71.76556206432737,
                41.68915971299463
              ],
              [
                -71.76585905553947,
                41.68878805008205
              ],
              [
                -71.76584288390346,
                41.688676206039034
              ],
              [
                -71.76563778698072,
                41.68847058243072
              ],
              [
                -71.76559807243237,
                41.688364681116006
              ],
              [
                -71.76569183163727,
                41.68824080622819
              ],
              [
                -71.76573062546322,
                41.68812294671909
              ],
              [
                -71.76569871914491,
                41.68800524976615
              ],
              [
                -71.76555693049683,
                41.68791136197873
              ],
              [
                -71.7649436371497,
                41.68777734165024
              ],
              [
                -71.76462170232575,
                41.68781341439616
              ],
              [
                -71.7643942995918,
                41.687914042524746
              ],
              [
                -71.76429270703622,
                41.68804382273256
              ],
              [
                -71.76421562004785,
                41.688403198692626
              ],
              [
                -71.76412995412058,
                41.68858594003121
              ],
              [
                -71.76377085399578,
                41.689140283666504
              ],
              [
                -71.76350618468655,
                41.689735629937736
              ],
              [
                -71.76335091762692,
                41.69018940080671
              ],
              [
                -71.76337288583352,
                41.690669344026965
              ],
              [
                -71.76348427549863,
                41.690701814084505
              ],
              [
                -71.76496436684104,
                41.69150440700839
              ],
              [
                -71.76693255330106,
                41.692191078360956
              ],
              [
                -71.76914706686668,
                41.69267700917955
              ],
              [
                -71.77179718686358,
                41.693402416897406
              ],
              [
                -71.77329808539481,
                41.69370287100742
              ],
              [
                -71.77615055131233,
                41.694208968028576
              ],
              [
                -71.77888614670128,
                41.69444970432254
              ],
              [
                -71.77960837362036,
                41.69454801894765
              ],
              [
                -71.78888428483071,
                41.69549001106069
              ],
              [
                -71.78867742002912,
                41.686610442019
              ],
              [
                -71.7876091475396,
                41.68669731033588
              ],
              [
                -71.78550978932765,
                41.6854931348602
              ],
              [
                -71.78254635865797,
                41.68550406085183
              ],
              [
                -71.78248918591335,
                41.682701726931185
              ],
              [
                -71.788277825339,
                41.68261058114297
              ],
              [
                -71.78836780112164,
                41.67431393075499
              ],
              [
                -71.78788769907345,
                41.656100938412564
              ],
              [
                -71.78455623185347,
                41.65618885171906
              ],
              [
                -71.7846379621192,
                41.658951244241244
              ],
              [
                -71.7847795803508,
                41.66196378194674
              ],
              [
                -71.78175305401356,
                41.66243184096391
              ],
              [
                -71.7819528658965,
                41.66319668204432
              ],
              [
                -71.78219180823268,
                41.66367188308357
              ],
              [
                -71.78229640762251,
                41.664333765521704
              ],
              [
                -71.78246337620844,
                41.66482048903196
              ],
              [
                -71.78245946748561,
                41.66496188365411
              ],
              [
                -71.78263911930377,
                41.66561459103195
              ]
            ]
          ],
          [
            [
              [
                -71.76471179707869,
                41.69873949448974
              ],
              [
                -71.75671496246669,
                41.69957475110448
              ],
              [
                -71.7564311622431,
                41.70010392124328
              ],
              [
                -71.75619217106302,
                41.700839153903026
              ],
              [
                -71.75616585621913,
                41.7014882394202
              ],
              [
                -71.75622612824458,
                41.70347842307285
              ],
              [
                -71.75806105125568,
                41.70332728254649
              ],
              [
                -71.75837312420114,
                41.70614282546055
              ],
              [
                -71.76167779465075,
                41.7060841060179
              ],
              [
                -71.761649482911,
                41.70646815761446
              ],
              [
                -71.76676085495794,
                41.705386533188296
              ],
              [
                -71.76778209451994,
                41.70513662187354
              ],
              [
                -71.76876043490623,
                41.70483210508972
              ],
              [
                -71.76870098466267,
                41.70441550098093
              ],
              [
                -71.7689969047981,
                41.704315523553674
              ],
              [
                -71.76906020410804,
                41.70473822382869
              ],
              [
                -71.76939256737283,
                41.70463413365902
              ],
              [
                -71.76888541268636,
                41.70379530298912
              ],
              [
                -71.77097544673,
                41.702778421357934
              ],
              [
                -71.77177688538859,
                41.7040250936798
              ],
              [
                -71.7728131727517,
                41.70374872785581
              ],
              [
                -71.77450656139364,
                41.70310266018241
              ],
              [
                -71.7751394585828,
                41.70289067902075
              ],
              [
                -71.77641143137011,
                41.70255900865986
              ],
              [
                -71.77638687934952,
                41.70162422155199
              ],
              [
                -71.77692421157084,
                41.701596557421944
              ],
              [
                -71.7767205627334,
                41.70136180512283
              ],
              [
                -71.77800426661938,
                41.70051004736033
              ],
              [
                -71.7775250535726,
                41.70017031198522
              ],
              [
                -71.7772862344209,
                41.70007226591938
              ],
              [
                -71.77674989181557,
                41.69975053182074
              ],
              [
                -71.77660730683174,
                41.69963367095354
              ],
              [
                -71.77633887735131,
                41.6997965621944
              ],
              [
                -71.7761989563124,
                41.694454699279035
              ],
              [
                -71.77167626795041,
                41.69375063766355
              ],
              [
                -71.76910445513862,
                41.69318991769222
              ],
              [
                -71.76639272179841,
                41.692271685026476
              ],
              [
                -71.7643353209222,
                41.691519876867304
              ],
              [
                -71.76328465498464,
                41.691282814564914
              ],
              [
                -71.76325602462106,
                41.69145614898115
              ],
              [
                -71.76301172786914,
                41.6916353027745
              ],
              [
                -71.76266272738485,
                41.69205228139815
              ],
              [
                -71.76283265747016,
                41.69213265965843
              ],
              [
                -71.7633117752331,
                41.69219989301996
              ],
              [
                -71.76334919510245,
                41.69223241830448
              ],
              [
                -71.7633169574572,
                41.692283872092766
              ],
              [
                -71.76336995820246,
                41.69231603303889
              ],
              [
                -71.76365796012716,
                41.692450919110776
              ],
              [
                -71.76390700208204,
                41.69252633604461
              ],
              [
                -71.76442537996802,
                41.692434851050145
              ],
              [
                -71.76455116869218,
                41.69243418070949
              ],
              [
                -71.76472472128528,
                41.69251188456234
              ],
              [
                -71.76480128495587,
                41.6925850244544
              ],
              [
                -71.76482932705022,
                41.69265925030465
              ],
              [
                -71.76484210213007,
                41.69338929354838
              ],
              [
                -71.7649674111662,
                41.69362633314211
              ],
              [
                -71.76496229042422,
                41.69378590303292
              ],
              [
                -71.76501870567166,
                41.69389934067812
              ],
              [
                -71.76522257704568,
                41.69400144650348
              ],
              [
                -71.76523772863239,
                41.69406112516588
              ],
              [
                -71.76506869626648,
                41.69399568088247
              ],
              [
                -71.76508500753847,
                41.6942000365258
              ],
              [
                -71.76498178667292,
                41.69432967780456
              ],
              [
                -71.76486535001847,
                41.6960532723033
              ],
              [
                -71.76505734865545,
                41.69605714776526
              ],
              [
                -71.76505063099712,
                41.69619583384774
              ],
              [
                -71.76485701693358,
                41.69618920880014
              ],
              [
                -71.76471179707869,
                41.69873949448974
              ]
            ]
          ]
        ]
      }
    }
  ],
  "bbox": [
    -71.78888428483071,
    41.656100938412564,
    -71.75216552288359,
    41.70646815761446
  ]
}
