{
  "$schema": "https://ripota.org/schemas/web/v1/display-geojson.schema.json",
  "type": "FeatureCollection",
  "properties": {
    "schemaVersion": 1,
    "geometryRole": "display",
    "geometryKind": "boundary",
    "potaReference": "US-6992",
    "potaName": "JL Curran State Park",
    "sourceName": "Rhode Island DEM State Conservation Land",
    "sourceUrl": "https://risegis.ri.gov/hosting/rest/services/RIDEM/State_Conservation_Land/MapServer/0",
    "sourceQuery": "DEM_AREA = 'J.L. Curran'",
    "sourceFeatureIds": [
      335,
      603,
      734
    ],
    "fidelity": "web",
    "detailedArtifact": "@ripota/parks/boundaries/us-6992.geojson"
  },
  "features": [
    {
      "type": "Feature",
      "properties": {
        "potaReference": "US-6992",
        "potaName": "JL Curran State Park",
        "geometryKind": "boundary",
        "geometryRole": "display",
        "fidelity": "web"
      },
      "geometry": {
        "type": "MultiPolygon",
        "coordinates": [
          [
            [
              [
                -71.5252655502151,
                41.7381263980443
              ],
              [
                -71.52278187596444,
                41.73982331276271
              ],
              [
                -71.52371858228611,
                41.740360917669555
              ],
              [
                -71.52318851333271,
                41.74089534582806
              ],
              [
                -71.52408406351476,
                41.741405833719895
              ],
              [
                -71.52431888433473,
                41.7414831605905
              ],
              [
                -71.52462276163742,
                41.74143747138098
              ],
              [
                -71.52649346329065,
                41.74099008128865
              ],
              [
                -71.52764512805318,
                41.74078387939919
              ],
              [
                -71.52899495725046,
                41.74058829701057
              ],
              [
                -71.52775079412443,
                41.73798908346503
              ],
              [
                -71.52694650298683,
                41.73757908914143
              ],
              [
                -71.5252655502151,
                41.7381263980443
              ]
            ]
          ],
          [
            [
              [
                -71.52763787662815,
                41.747011963022516
              ],
              [
                -71.52647604432212,
                41.74819978022288
              ],
              [
                -71.52610591396305,
                41.74844959372597
              ],
              [
                -71.52515857345922,
                41.748888804033164
              ],
              [
                -71.52465316991491,
                41.74908924547042
              ],
              [
                -71.52176877797758,
                41.75002455443977
              ],
              [
                -71.52125256782173,
                41.750159206841005
              ],
              [
                -71.52270450372149,
                41.752906207287175
              ],
              [
                -71.52214358061491,
                41.75296356019877
              ],
              [
                -71.52443342183653,
                41.755463645269224
              ],
              [
                -71.52984789382815,
                41.75469092486723
              ],
              [
                -71.52838990632324,
                41.751983724353565
              ],
              [
                -71.52990999085392,
                41.75177919031287
              ],
              [
                -71.53089514053273,
                41.751591332409674
              ],
              [
                -71.52821259287963,
                41.74642184508209
              ],
              [
                -71.52763787662815,
                41.747011963022516
              ]
            ]
          ],
          [
            [
              [
                -71.55011701921585,
                41.750311739585555
              ],
              [
                -71.55062016255272,
                41.750317936719284
              ],
              [
                -71.55115730355145,
                41.7503694114027
              ],
              [
                -71.55114939747021,
                41.750265297369246
              ],
              [
                -71.55084660712197,
                41.750199806942916
              ],
              [
                -71.55077933306394,
                41.74995241107568
              ],
              [
                -71.55004361884964,
                41.75001371559267
              ],
              [
                -71.54995256194388,
                41.749643993409
              ],
              [
                -71.55135181608522,
                41.74943622722952
              ],
              [
                -71.55134376660702,
                41.749395324248226
              ],
              [
                -71.55035306613222,
                41.7495410812576
              ],
              [
                -71.55008011171516,
                41.748288136879815
              ],
              [
                -71.54961075435726,
                41.74834687147636
              ],
              [
                -71.54881799572738,
                41.74613180662741
              ],
              [
                -71.54909485752069,
                41.746095670068804
              ],
              [
                -71.5486889422061,
                41.744470498835895
              ],
              [
                -71.54826560918028,
                41.74247993115982
              ],
              [
                -71.54985818478232,
                41.742293592075875
              ],
              [
                -71.54978360890289,
                41.74202441891543
              ],
              [
                -71.54820343050217,
                41.742206110454624
              ],
              [
                -71.54776584525895,
                41.740099075541195
              ],
              [
                -71.54774707111261,
                41.73979309651404
              ],
              [
                -71.54761047836674,
                41.73980241512824
              ],
              [
                -71.54762960191384,
                41.74011521240693
              ],
              [
                -71.54671947106763,
                41.740654409608545
              ],
              [
                -71.546088100727,
                41.740808386378525
              ],
              [
                -71.54591733123239,
                41.73994340627774
              ],
              [
                -71.545857220098,
                41.73994767454927
              ],
              [
                -71.54601626411964,
                41.740753316265234
              ],
              [
                -71.54466393889385,
                41.74002871540858
              ],
              [
                -71.54354256482203,
                41.74011246002324
              ],
              [
                -71.54391129079256,
                41.74099679326388
              ],
              [
                -71.54160474836098,
                41.74173359023281
              ],
              [
                -71.5421779042453,
                41.743921817344614
              ],
              [
                -71.54028265527104,
                41.74463167901553
              ],
              [
                -71.54068205845253,
                41.74697815433012
              ],
              [
                -71.54085136913118,
                41.74779284441093
              ],
              [
                -71.54092645345968,
                41.7484526450875
              ],
              [
                -71.5409291102076,
                41.74866987112901
              ],
              [
                -71.5408406338683,
                41.74946351407059
              ],
              [
                -71.54083871276106,
                41.75077069021635
              ],
              [
                -71.5407781066229,
                41.751094044160794
              ],
              [
                -71.54063711124527,
                41.75124440688753
              ],
              [
                -71.53962962439262,
                41.75192426749512
              ],
              [
                -71.53883100830856,
                41.752417137673156
              ],
              [
                -71.53834488011587,
                41.7526519369747
              ],
              [
                -71.537417757294,
                41.752962731463604
              ],
              [
                -71.53813976067994,
                41.756125872446084
              ],
              [
                -71.53840406987413,
                41.75665611431932
              ],
              [
                -71.54924531664982,
                41.75596809696192
              ],
              [
                -71.54953284499626,
                41.75604455628775
              ],
              [
                -71.54908215196735,
                41.75512288780555
              ],
              [
                -71.54860559382186,
                41.75511545632858
              ],
              [
                -71.54790600696036,
                41.75443752846874
              ],
              [
                -71.54792396923196,
                41.75395079936072
              ],
              [
                -71.5475064746705,
                41.753888023807214
              ],
              [
                -71.5466784349226,
                41.75150174740747
              ],
              [
                -71.54656515684724,
                41.75084230756616
              ],
              [
                -71.5464429355903,
                41.75048928959696
              ],
              [
                -71.54842272843919,
                41.75028775239167
              ],
              [
                -71.55011701921585,
                41.750311739585555
              ]
            ]
          ],
          [
            [
              [
                -71.53932343723568,
                41.74787471981413
              ],
              [
                -71.53685687559289,
                41.74846551473525
              ],
              [
                -71.53924626244184,
                41.75202512318908
              ],
              [
                -71.54053754164943,
                41.751163872313825
              ],
              [
                -71.54064740610137,
                41.75104325663241
              ],
              [
                -71.54069471861513,
                41.75070432147844
              ],
              [
                -71.54070002207898,
                41.749311170436634
              ],
              [
                -71.54078408490489,
                41.74859685644841
              ],
              [
                -71.54071698372569,
                41.74788002277377
              ],
              [
                -71.54065781528065,
                41.7475747424769
              ],
              [
                -71.53932343723568,
                41.74787471981413
              ]
            ]
          ]
        ]
      }
    }
  ],
  "bbox": [
    -71.55135181608522,
    41.73757908914143,
    -71.52125256782173,
    41.75665611431932
  ]
}
