{
  "$schema": "https://ripota.org/schemas/web/v1/display-geojson.schema.json",
  "type": "FeatureCollection",
  "properties": {
    "schemaVersion": 1,
    "geometryRole": "display",
    "geometryKind": "boundary",
    "potaReference": "US-6984",
    "potaName": "Black Hut Wildlife Management Area",
    "sourceName": "Rhode Island DEM State Conservation Land",
    "sourceUrl": "https://risegis.ri.gov/hosting/rest/services/RIDEM/State_Conservation_Land/MapServer/0",
    "sourceQuery": "DEM_AREA = 'Black Hut Management Area'",
    "sourceFeatureIds": [
      16,
      299,
      343,
      515,
      519,
      548,
      554,
      555,
      558,
      559,
      560,
      561,
      670,
      703,
      744,
      770,
      771,
      29221,
      47329
    ],
    "fidelity": "web",
    "detailedArtifact": "@ripota/parks/boundaries/us-6984.geojson"
  },
  "features": [
    {
      "type": "Feature",
      "properties": {
        "potaReference": "US-6984",
        "potaName": "Black Hut Wildlife Management Area",
        "geometryKind": "boundary",
        "geometryRole": "display",
        "fidelity": "web"
      },
      "geometry": {
        "type": "Polygon",
        "coordinates": [
          [
            [
              -71.66059362421073,
              41.97215108843172
            ],
            [
              -71.65992930934144,
              41.97220726009194
            ],
            [
              -71.65967699388608,
              41.970710779430334
            ],
            [
              -71.65964319177158,
              41.97065522559019
            ],
            [
              -71.65999645025083,
              41.970510599441106
            ],
            [
              -71.65961484648162,
              41.969848707360576
            ],
            [
              -71.65608531239177,
              41.96994743775323
            ],
            [
              -71.65510044922479,
              41.970072479938004
            ],
            [
              -71.65525564725174,
              41.97060864999493
            ],
            [
              -71.65469348114343,
              41.970686758657216
            ],
            [
              -71.65426514380262,
              41.97083454758037
            ],
            [
              -71.6540913911,
              41.97022671069543
            ],
            [
              -71.6541079168763,
              41.970208706489004
            ],
            [
              -71.65400671562304,
              41.97020733505455
            ],
            [
              -71.65414306859704,
              41.970605464842926
            ],
            [
              -71.65427801349828,
              41.97125423803842
            ],
            [
              -71.65383228543953,
              41.971484879616696
            ],
            [
              -71.65356267506708,
              41.97100037512022
            ],
            [
              -71.65348335237579,
              41.97017925651736
            ],
            [
              -71.65316012420456,
              41.97008730461861
            ],
            [
              -71.65278951003533,
              41.96989225444365
            ],
            [
              -71.6477209272865,
              41.96636341167631
            ],
            [
              -71.647869541727,
              41.96660982934354
            ],
            [
              -71.64771188353889,
              41.96634841682403
            ],
            [
              -71.64745671883314,
              41.96621555910089
            ],
            [
              -71.64784070446576,
              41.966798545579984
            ],
            [
              -71.64781575838303,
              41.967141599448624
            ],
            [
              -71.64314073127808,
              41.968214578380525
            ],
            [
              -71.64327178024318,
              41.969109615349154
            ],
            [
              -71.64398475382774,
              41.96913856618175
            ],
            [
              -71.64412986695923,
              41.96943595411408
            ],
            [
              -71.64756577000648,
              41.96890659641836
            ],
            [
              -71.64785976196583,
              41.97026955434157
            ],
            [
              -71.64675737403752,
              41.97055902244597
            ],
            [
              -71.64718172554022,
              41.97129760489233
            ],
            [
              -71.64896776564751,
              41.97086661014486
            ],
            [
              -71.64919080133467,
              41.971747542206195
            ],
            [
              -71.64933279268367,
              41.9731055477871
            ],
            [
              -71.64253580899704,
              41.97345455059231
            ],
            [
              -71.64070073194323,
              41.97082061403692
            ],
            [
              -71.63826034409004,
              41.97360774709637
            ],
            [
              -71.63648380292469,
              41.97532459682226
            ],
            [
              -71.63731179897455,
              41.976331576069754
            ],
            [
              -71.63915661471158,
              41.97588196979976
            ],
            [
              -71.64035771190306,
              41.97683959417172
            ],
            [
              -71.64130774573796,
              41.97738854947754
            ],
            [
              -71.64160370098439,
              41.977709595659825
            ],
            [
              -71.6422637738067,
              41.97742055707281
            ],
            [
              -71.64242674573909,
              41.97742455587334
            ],
            [
              -71.64242674291356,
              41.977629597340645
            ],
            [
              -71.6437317124474,
              41.97746657857678
            ],
            [
              -71.64467081709134,
              41.97743461269099
            ],
            [
              -71.6445698154668,
              41.97927256006958
            ],
            [
              -71.64242573509013,
              41.97996162421265
            ],
            [
              -71.63824272439486,
              41.981451589397665
            ],
            [
              -71.63971578343238,
              41.98395660104574
            ],
            [
              -71.64180570321037,
              41.983492587667506
            ],
            [
              -71.64133171208215,
              41.9855755634919
            ],
            [
              -71.64156578389185,
              41.986325548339664
            ],
            [
              -71.64086675094609,
              41.986554603661816
            ],
            [
              -71.64103578162307,
              41.986999550126455
            ],
            [
              -71.6366848142875,
              41.987475608894634
            ],
            [
              -71.63664470397566,
              41.987532597004204
            ],
            [
              -71.63673471302387,
              41.987910582982856
            ],
            [
              -71.63719172732516,
              41.98897854641056
            ],
            [
              -71.63813877571134,
              41.99211561642499
            ],
            [
              -71.64034073454503,
              41.99192754498705
            ],
            [
              -71.63975784794516,
              41.99034968256677
            ],
            [
              -71.64204019506431,
              41.99014344821632
            ],
            [
              -71.64266074784425,
              41.99174262662451
            ],
            [
              -71.64279874462754,
              41.99217860371186
            ],
            [
              -71.63826080999269,
              41.99252057625605
            ],
            [
              -71.63837278100611,
              41.99284159295746
            ],
            [
              -71.64289379570246,
              41.99248060084024
            ],
            [
              -71.64378275069383,
              41.995247576915126
            ],
            [
              -71.64441981064422,
              41.99523159884484
            ],
            [
              -71.64561373219806,
              42.00192454759113
            ],
            [
              -71.64659771659446,
              42.00255556514985
            ],
            [
              -71.64786181177992,
              42.00120956511618
            ],
            [
              -71.64925171276282,
              42.00201360391662
            ],
            [
              -71.64941777896698,
              42.00316456046968
            ],
            [
              -71.64912074186319,
              42.00417162361811
            ],
            [
              -71.65053671680826,
              42.00507860454277
            ],
            [
              -71.65074976863994,
              42.00507858243802
            ],
            [
              -71.65333713126448,
              42.004480459341416
            ],
            [
              -71.65611074259618,
              42.00794660309202
            ],
            [
              -71.65692875679807,
              42.00796358304694
            ],
            [
              -71.65725271528075,
              42.00793955606857
            ],
            [
              -71.65866875335261,
              42.0075875585672
            ],
            [
              -71.65881780430226,
              42.00751060095273
            ],
            [
              -71.65961978144841,
              42.00686161051456
            ],
            [
              -71.65989675612383,
              42.00672161653261
            ],
            [
              -71.66016680685722,
              42.00666155393902
            ],
            [
              -71.66037777626262,
              42.00665457277094
            ],
            [
              -71.6606037827352,
              42.006683582613014
            ],
            [
              -71.66108472573737,
              42.00681557312323
            ],
            [
              -71.66151278800291,
              42.0068135995535
            ],
            [
              -71.66174474047915,
              42.00673960772118
            ],
            [
              -71.66235975740868,
              42.00632960400474
            ],
            [
              -71.66258976555335,
              42.0062146247534
            ],
            [
              -71.66343179958874,
              42.00592057495464
            ],
            [
              -71.66401978469521,
              42.00582754986878
            ],
            [
              -71.66385981253175,
              42.005140625827174
            ],
            [
              -71.66381474599923,
              42.004783606945935
            ],
            [
              -71.66381777899181,
              42.0042616156859
            ],
            [
              -71.66106572734434,
              42.0042516156224
            ],
            [
              -71.66213581389798,
              42.003308606804566
            ],
            [
              -71.66395415472952,
              41.9981836722317
            ],
            [
              -71.6670977358571,
              41.99880159177798
            ],
            [
              -71.66923873820588,
              41.99928554211236
            ],
            [
              -71.6693167344455,
              41.99956455892266
            ],
            [
              -71.6699737820726,
              41.9990096115394
            ],
            [
              -71.67057079154085,
              41.99840561233592
            ],
            [
              -71.67077029360982,
              41.99814157648198
            ],
            [
              -71.67218376649768,
              41.996882597628215
            ],
            [
              -71.67271473431248,
              41.99627362634769
            ],
            [
              -71.67307375591635,
              41.99601959363839
            ],
            [
              -71.67378374067484,
              41.995637597884915
            ],
            [
              -71.67394477878719,
              41.995503576538844
            ],
            [
              -71.67413179112525,
              41.995283588831995
            ],
            [
              -71.6742937830957,
              41.99499460553094
            ],
            [
              -71.67451771672751,
              41.994782622513036
            ],
            [
              -71.67509489549708,
              41.9940134788339
            ],
            [
              -71.6733170511447,
              41.99220744534642
            ],
            [
              -71.67650162665684,
              41.99125089014429
            ],
            [
              -71.67643218217583,
              41.99108534105924
            ],
            [
              -71.67686975663264,
              41.98714751367707
            ],
            [
              -71.67501270399406,
              41.98793630496794
            ],
            [
              -71.6739239862507,
              41.98638904967335
            ],
            [
              -71.67414081944531,
              41.986365653113495
            ],
            [
              -71.67233080971366,
              41.98162912953879
            ],
            [
              -71.67434358577133,
              41.98118676564878
            ],
            [
              -71.67421861725873,
              41.98079402645236
            ],
            [
              -71.67217482256287,
              41.98123634647169
            ],
            [
              -71.67167657295631,
              41.98028924202116
            ],
            [
              -71.67198630100239,
              41.98024246982723
            ],
            [
              -71.67102212517545,
              41.978903042153796
            ],
            [
              -71.66997029044376,
              41.97950574650087
            ],
            [
              -71.66826604859342,
              41.97943888239708
            ],
            [
              -71.66727588686034,
              41.97994894352388
            ],
            [
              -71.66668733329395,
              41.979996022665766
            ],
            [
              -71.66678097486373,
              41.98025015003219
            ],
            [
              -71.66718374672736,
              41.980226497215746
            ],
            [
              -71.66799288364112,
              41.98158924808211
            ],
            [
              -71.66588796949699,
              41.98237834228607
            ],
            [
              -71.6663563156531,
              41.98374168705049
            ],
            [
              -71.66607855739589,
              41.984158173128435
            ],
            [
              -71.66617220847992,
              41.984458609360644
            ],
            [
              -71.66592560264779,
              41.98492135668514
            ],
            [
              -71.66589571124571,
              41.98536063619444
            ],
            [
              -71.66552573627948,
              41.98607782751611
            ],
            [
              -71.66519598261375,
              41.986403020583985
            ],
            [
              -71.66953646833032,
              41.99042828203338
            ],
            [
              -71.66898575556517,
              41.99022461664352
            ],
            [
              -71.66399805756136,
              41.98803815700125
            ],
            [
              -71.66307820142397,
              41.9910012955695
            ],
            [
              -71.66477628081319,
              41.99114609718602
            ],
            [
              -71.66395881476272,
              41.99340955827132
            ],
            [
              -71.66038373592225,
              41.99277556208058
            ],
            [
              -71.66032671689312,
              41.990574570320696
            ],
            [
              -71.66002577562723,
              41.99052859527316
            ],
            [
              -71.65997681150269,
              41.99020956902384
            ],
            [
              -71.65572681485934,
              41.98960055105609
            ],
            [
              -71.65239776191915,
              41.98905258271655
            ],
            [
              -71.65102476049033,
              41.987173618186034
            ],
            [
              -71.64899474263542,
              41.9838216161837
            ],
            [
              -71.64838679857489,
              41.9840025772474
            ],
            [
              -71.64860076137496,
              41.9822885821858
            ],
            [
              -71.65043476228826,
              41.98164358214901
            ],
            [
              -71.65069876252504,
              41.98300258243631
            ],
            [
              -71.65418776426542,
              41.98097454769904
            ],
            [
              -71.65446976361937,
              41.98185959137585
            ],
            [
              -71.65793380337321,
              41.98210957082257
            ],
            [
              -71.65850781271932,
              41.98128561646703
            ],
            [
              -71.66027479730042,
              41.98137955176541
            ],
            [
              -71.66072677437597,
              41.981037614092436
            ],
            [
              -71.66116801542073,
              41.98030832376556
            ],
            [
              -71.66089779857833,
              41.980217555808196
            ],
            [
              -71.66098176566629,
              41.98006162056856
            ],
            [
              -71.66137284266964,
              41.97996960219867
            ],
            [
              -71.66140079959938,
              41.97992356579952
            ],
            [
              -71.66221874251896,
              41.97941860198845
            ],
            [
              -71.66234380058576,
              41.979288590758074
            ],
            [
              -71.66255975640173,
              41.97897356378124
            ],
            [
              -71.66275278956087,
              41.97881961727545
            ],
            [
              -71.6630138107972,
              41.97873657998582
            ],
            [
              -71.66398733115325,
              41.97867292499498
            ],
            [
              -71.66509774231463,
              41.97871156225802
            ],
            [
              -71.66533576166691,
              41.97862357852381
            ],
            [
              -71.66581480201528,
              41.978276607449224
            ],
            [
              -71.66597479160139,
              41.97823658592001
            ],
            [
              -71.66625075086303,
              41.97828755321127
            ],
            [
              -71.66640693807513,
              41.978420333203545
            ],
            [
              -71.66627979365737,
              41.97778858788903
            ],
            [
              -71.66589871441771,
              41.9773525591531
            ],
            [
              -71.66614573705287,
              41.9771935546283
            ],
            [
              -71.66653279595367,
              41.975999538175934
            ],
            [
              -71.66671780220547,
              41.9756385851799
            ],
            [
              -71.66681971735179,
              41.97527757887184
            ],
            [
              -71.66686575483693,
              41.975216538979105
            ],
            [
              -71.66745679151033,
              41.975037565312256
            ],
            [
              -71.66922373321195,
              41.97478456953976
            ],
            [
              -71.66819174736274,
              41.972822545469626
            ],
            [
              -71.66710375522266,
              41.97367560101093
            ],
            [
              -71.6660587371275,
              41.972414540988495
            ],
            [
              -71.66547979165215,
              41.972950575312886
            ],
            [
              -71.66343177957215,
              41.970949578681726
            ],
            [
              -71.66214637794093,
              41.97155091755079
            ],
            [
              -71.66178876334439,
              41.97202596172513
            ],
            [
              -71.66059362421073,
              41.97215108843172
            ]
          ],
          [
            [
              -71.66477628081319,
              41.99114609718602
            ],
            [
              -71.66658139210725,
              41.991476475547294
            ],
            [
              -71.66911976070638,
              41.99190856245999
            ],
            [
              -71.66658123171584,
              41.99147698355671
            ],
            [
              -71.66477628081319,
              41.99114609718602
            ]
          ],
          [
            [
              -71.65599579741777,
              41.978286289438614
            ],
            [
              -71.6567999542762,
              41.97822850105453
            ],
            [
              -71.65681099624955,
              41.978228708350436
            ],
            [
              -71.65599579741777,
              41.978286289438614
            ]
          ],
          [
            [
              -71.65596079663753,
              41.99052261361253
            ],
            [
              -71.65661121982286,
              41.99216708490551
            ],
            [
              -71.65488138418029,
              41.99212074647125
            ],
            [
              -71.65455160039193,
              41.991460021593305
            ],
            [
              -71.65464899059951,
              41.99104363326542
            ],
            [
              -71.65295376084615,
              41.990732008419705
            ],
            [
              -71.65293280106211,
              41.989996548653586
            ],
            [
              -71.65596079663753,
              41.99052261361253
            ]
          ],
          [
            [
              -71.65460437330165,
              41.9723596027088
            ],
            [
              -71.65458006753146,
              41.972348572351464
            ],
            [
              -71.65449743155582,
              41.971951299261406
            ],
            [
              -71.6545154044291,
              41.971930887408874
            ],
            [
              -71.65539445880101,
              41.971776426561775
            ],
            [
              -71.65552864427318,
              41.972110252324526
            ],
            [
              -71.6555140983301,
              41.97213127550927
            ],
            [
              -71.65460437330165,
              41.9723596027088
            ]
          ]
        ]
      }
    }
  ],
  "bbox": [
    -71.67686975663264,
    41.96621555910089,
    -71.63648380292469,
    42.00796358304694
  ]
}
