{
  "$schema": "https://ripota.org/schemas/web/v1/display-geojson.schema.json",
  "type": "FeatureCollection",
  "properties": {
    "schemaVersion": 1,
    "geometryRole": "display",
    "geometryKind": "boundary",
    "potaReference": "US-6983",
    "potaName": "Woody Hill Wildlife Management Area",
    "sourceName": "Rhode Island DEM State Conservation Land",
    "sourceUrl": "https://risegis.ri.gov/hosting/rest/services/RIDEM/State_Conservation_Land/MapServer/0",
    "sourceQuery": "DEM_AREA = 'Woody Hill Management Area'",
    "sourceFeatureIds": [
      285,
      397,
      660,
      925,
      34078,
      34478
    ],
    "fidelity": "web",
    "detailedArtifact": "@ripota/parks/boundaries/us-6983.geojson"
  },
  "features": [
    {
      "type": "Feature",
      "properties": {
        "potaReference": "US-6983",
        "potaName": "Woody Hill Wildlife Management Area",
        "geometryKind": "boundary",
        "geometryRole": "display",
        "fidelity": "web"
      },
      "geometry": {
        "type": "MultiPolygon",
        "coordinates": [
          [
            [
              [
                -71.74510237744472,
                41.370218540490285
              ],
              [
                -71.74577004265318,
                41.3715573400992
              ],
              [
                -71.7456440930939,
                41.37162755557129
              ],
              [
                -71.74507181512502,
                41.370471076108096
              ],
              [
                -71.74491499131778,
                41.37054350041713
              ],
              [
                -71.74491190526086,
                41.37105953295151
              ],
              [
                -71.74437894044566,
                41.3713056639734
              ],
              [
                -71.7438920736504,
                41.369901735482124
              ],
              [
                -71.74347897456991,
                41.36995062912333
              ],
              [
                -71.7440571870378,
                41.36667302546982
              ],
              [
                -71.74430714137178,
                41.365055476804415
              ],
              [
                -71.74561917479723,
                41.3629501373454
              ],
              [
                -71.7458241693472,
                41.36248554385805
              ],
              [
                -71.74603178036381,
                41.361802543252004
              ],
              [
                -71.74672973209626,
                41.357470666543016
              ],
              [
                -71.74620177908548,
                41.357283765013854
              ],
              [
                -71.74618984139433,
                41.35713397635389
              ],
              [
                -71.74186207597566,
                41.35645042245067
              ],
              [
                -71.74123550350508,
                41.35809817387749
              ],
              [
                -71.74110992883834,
                41.360485585022595
              ],
              [
                -71.74104126047914,
                41.36273332649891
              ],
              [
                -71.74182955083022,
                41.36382821889669
              ],
              [
                -71.74240296089266,
                41.3652334466662
              ],
              [
                -71.74053201170912,
                41.365460354656
              ],
              [
                -71.73906002785965,
                41.36559264794178
              ],
              [
                -71.73687722783289,
                41.36563880202365
              ],
              [
                -71.73685646617614,
                41.36583560077365
              ],
              [
                -71.73658447487031,
                41.366010085447506
              ],
              [
                -71.73649308852401,
                41.36625013556337
              ],
              [
                -71.73633661381388,
                41.36641622897246
              ],
              [
                -71.73631728899765,
                41.36656437724882
              ],
              [
                -71.73635209027424,
                41.36671734231553
              ],
              [
                -71.7362497935013,
                41.36688740137086
              ],
              [
                -71.73614074022986,
                41.36718655889037
              ],
              [
                -71.73599799720591,
                41.36726941577464
              ],
              [
                -71.73584700915703,
                41.36745587893715
              ],
              [
                -71.73554269032661,
                41.36768070268732
              ],
              [
                -71.73564549409977,
                41.36935825161142
              ],
              [
                -71.73595263994117,
                41.36933852095666
              ],
              [
                -71.73631177821417,
                41.37190798173296
              ],
              [
                -71.73450339293917,
                41.372086124679626
              ],
              [
                -71.73457540583627,
                41.37315316451448
              ],
              [
                -71.73239931390647,
                41.37375414357156
              ],
              [
                -71.73227164224225,
                41.3736415268609
              ],
              [
                -71.73203270239253,
                41.37355580005028
              ],
              [
                -71.73167327627523,
                41.37367188741837
              ],
              [
                -71.73153439856844,
                41.37374065659676
              ],
              [
                -71.73137759010321,
                41.37395407287632
              ],
              [
                -71.73128183743609,
                41.373971889981355
              ],
              [
                -71.73122463917197,
                41.3740537207134
              ],
              [
                -71.73103313341164,
                41.37408935549012
              ],
              [
                -71.7309739111187,
                41.374201633013314
              ],
              [
                -71.73076363974542,
                41.37434946274259
              ],
              [
                -71.73067857740595,
                41.374380076139886
              ],
              [
                -71.73048482269252,
                41.37438206710004
              ],
              [
                -71.73045212153372,
                41.37441838578864
              ],
              [
                -71.73046284375907,
                41.37464973235582
              ],
              [
                -71.72777824617783,
                41.37461918927282
              ],
              [
                -71.7277997482514,
                41.375160491010796
              ],
              [
                -71.72688751153628,
                41.37518336640515
              ],
              [
                -71.72703115541508,
                41.37565759895746
              ],
              [
                -71.73047926907282,
                41.375512775728566
              ],
              [
                -71.73054252886415,
                41.37796246207792
              ],
              [
                -71.72783381331267,
                41.377884644661194
              ],
              [
                -71.72780378128303,
                41.37823665515314
              ],
              [
                -71.72802400571337,
                41.37894374693597
              ],
              [
                -71.7281445416056,
                41.379594537033086
              ],
              [
                -71.72849965893306,
                41.3807377496344
              ],
              [
                -71.7286076638554,
                41.38102508964937
              ],
              [
                -71.72892079626645,
                41.38152453700698
              ],
              [
                -71.7291643508317,
                41.38209180035671
              ],
              [
                -71.72947365268394,
                41.38267014482646
              ],
              [
                -71.72961014141057,
                41.38299291028812
              ],
              [
                -71.72962304499886,
                41.3831914849125
              ],
              [
                -71.7392529393184,
                41.38280817019474
              ],
              [
                -71.74176174204027,
                41.38485552410073
              ],
              [
                -71.74341360865819,
                41.38453535021753
              ],
              [
                -71.74313235380812,
                41.38620830212075
              ],
              [
                -71.73986177687804,
                41.38657469794699
              ],
              [
                -71.73965716843428,
                41.38694064387587
              ],
              [
                -71.73969164391504,
                41.38743922862558
              ],
              [
                -71.74282539536331,
                41.38724999084572
              ],
              [
                -71.74257091568755,
                41.38805649767704
              ],
              [
                -71.7416512186769,
                41.39203195303944
              ],
              [
                -71.74181455798391,
                41.39282102625643
              ],
              [
                -71.74330042604318,
                41.39271797687232
              ],
              [
                -71.74335288069435,
                41.393146817905766
              ],
              [
                -71.74353382003402,
                41.393130057602484
              ],
              [
                -71.74348183035204,
                41.3927050144832
              ],
              [
                -71.7456260118196,
                41.39255627170445
              ],
              [
                -71.745589437389,
                41.39297545758421
              ],
              [
                -71.74577352106974,
                41.392959836867526
              ],
              [
                -71.74598030021393,
                41.3905897213279
              ],
              [
                -71.74947860836106,
                41.39038229230442
              ],
              [
                -71.74971087277306,
                41.3896828591869
              ],
              [
                -71.74996094600048,
                41.389246915327796
              ],
              [
                -71.75010622375179,
                41.38883522596149
              ],
              [
                -71.75224593373426,
                41.38891537294494
              ],
              [
                -71.75364186671972,
                41.38902304911344
              ],
              [
                -71.75451652382621,
                41.38921151523201
              ],
              [
                -71.75485076711587,
                41.389239682121264
              ],
              [
                -71.75698428166183,
                41.388072719338055
              ],
              [
                -71.75779836439146,
                41.38739062617874
              ],
              [
                -71.75842332075271,
                41.386665913501595
              ],
              [
                -71.75918751499094,
                41.38569915496069
              ],
              [
                -71.7597512483564,
                41.38578417979253
              ],
              [
                -71.75994283246531,
                41.385194401494566
              ],
              [
                -71.75967671690965,
                41.38514538446344
              ],
              [
                -71.75884872284809,
                41.38485271038122
              ],
              [
                -71.75944878579105,
                41.38414935688667
              ],
              [
                -71.75945370386668,
                41.384337241124065
              ],
              [
                -71.76012360472339,
                41.38464435074531
              ],
              [
                -71.75994848413441,
                41.384415185688816
              ],
              [
                -71.75989646352052,
                41.38422989029427
              ],
              [
                -71.76000194715324,
                41.383699564725454
              ],
              [
                -71.7599526913497,
                41.38322406696967
              ],
              [
                -71.75998378916576,
                41.383128900113526
              ],
              [
                -71.75935511109765,
                41.382912252532485
              ],
              [
                -71.75889714130032,
                41.380657840205714
              ],
              [
                -71.75735907397078,
                41.38136753741244
              ],
              [
                -71.75762191214449,
                41.38221712563064
              ],
              [
                -71.75744937972517,
                41.38333139051347
              ],
              [
                -71.7575904091111,
                41.38414164201879
              ],
              [
                -71.75709264337667,
                41.384253018258924
              ],
              [
                -71.75544383105277,
                41.3841667313548
              ],
              [
                -71.75486242113935,
                41.38387508900023
              ],
              [
                -71.75367185153823,
                41.384050867290185
              ],
              [
                -71.75279762255141,
                41.384132546617806
              ],
              [
                -71.75224736140831,
                41.38300166744656
              ],
              [
                -71.7530795535668,
                41.38193850917629
              ],
              [
                -71.75333148702317,
                41.3817941217917
              ],
              [
                -71.75353430641462,
                41.38178707781669
              ],
              [
                -71.75377621629687,
                41.3813523577394
              ],
              [
                -71.75419182777526,
                41.38046463709305
              ],
              [
                -71.75518591346619,
                41.38034831102753
              ],
              [
                -71.75512998159972,
                41.38007712032637
              ],
              [
                -71.75608880975744,
                41.37996491015805
              ],
              [
                -71.75682684311575,
                41.380197340072954
              ],
              [
                -71.75874300612362,
                41.380007174392915
              ],
              [
                -71.75898684662299,
                41.37846427884764
              ],
              [
                -71.75625423107303,
                41.37794924335463
              ],
              [
                -71.75711453465802,
                41.3770455611488
              ],
              [
                -71.75833211496553,
                41.37615801119216
              ],
              [
                -71.75941677456387,
                41.37521956779058
              ],
              [
                -71.75948270521258,
                41.37488053026821
              ],
              [
                -71.76009965511604,
                41.37408897775129
              ],
              [
                -71.75679601541091,
                41.37409825035112
              ],
              [
                -71.75697724454263,
                41.37082562782319
              ],
              [
                -71.75633961473778,
                41.37082219311217
              ],
              [
                -71.75647975508592,
                41.369796111118255
              ],
              [
                -71.76081453845919,
                41.36945237565589
              ],
              [
                -71.76157113463779,
                41.36855819514581
              ],
              [
                -71.76097243951516,
                41.368201845656905
              ],
              [
                -71.7609873856481,
                41.36814880279872
              ],
              [
                -71.7613976154355,
                41.367904300781866
              ],
              [
                -71.76161704787455,
                41.367648463736735
              ],
              [
                -71.76188239017945,
                41.367534900113796
              ],
              [
                -71.76190367669375,
                41.367384237299156
              ],
              [
                -71.7618936446483,
                41.367325997264295
              ],
              [
                -71.7615181351516,
                41.36717540756148
              ],
              [
                -71.7533990978254,
                41.36479492388736
              ],
              [
                -71.75322786682828,
                41.36697576635625
              ],
              [
                -71.75343224172272,
                41.36699272409893
              ],
              [
                -71.75307524009965,
                41.368330998535185
              ],
              [
                -71.7530423994722,
                41.36880976135833
              ],
              [
                -71.75363562832779,
                41.36869530983542
              ],
              [
                -71.75404440166925,
                41.36873212366205
              ],
              [
                -71.75429169672215,
                41.36887953651639
              ],
              [
                -71.75426494881285,
                41.368940520085864
              ],
              [
                -71.75473167468765,
                41.3690091157532
              ],
              [
                -71.75429036716363,
                41.370811131170996
              ],
              [
                -71.74943362379358,
                41.37078476898103
              ],
              [
                -71.7491799368795,
                41.37220524806438
              ],
              [
                -71.74620219690733,
                41.372484134841436
              ],
              [
                -71.74611041883946,
                41.37227707300556
              ],
              [
                -71.74645252341767,
                41.3716180790377
              ],
              [
                -71.7468927834675,
                41.37132893118172
              ],
              [
                -71.74700913115039,
                41.37119222706061
              ],
              [
                -71.74704641252714,
                41.371087318587655
              ],
              [
                -71.74703629148873,
                41.37092511162343
              ],
              [
                -71.74671693700415,
                41.37000821210495
              ],
              [
                -71.74656591809882,
                41.369302515029794
              ],
              [
                -71.74644850686713,
                41.369110827847756
              ],
              [
                -71.74595606293798,
                41.368712071235926
              ],
              [
                -71.74576946419603,
                41.36862719652118
              ],
              [
                -71.74538833372772,
                41.36853560252144
              ],
              [
                -71.74484827189114,
                41.3683085167845
              ],
              [
                -71.74460436238746,
                41.36812468721806
              ],
              [
                -71.74455141841288,
                41.368276776439004
              ],
              [
                -71.74501304749595,
                41.3696271260316
              ],
              [
                -71.74510237744472,
                41.370218540490285
              ]
            ],
            [
              [
                -71.75874300612362,
                41.380007174392915
              ],
              [
                -71.75849291417137,
                41.37995370293139
              ],
              [
                -71.75752900987793,
                41.37975234935984
              ],
              [
                -71.75785624304243,
                41.3798175750121
              ],
              [
                -71.75874300612362,
                41.380007174392915
              ]
            ],
            [
              [
                -71.73447855413808,
                41.37535618544737
              ],
              [
                -71.73450769211634,
                41.37548849797843
              ],
              [
                -71.73461089749874,
                41.376090266271646
              ],
              [
                -71.73447855413808,
                41.37535618544737
              ]
            ],
            [
              [
                -71.7557790168376,
                41.37938678677106
              ],
              [
                -71.75523221534851,
                41.379272563363706
              ],
              [
                -71.75535957829577,
                41.37929740729008
              ],
              [
                -71.7557790168376,
                41.37938678677106
              ]
            ],
            [
              [
                -71.75143190316626,
                41.3813957533143
              ],
              [
                -71.7513576640101,
                41.38166768396771
              ],
              [
                -71.75136225927517,
                41.381641848344856
              ],
              [
                -71.75143190316626,
                41.3813957533143
              ]
            ],
            [
              [
                -71.74839057335413,
                41.38327733706089
              ],
              [
                -71.74837882101514,
                41.383192414318444
              ],
              [
                -71.7483404534471,
                41.38236700013375
              ],
              [
                -71.74837679620991,
                41.38314884973704
              ],
              [
                -71.74839057335413,
                41.38327733706089
              ]
            ],
            [
              [
                -71.74875095717653,
                41.38465003835419
              ],
              [
                -71.75004797247641,
                41.38883378417253
              ],
              [
                -71.74940447934533,
                41.3867773336565
              ],
              [
                -71.74875095717653,
                41.38465003835419
              ]
            ]
          ],
          [
            [
              [
                -71.75626809953863,
                41.390372080939215
              ],
              [
                -71.7555738016856,
                41.38973839063131
              ],
              [
                -71.75523820820464,
                41.3899468729334
              ],
              [
                -71.75593391513631,
                41.39058189201095
              ],
              [
                -71.75626809953863,
                41.390372080939215
              ]
            ]
          ],
          [
            [
              [
                -71.75486242113935,
                41.38387508900023
              ],
              [
                -71.75487776771308,
                41.38387282289795
              ],
              [
                -71.7548599283528,
                41.383873838452054
              ],
              [
                -71.75486242113935,
                41.38387508900023
              ]
            ]
          ]
        ]
      }
    }
  ],
  "bbox": [
    -71.76190367669375,
    41.35645042245067,
    -71.72688751153628,
    41.393146817905766
  ]
}
