{
  "$schema": "https://ripota.org/schemas/web/v1/display-geojson.schema.json",
  "type": "FeatureCollection",
  "properties": {
    "schemaVersion": 1,
    "geometryRole": "display",
    "geometryKind": "boundary",
    "potaReference": "US-6991",
    "potaName": "Rockville Wildlife Management Area",
    "sourceName": "Rhode Island DEM State Conservation Land",
    "sourceUrl": "https://risegis.ri.gov/hosting/rest/services/RIDEM/State_Conservation_Land/MapServer/0",
    "sourceQuery": "DEM_AREA = 'Rockville Management Area'",
    "sourceFeatureIds": [
      15,
      199,
      203,
      204,
      372,
      650,
      677,
      704,
      774,
      920,
      921,
      934,
      8550,
      15997,
      51970,
      51972
    ],
    "fidelity": "web",
    "detailedArtifact": "@ripota/parks/boundaries/us-6991.geojson"
  },
  "features": [
    {
      "type": "Feature",
      "properties": {
        "potaReference": "US-6991",
        "potaName": "Rockville Wildlife Management Area",
        "geometryKind": "boundary",
        "geometryRole": "display",
        "fidelity": "web"
      },
      "geometry": {
        "type": "MultiPolygon",
        "coordinates": [
          [
            [
              [
                -71.78666073630039,
                41.50377279645434
              ],
              [
                -71.78677215628227,
                41.50378353585496
              ],
              [
                -71.78681050162905,
                41.503823130283756
              ],
              [
                -71.78687715422994,
                41.50394085377458
              ],
              [
                -71.78689805948835,
                41.504067827595186
              ],
              [
                -71.78677544680005,
                41.50450840553046
              ],
              [
                -71.7867060996036,
                41.50534524126885
              ],
              [
                -71.78662340276661,
                41.505591937792396
              ],
              [
                -71.78619951715392,
                41.50605485582923
              ],
              [
                -71.7860037518897,
                41.50614754170074
              ],
              [
                -71.78563756243868,
                41.50621656072359
              ],
              [
                -71.7854298423066,
                41.506346401928006
              ],
              [
                -71.78457159606133,
                41.507971185291986
              ],
              [
                -71.78418530437533,
                41.508276700380726
              ],
              [
                -71.7848394582467,
                41.508825768583414
              ],
              [
                -71.78530330967237,
                41.50901284410271
              ],
              [
                -71.78564832171863,
                41.50919664202275
              ],
              [
                -71.78619423174705,
                41.50936397347737
              ],
              [
                -71.78828999374265,
                41.50934084044462
              ],
              [
                -71.79330095315963,
                41.508182016197054
              ],
              [
                -71.79315051855005,
                41.505755323625024
              ],
              [
                -71.79322339803896,
                41.50544733910137
              ],
              [
                -71.79358061833702,
                41.49745901814897
              ],
              [
                -71.79258842220027,
                41.4974078877265
              ],
              [
                -71.79071469348037,
                41.497855805502866
              ],
              [
                -71.79066033381743,
                41.49993692259204
              ],
              [
                -71.7907266124243,
                41.4999374267677
              ],
              [
                -71.79075171267668,
                41.500133611311256
              ],
              [
                -71.7902779681907,
                41.50003336645388
              ],
              [
                -71.78981971234911,
                41.50002503469379
              ],
              [
                -71.788562905091,
                41.5004698232127
              ],
              [
                -71.78765195607608,
                41.50084945830714
              ],
              [
                -71.78695990070909,
                41.50078669486379
              ],
              [
                -71.78637744439412,
                41.500863509200755
              ],
              [
                -71.78602125223964,
                41.50085686918376
              ],
              [
                -71.78353041760153,
                41.500738563036684
              ],
              [
                -71.78374905353154,
                41.500371356448085
              ],
              [
                -71.78378938059832,
                41.50018458819647
              ],
              [
                -71.78377452607276,
                41.499831809898986
              ],
              [
                -71.78380422878804,
                41.4996144275788
              ],
              [
                -71.78386980867441,
                41.49943444262242
              ],
              [
                -71.78404021397044,
                41.49914017884862
              ],
              [
                -71.78407869854999,
                41.498970922184576
              ],
              [
                -71.78342011295307,
                41.498975938716164
              ],
              [
                -71.78271269356142,
                41.49905346555758
              ],
              [
                -71.7819840624283,
                41.49906728886095
              ],
              [
                -71.7815151230131,
                41.499190875300165
              ],
              [
                -71.78121657941102,
                41.49921514452408
              ],
              [
                -71.78061266574758,
                41.49909019310332
              ],
              [
                -71.78005009494265,
                41.4990456254905
              ],
              [
                -71.77919563196595,
                41.498759859029576
              ],
              [
                -71.77849269937309,
                41.49887026907991
              ],
              [
                -71.77875527700024,
                41.50120206435093
              ],
              [
                -71.77940696883715,
                41.50578897911711
              ],
              [
                -71.78032881388597,
                41.5058911485991
              ],
              [
                -71.78106077220906,
                41.505883874340654
              ],
              [
                -71.78150409790082,
                41.50582652932589
              ],
              [
                -71.78219435861841,
                41.505885215136324
              ],
              [
                -71.78247781584976,
                41.505794640699435
              ],
              [
                -71.78259134757634,
                41.50566674701391
              ],
              [
                -71.78263103158885,
                41.50555756020797
              ],
              [
                -71.78240625534409,
                41.504659324467355
              ],
              [
                -71.78249343694837,
                41.50455894030526
              ],
              [
                -71.78279612230902,
                41.504418468708046
              ],
              [
                -71.78308332437956,
                41.50378768800863
              ],
              [
                -71.78666073630039,
                41.50377279645434
              ]
            ]
          ],
          [
            [
              [
                -71.76932380273858,
                41.51157425130212
              ],
              [
                -71.76900053586066,
                41.511743226424
              ],
              [
                -71.7687785499399,
                41.51196351478816
              ],
              [
                -71.76857845486032,
                41.512458463509
              ],
              [
                -71.7682469155257,
                41.5131260680023
              ],
              [
                -71.76917160153721,
                41.5133910957729
              ],
              [
                -71.76921748556828,
                41.51335707347488
              ],
              [
                -71.76923402963848,
                41.513211878756834
              ],
              [
                -71.76917076818609,
                41.51297190875427
              ],
              [
                -71.76920047185362,
                41.51273578999381
              ],
              [
                -71.76929381241558,
                41.51261212111624
              ],
              [
                -71.7693451822724,
                41.512160252874295
              ],
              [
                -71.76928157202504,
                41.51205390846087
              ],
              [
                -71.76926316757455,
                41.51175007335847
              ],
              [
                -71.76943853246625,
                41.511603827733765
              ],
              [
                -71.76971131829227,
                41.511448535917474
              ],
              [
                -71.76932380273858,
                41.51157425130212
              ]
            ]
          ],
          [
            [
              [
                -71.76019381863055,
                41.509648187847176
              ],
              [
                -71.76018320393857,
                41.509540636170556
              ],
              [
                -71.76126557734914,
                41.50947390285505
              ],
              [
                -71.76198004581451,
                41.50932586906531
              ],
              [
                -71.76340681752563,
                41.50915614641901
              ],
              [
                -71.76308790222832,
                41.50754594459179
              ],
              [
                -71.76489622405519,
                41.50733566249912
              ],
              [
                -71.76487800854234,
                41.50679419542185
              ],
              [
                -71.7647205662783,
                41.50635785588084
              ],
              [
                -71.76459982565456,
                41.506280947897366
              ],
              [
                -71.76431420232944,
                41.50618250156399
              ],
              [
                -71.76370446192459,
                41.506233321755374
              ],
              [
                -71.76054989950869,
                41.505993823767
              ],
              [
                -71.76008255266579,
                41.50588256794384
              ],
              [
                -71.75942865769387,
                41.50554469179416
              ],
              [
                -71.75925449831047,
                41.50542120539518
              ],
              [
                -71.75900459265146,
                41.50515696495233
              ],
              [
                -71.7583998619249,
                41.50430007524675
              ],
              [
                -71.75816862881437,
                41.50413211461012
              ],
              [
                -71.75706017227768,
                41.503770494423684
              ],
              [
                -71.75679196688947,
                41.50372894094017
              ],
              [
                -71.75544715180956,
                41.50367993458334
              ],
              [
                -71.75487338152122,
                41.503561855508394
              ],
              [
                -71.75376402717367,
                41.50324072751279
              ],
              [
                -71.75359548425065,
                41.50315688134256
              ],
              [
                -71.75322354640865,
                41.50287215494941
              ],
              [
                -71.7529628736882,
                41.50253671224376
              ],
              [
                -71.75289995488055,
                41.50238942534269
              ],
              [
                -71.75287131185026,
                41.50221153174185
              ],
              [
                -71.7528538264168,
                41.50174905358591
              ],
              [
                -71.75266526019371,
                41.50132584548051
              ],
              [
                -71.75225770697047,
                41.50100191549895
              ],
              [
                -71.75124271859141,
                41.50052412588189
              ],
              [
                -71.7510676751845,
                41.50037944091819
              ],
              [
                -71.75094340942421,
                41.49969069777856
              ],
              [
                -71.74955486107268,
                41.4989781178242
              ],
              [
                -71.75039679417036,
                41.498028914604845
              ],
              [
                -71.7502184744458,
                41.49793436373703
              ],
              [
                -71.75017472479725,
                41.49800804329433
              ],
              [
                -71.74911639626235,
                41.49791047004305
              ],
              [
                -71.74700703564226,
                41.49791437563593
              ],
              [
                -71.74678063690834,
                41.49948697155183
              ],
              [
                -71.7477275378921,
                41.49952597302855
              ],
              [
                -71.748162896478,
                41.49951388497296
              ],
              [
                -71.74867275495568,
                41.49955622306107
              ],
              [
                -71.74859574182466,
                41.50217835689769
              ],
              [
                -71.74860910995723,
                41.50327261182391
              ],
              [
                -71.7471770056896,
                41.5053541893723
              ],
              [
                -71.74671990890552,
                41.50563095098163
              ],
              [
                -71.74816934767226,
                41.50562580579949
              ],
              [
                -71.74871073521416,
                41.505699467670595
              ],
              [
                -71.74888089945203,
                41.5057796681768
              ],
              [
                -71.74917357469404,
                41.50599823055984
              ],
              [
                -71.74931209912003,
                41.506145389759276
              ],
              [
                -71.74945094660987,
                41.50637624193472
              ],
              [
                -71.74956274157888,
                41.50647164861695
              ],
              [
                -71.74978602974244,
                41.50658275448354
              ],
              [
                -71.75056408831887,
                41.5068175896849
              ],
              [
                -71.75077088944386,
                41.506781270175274
              ],
              [
                -71.75099331878694,
                41.50666919349006
              ],
              [
                -71.75117902018977,
                41.50666480295895
              ],
              [
                -71.75138102423526,
                41.50676001172109
              ],
              [
                -71.75143999342265,
                41.506915312431495
              ],
              [
                -71.7513688686815,
                41.50704698588891
              ],
              [
                -71.75084627038876,
                41.50706406827063
              ],
              [
                -71.75075103571149,
                41.50713601351581
              ],
              [
                -71.75074603584774,
                41.507215731329566
              ],
              [
                -71.75076273873724,
                41.50741895046264
              ],
              [
                -71.75090151597861,
                41.507629872681726
              ],
              [
                -71.75143815657472,
                41.507812029763556
              ],
              [
                -71.75173550864601,
                41.50786318856992
              ],
              [
                -71.75183123749457,
                41.50791877518229
              ],
              [
                -71.75182663163015,
                41.508049147130734
              ],
              [
                -71.75177936927952,
                41.508176783445336
              ],
              [
                -71.75132992157141,
                41.508588260825164
              ],
              [
                -71.75129843813447,
                41.50867999367232
              ],
              [
                -71.75194135435234,
                41.50889778308043
              ],
              [
                -71.75211111210605,
                41.50888545572834
              ],
              [
                -71.7522669053505,
                41.50869381487846
              ],
              [
                -71.75238092942745,
                41.50867762334172
              ],
              [
                -71.75244483873807,
                41.50873726437442
              ],
              [
                -71.75255183265709,
                41.50896021056564
              ],
              [
                -71.7528602210575,
                41.50911894853591
              ],
              [
                -71.7528603916393,
                41.509162787172265
              ],
              [
                -71.75268542112785,
                41.50919904049861
              ],
              [
                -71.75260075044812,
                41.50925900778168
              ],
              [
                -71.75247872059388,
                41.50926326085284
              ],
              [
                -71.75228747460562,
                41.509207885260196
              ],
              [
                -71.7521282978576,
                41.50921221943891
              ],
              [
                -71.75193293565712,
                41.50946372715373
              ],
              [
                -71.75169978400342,
                41.50961454036941
              ],
              [
                -71.75167088314942,
                41.50968833371526
              ],
              [
                -71.75173388605533,
                41.509747051516534
              ],
              [
                -71.75177380942631,
                41.5098853430052
              ],
              [
                -71.75175520621382,
                41.5102265183376
              ],
              [
                -71.75183548684598,
                41.510377460137434
              ],
              [
                -71.7520380146769,
                41.510476933469185
              ],
              [
                -71.75314123125399,
                41.51084108017887
              ],
              [
                -71.75376667496172,
                41.51087380765633
              ],
              [
                -71.75397744206323,
                41.51076411902695
              ],
              [
                -71.75445711567711,
                41.510637377179656
              ],
              [
                -71.75496192593195,
                41.51071920745005
              ],
              [
                -71.75552551468883,
                41.5109226788172
              ],
              [
                -71.75634185445742,
                41.51110739740367
              ],
              [
                -71.7569914931847,
                41.51138723423826
              ],
              [
                -71.75703946761317,
                41.51142677741577
              ],
              [
                -71.75703169471512,
                41.51147616936495
              ],
              [
                -71.7568945213644,
                41.51155353015271
              ],
              [
                -71.75646791164645,
                41.51164651993072
              ],
              [
                -71.75615605048512,
                41.51163524429015
              ],
              [
                -71.75570999540503,
                41.51169907768349
              ],
              [
                -71.75538856422678,
                41.51178806773624
              ],
              [
                -71.75394110616165,
                41.51262559298887
              ],
              [
                -71.75357394228384,
                41.512903192228904
              ],
              [
                -71.75340553549276,
                41.5131730035595
              ],
              [
                -71.7534295604188,
                41.513484030987854
              ],
              [
                -71.75365884635815,
                41.513782358788006
              ],
              [
                -71.75436526008598,
                41.5144201071039
              ],
              [
                -71.75438851326288,
                41.51453273017181
              ],
              [
                -71.75437272737423,
                41.51466258656536
              ],
              [
                -71.75431773797636,
                41.51476803460896
              ],
              [
                -71.7541909864197,
                41.51485649517636
              ],
              [
                -71.75387887621918,
                41.51497693611615
              ],
              [
                -71.74711212410475,
                41.50736843302665
              ],
              [
                -71.73714606145732,
                41.50743055020601
              ],
              [
                -71.73709374616297,
                41.51140600024565
              ],
              [
                -71.73866520853989,
                41.5116465444245
              ],
              [
                -71.73873005309082,
                41.512761504426386
              ],
              [
                -71.74003650234168,
                41.51267591433825
              ],
              [
                -71.74065456020618,
                41.516399151045825
              ],
              [
                -71.74471786907446,
                41.51601149744408
              ],
              [
                -71.74495914127132,
                41.51694951603921
              ],
              [
                -71.74987280378873,
                41.516385227773306
              ],
              [
                -71.75273847985052,
                41.5160144459097
              ],
              [
                -71.75322569828695,
                41.51800400056476
              ],
              [
                -71.75327614759071,
                41.51844043940102
              ],
              [
                -71.75423445004321,
                41.51834879498319
              ],
              [
                -71.75548954352632,
                41.51830512704069
              ],
              [
                -71.76079204250762,
                41.517924212396196
              ],
              [
                -71.76064580583038,
                41.51717871192197
              ],
              [
                -71.76054186520344,
                41.517187955813334
              ],
              [
                -71.76036270107109,
                41.51648135056551
              ],
              [
                -71.76056015773082,
                41.51645628589168
              ],
              [
                -71.76049117924539,
                41.51623742836036
              ],
              [
                -71.76041845675816,
                41.515524937413936
              ],
              [
                -71.76138322414081,
                41.51561195196532
              ],
              [
                -71.7619756000741,
                41.51542444543799
              ],
              [
                -71.76193972163173,
                41.51460885900021
              ],
              [
                -71.7628234057402,
                41.51451786665928
              ],
              [
                -71.7638930467143,
                41.51449874120474
              ],
              [
                -71.7637827935499,
                41.513885557412365
              ],
              [
                -71.76355137254282,
                41.51309278883209
              ],
              [
                -71.76328119209506,
                41.511748034686065
              ],
              [
                -71.762299712766,
                41.5118791057137
              ],
              [
                -71.76130581674364,
                41.509513307870094
              ],
              [
                -71.76019381863055,
                41.509648187847176
              ]
            ],
            [
              [
                -71.74744179173211,
                41.51326040353491
              ],
              [
                -71.7486163945268,
                41.51291792625084
              ],
              [
                -71.74858888923394,
                41.51332834646079
              ],
              [
                -71.74862525192626,
                41.513544375330085
              ],
              [
                -71.7486642322918,
                41.5136001394071
              ],
              [
                -71.74766062349217,
                41.5138864007049
              ],
              [
                -71.74744179173211,
                41.51326040353491
              ]
            ],
            [
              [
                -71.75619929787503,
                41.51678433852437
              ],
              [
                -71.7561166235827,
                41.516513376461496
              ],
              [
                -71.75577579231407,
                41.5164804334796
              ],
              [
                -71.7557627386117,
                41.51627365526333
              ],
              [
                -71.75651152972495,
                41.51629037081096
              ],
              [
                -71.75650737991441,
                41.516789778938126
              ],
              [
                -71.75619929787503,
                41.51678433852437
              ]
            ]
          ],
          [
            [
              [
                -71.77412399010431,
                41.51112890622999
              ],
              [
                -71.77443346314605,
                41.51124451001169
              ],
              [
                -71.77449325149979,
                41.511315995888026
              ],
              [
                -71.77470633496493,
                41.51140146966499
              ],
              [
                -71.77510691503912,
                41.511453434259465
              ],
              [
                -71.7769396583392,
                41.51105689335092
              ],
              [
                -71.77777859607905,
                41.51105274974609
              ],
              [
                -71.7782688385383,
                41.51094981990703
              ],
              [
                -71.77878376355453,
                41.511013223434794
              ],
              [
                -71.77878981284323,
                41.51045149095703
              ],
              [
                -71.77859780176044,
                41.50907733735614
              ],
              [
                -71.77838103698677,
                41.50916370974596
              ],
              [
                -71.77818515392613,
                41.509187500161914
              ],
              [
                -71.77746729226827,
                41.50914366111878
              ],
              [
                -71.77658628344126,
                41.509195596282986
              ],
              [
                -71.7758543096535,
                41.50914860093731
              ],
              [
                -71.77555433982437,
                41.509231988268276
              ],
              [
                -71.77541797448518,
                41.50932664137257
              ],
              [
                -71.77504168952987,
                41.509701666636644
              ],
              [
                -71.77465804066426,
                41.51000357961498
              ],
              [
                -71.77435254604607,
                41.51078329477066
              ],
              [
                -71.77426136117812,
                41.510893735945565
              ],
              [
                -71.77389029798222,
                41.51117335960532
              ],
              [
                -71.77404423198304,
                41.51111520511967
              ],
              [
                -71.77412399010431,
                41.51112890622999
              ]
            ]
          ],
          [
            [
              [
                -71.77275522674935,
                41.5092295357867
              ],
              [
                -71.77006264572556,
                41.508885886740444
              ],
              [
                -71.76964023042181,
                41.50901764395096
              ],
              [
                -71.76935569816324,
                41.50906406390851
              ],
              [
                -71.76656772159797,
                41.50920973168152
              ],
              [
                -71.7657183014495,
                41.50935498148772
              ],
              [
                -71.7648562641367,
                41.509426146719925
              ],
              [
                -71.76449018516712,
                41.50967129151739
              ],
              [
                -71.76430895304743,
                41.50983986735894
              ],
              [
                -71.76419231165679,
                41.510062945417154
              ],
              [
                -71.76412886607464,
                41.51049021006214
              ],
              [
                -71.76367218043711,
                41.510817441555396
              ],
              [
                -71.76348754971336,
                41.51102300820252
              ],
              [
                -71.76342946107486,
                41.51114642419662
              ],
              [
                -71.76339875702759,
                41.51132633711697
              ],
              [
                -71.76341749065382,
                41.51171166655518
              ],
              [
                -71.76365353389306,
                41.51297062777474
              ],
              [
                -71.76378656563658,
                41.51336178428188
              ],
              [
                -71.76406215493432,
                41.514788082427295
              ],
              [
                -71.76418459746093,
                41.5148534952975
              ],
              [
                -71.76468067156551,
                41.51462386337974
              ],
              [
                -71.76724913981054,
                41.51377698330059
              ],
              [
                -71.76781566101825,
                41.51347352510403
              ],
              [
                -71.7681663946711,
                41.51312464318672
              ],
              [
                -71.76732728687317,
                41.51291040548912
              ],
              [
                -71.768083279139,
                41.51308111683379
              ],
              [
                -71.76818708129616,
                41.51300593195953
              ],
              [
                -71.76865611934899,
                41.51193873854947
              ],
              [
                -71.76887517278836,
                41.51171140633876
              ],
              [
                -71.76906575586806,
                41.51158038727687
              ],
              [
                -71.76927095272889,
                41.51149514902046
              ],
              [
                -71.77051385913926,
                41.51107000078869
              ],
              [
                -71.77093532263152,
                41.5109614492506
              ],
              [
                -71.77128260678279,
                41.51092403254014
              ],
              [
                -71.77203804987448,
                41.51097863673581
              ],
              [
                -71.7732573433699,
                41.511261849888484
              ],
              [
                -71.7734804216535,
                41.511254907987514
              ],
              [
                -71.77364366897572,
                41.51120256190373
              ],
              [
                -71.77422422794004,
                41.51078148128431
              ],
              [
                -71.77452129182133,
                41.51000814513263
              ],
              [
                -71.77465365702673,
                41.50984555576596
              ],
              [
                -71.77499049962816,
                41.50960004428366
              ],
              [
                -71.77375627642827,
                41.50914831516473
              ],
              [
                -71.77275522674935,
                41.5092295357867
              ]
            ],
            [
              [
                -71.76644422584287,
                41.51067127401263
              ],
              [
                -71.77050324617171,
                41.5102349869942
              ],
              [
                -71.76875558942614,
                41.510431281029724
              ],
              [
                -71.76644422584287,
                41.51067127401263
              ]
            ]
          ],
          [
            [
              [
                -71.77215970453234,
                41.51109283774534
              ],
              [
                -71.77137504323845,
                41.511011668020785
              ],
              [
                -71.7710556870697,
                41.511035605212996
              ],
              [
                -71.77051869229695,
                41.511172661558334
              ],
              [
                -71.77115143438597,
                41.51286195484703
              ],
              [
                -71.77153487702546,
                41.513556472656106
              ],
              [
                -71.77168011722415,
                41.51375961903728
              ],
              [
                -71.77199080009126,
                41.51403291853933
              ],
              [
                -71.77238402053857,
                41.51418935313361
              ],
              [
                -71.77259617032806,
                41.51420716436649
              ],
              [
                -71.77269684590615,
                41.51411196453527
              ],
              [
                -71.77271428440501,
                41.51396676631955
              ],
              [
                -71.77268768946931,
                41.51386576268512
              ],
              [
                -71.77278047822902,
                41.513611858461594
              ],
              [
                -71.77285413008146,
                41.51352893093069
              ],
              [
                -71.7728598401347,
                41.51316941873648
              ],
              [
                -71.77292786891095,
                41.513036988576346
              ],
              [
                -71.77314994132092,
                41.51283975457529
              ],
              [
                -71.77314421131116,
                41.51255013327781
              ],
              [
                -71.77318713043378,
                41.51245574813984
              ],
              [
                -71.77328589452674,
                41.51233613199086
              ],
              [
                -71.7734911282348,
                41.512212871760106
              ],
              [
                -71.77370862315898,
                41.51227511858222
              ],
              [
                -71.77384785833875,
                41.51227781874013
              ],
              [
                -71.77416611005508,
                41.5122058389427
              ],
              [
                -71.77438197690222,
                41.51203642670815
              ],
              [
                -71.77442815644807,
                41.511859958472805
              ],
              [
                -71.77440527609866,
                41.51178404374593
              ],
              [
                -71.77429362211691,
                41.51170021116792
              ],
              [
                -71.77401639637378,
                41.511584872341444
              ],
              [
                -71.77363334588858,
                41.511483360720874
              ],
              [
                -71.77355331099223,
                41.511384077162354
              ],
              [
                -71.77363030251323,
                41.51135574158274
              ],
              [
                -71.7736565382986,
                41.511307655171265
              ],
              [
                -71.77336152817185,
                41.51135803654772
              ],
              [
                -71.77316757624826,
                41.51134028163247
              ],
              [
                -71.77215970453234,
                41.51109283774534
              ]
            ]
          ],
          [
            [
              [
                -71.76488254562088,
                41.50647088960532
              ],
              [
                -71.76505626597547,
                41.50650368221179
              ],
              [
                -71.76529226576126,
                41.506630751977994
              ],
              [
                -71.7654063399895,
                41.50662705831143
              ],
              [
                -71.76590498653921,
                41.50647839585271
              ],
              [
                -71.76650345809217,
                41.50641251760223
              ],
              [
                -71.76701106294507,
                41.506445645081904
              ],
              [
                -71.76713168076756,
                41.506479669803184
              ],
              [
                -71.76744717694356,
                41.50640621038992
              ],
              [
                -71.76770814890384,
                41.506390509118
              ],
              [
                -71.76831264109401,
                41.50645771010166
              ],
              [
                -71.76917565152533,
                41.50635689568937
              ],
              [
                -71.76967966906749,
                41.5064051139026
              ],
              [
                -71.77001593811738,
                41.5064990062019
              ],
              [
                -71.77021314487261,
                41.50651363716271
              ],
              [
                -71.77054105223567,
                41.506410703697995
              ],
              [
                -71.77049390713745,
                41.50599017098633
              ],
              [
                -71.77087900215047,
                41.5059741705318
              ],
              [
                -71.7710607013168,
                41.50577202925323
              ],
              [
                -71.77106935895745,
                41.50565948996304
              ],
              [
                -71.77099809460918,
                41.5056418184984
              ],
              [
                -71.77104501212301,
                41.50551134964768
              ],
              [
                -71.77099740229693,
                41.505475784831084
              ],
              [
                -71.77100601423294,
                41.50535226720631
              ],
              [
                -71.77085241395878,
                41.50528813598173
              ],
              [
                -71.77081373233985,
                41.505204522418936
              ],
              [
                -71.77064377736626,
                41.50515826792649
              ],
              [
                -71.77062875159427,
                41.50505676102654
              ],
              [
                -71.77053715767923,
                41.50497876062995
              ],
              [
                -71.76979710650104,
                41.505232983375706
              ],
              [
                -71.76883549064802,
                41.50532168325352
              ],
              [
                -71.7683724914492,
                41.5054791954152
              ],
              [
                -71.76763159986133,
                41.5055330651581
              ],
              [
                -71.76736538217405,
                41.50560366615499
              ],
              [
                -71.76682138312594,
                41.50559669632735
              ],
              [
                -71.76649617687492,
                41.50552746850109
              ],
              [
                -71.76603191233333,
                41.50537760122237
              ],
              [
                -71.76597274781432,
                41.50519386423882
              ],
              [
                -71.76508144926308,
                41.50506968022664
              ],
              [
                -71.76480743155882,
                41.503516226420196
              ],
              [
                -71.76089765055116,
                41.503612016099446
              ],
              [
                -71.76125939446062,
                41.50006331373055
              ],
              [
                -71.7607460814503,
                41.49995938689252
              ],
              [
                -71.76050415361406,
                41.49987494190742
              ],
              [
                -71.76014720015661,
                41.499668297321
              ],
              [
                -71.75962054455124,
                41.49950179782333
              ],
              [
                -71.75841203903465,
                41.49935979972675
              ],
              [
                -71.75777264115273,
                41.498975851423204
              ],
              [
                -71.75664209807708,
                41.498438557103434
              ],
              [
                -71.75571115532126,
                41.49783047854344
              ],
              [
                -71.75552127188247,
                41.49775739269376
              ],
              [
                -71.75443166356443,
                41.49751171920187
              ],
              [
                -71.7533931336013,
                41.49711308070176
              ],
              [
                -71.75325535742918,
                41.49737275687912
              ],
              [
                -71.75324212554786,
                41.49751248966341
              ],
              [
                -71.75268611644876,
                41.497400447944386
              ],
              [
                -71.75241231659501,
                41.49805025749479
              ],
              [
                -71.75233686328995,
                41.49815171334848
              ],
              [
                -71.7522571683486,
                41.49824684691069
              ],
              [
                -71.75176885845032,
                41.4985539468434
              ],
              [
                -71.75156326548834,
                41.49878229893225
              ],
              [
                -71.75135969265193,
                41.49936868990977
              ],
              [
                -71.75146771301209,
                41.49935855489972
              ],
              [
                -71.7518026860339,
                41.49942315432826
              ],
              [
                -71.75220921200774,
                41.49958856472465
              ],
              [
                -71.75299549609643,
                41.49981253228145
              ],
              [
                -71.7531908718602,
                41.49989921237202
              ],
              [
                -71.75380823516386,
                41.50006019376075
              ],
              [
                -71.75417215281175,
                41.50011086359998
              ],
              [
                -71.75452008301103,
                41.500118013110814
              ],
              [
                -71.75508981151741,
                41.500227619530165
              ],
              [
                -71.75556247281492,
                41.500263759952205
              ],
              [
                -71.75643734161908,
                41.500222217133775
              ],
              [
                -71.75675854397747,
                41.50013439052312
              ],
              [
                -71.75700048715456,
                41.499999226575866
              ],
              [
                -71.75715801467538,
                41.49984445041685
              ],
              [
                -71.75728954283201,
                41.499780803933916
              ],
              [
                -71.75753183107885,
                41.49973274720699
              ],
              [
                -71.75801190211165,
                41.499830660132545
              ],
              [
                -71.75820728218042,
                41.49991733168756
              ],
              [
                -71.75849626502274,
                41.50015877486797
              ],
              [
                -71.75934520129964,
                41.50022417599074
              ],
              [
                -71.75951148979688,
                41.50028517417641
              ],
              [
                -71.75954098074268,
                41.50040983231842
              ],
              [
                -71.75958859649187,
                41.50045328031192
              ],
              [
                -71.75973112530566,
                41.50050443291578
              ],
              [
                -71.7599743621554,
                41.50069394122926
              ],
              [
                -71.76046525792091,
                41.500859131652824
              ],
              [
                -71.7605445808857,
                41.50092230520457
              ],
              [
                -71.76055021807083,
                41.50101336234323
              ],
              [
                -71.76050317132517,
                41.501112457745535
              ],
              [
                -71.76041176561061,
                41.50119629472581
              ],
              [
                -71.76001383491267,
                41.50129807916819
              ],
              [
                -71.75986380482368,
                41.50137350713275
              ],
              [
                -71.75968776758363,
                41.50154094410673
              ],
              [
                -71.75947450969896,
                41.50156794098932
              ],
              [
                -71.75944020294727,
                41.50162045886827
              ],
              [
                -71.75949439575365,
                41.501833633486
              ],
              [
                -71.75940983651678,
                41.501951766256255
              ],
              [
                -71.7592519800398,
                41.502023394316424
              ],
              [
                -71.75875135608005,
                41.502064117203666
              ],
              [
                -71.75832465688289,
                41.502136348500706
              ],
              [
                -71.75808178098995,
                41.502037904930695
              ],
              [
                -71.75776005409178,
                41.5019950718667
              ],
              [
                -71.75752241803715,
                41.50188869554291
              ],
              [
                -71.75720877053486,
                41.501889398286984
              ],
              [
                -71.75695259266263,
                41.50175930546916
              ],
              [
                -71.75630122586527,
                41.50178094106885
              ],
              [
                -71.7561012569068,
                41.50186849649739
              ],
              [
                -71.7560914948355,
                41.50206649587932
              ],
              [
                -71.75595500047082,
                41.5022093439783
              ],
              [
                -71.75544833488216,
                41.50239318373918
              ],
              [
                -71.75526254405473,
                41.50169852254855
              ],
              [
                -71.7538897258178,
                41.50141528501334
              ],
              [
                -71.75326611033991,
                41.50109960212018
              ],
              [
                -71.7522429859065,
                41.50018145861438
              ],
              [
                -71.75141413953882,
                41.49973077346411
              ],
              [
                -71.75113294399785,
                41.50000381875703
              ],
              [
                -71.75117525720657,
                41.500260067346595
              ],
              [
                -71.75129333813655,
                41.50041346723858
              ],
              [
                -71.75218270915346,
                41.500769449876074
              ],
              [
                -71.75254433710465,
                41.50099890585591
              ],
              [
                -71.75283788380383,
                41.501287173458586
              ],
              [
                -71.75301239914769,
                41.501697021599846
              ],
              [
                -71.75301831502414,
                41.50221743914057
              ],
              [
                -71.75306451551447,
                41.50241005325832
              ],
              [
                -71.75327380402561,
                41.50271235482417
              ],
              [
                -71.75360634689126,
                41.50301150123448
              ],
              [
                -71.75381592567791,
                41.503136406433235
              ],
              [
                -71.75539573191055,
                41.50353728395614
              ],
              [
                -71.7557744431649,
                41.50358279621735
              ],
              [
                -71.75668271152483,
                41.50360267203274
              ],
              [
                -71.75709865778376,
                41.50365055488921
              ],
              [
                -71.75777670484165,
                41.503843405119035
              ],
              [
                -71.7582359611497,
                41.504023002856336
              ],
              [
                -71.75847241595113,
                41.50415536014376
              ],
              [
                -71.7586163674073,
                41.504306964608205
              ],
              [
                -71.75903435784909,
                41.50496874633057
              ],
              [
                -71.7593326465061,
                41.505305628160976
              ],
              [
                -71.75962527234424,
                41.50558272535116
              ],
              [
                -71.76012061410025,
                41.50581756743195
              ],
              [
                -71.76072071391813,
                41.50594294647119
              ],
              [
                -71.76381714839063,
                41.50614933797657
              ],
              [
                -71.76428227927043,
                41.506125400235675
              ],
              [
                -71.76462237934294,
                41.506216097729514
              ],
              [
                -71.76475067525311,
                41.50628060075025
              ],
              [
                -71.76488254562088,
                41.50647088960532
              ]
            ]
          ]
        ]
      }
    }
  ],
  "bbox": [
    -71.79358061833702,
    41.49711308070176,
    -71.73709374616297,
    41.51844043940102
  ]
}
