{
  "$schema": "https://ripota.org/schemas/web/v1/display-geojson.schema.json",
  "type": "FeatureCollection",
  "properties": {
    "schemaVersion": 1,
    "geometryRole": "display",
    "geometryKind": "boundary",
    "potaReference": "US-6989",
    "potaName": "Black Farm Wildlife Management Area",
    "sourceName": "Rhode Island DEM State Conservation Land",
    "sourceUrl": "https://risegis.ri.gov/hosting/rest/services/RIDEM/State_Conservation_Land/MapServer/0",
    "sourceQuery": "DEM_AREA = 'Black Farm Management Area'",
    "sourceFeatureIds": [
      7,
      25,
      219,
      600
    ],
    "fidelity": "web",
    "detailedArtifact": "@ripota/parks/boundaries/us-6989.geojson"
  },
  "features": [
    {
      "type": "Feature",
      "properties": {
        "potaReference": "US-6989",
        "potaName": "Black Farm Wildlife Management Area",
        "geometryKind": "boundary",
        "geometryRole": "display",
        "fidelity": "web"
      },
      "geometry": {
        "type": "Polygon",
        "coordinates": [
          [
            [
              -71.72311182953563,
              41.46318360422679
            ],
            [
              -71.72320601427884,
              41.46313918416335
            ],
            [
              -71.72318641410138,
              41.462920801458466
            ],
            [
              -71.72279085212084,
              41.461639597919586
            ],
            [
              -71.72109903463523,
              41.46153343335318
            ],
            [
              -71.72075527566666,
              41.461814104142945
            ],
            [
              -71.72072191741849,
              41.46201211122802
            ],
            [
              -71.72030766416391,
              41.4623891988467
            ],
            [
              -71.72022593335087,
              41.46243724650856
            ],
            [
              -71.72010774006326,
              41.462450936344744
            ],
            [
              -71.72008366345341,
              41.462521900300615
            ],
            [
              -71.7201118098413,
              41.4627727093691
            ],
            [
              -71.72018490464265,
              41.462861510592596
            ],
            [
              -71.7205130887602,
              41.463041047568545
            ],
            [
              -71.72059527612566,
              41.46312755129388
            ],
            [
              -71.72066556958562,
              41.46328477505838
            ],
            [
              -71.72067813663487,
              41.46353504298713
            ],
            [
              -71.72075470712541,
              41.4637538309112
            ],
            [
              -71.72088848179777,
              41.46384707661196
            ],
            [
              -71.7209794063318,
              41.46382637745884
            ],
            [
              -71.72113670192346,
              41.46370064464899
            ],
            [
              -71.7212943198781,
              41.46366955340542
            ],
            [
              -71.72135935469257,
              41.463616975718814
            ],
            [
              -71.72142998515395,
              41.46342641236859
            ],
            [
              -71.72160899359203,
              41.46344203076862
            ],
            [
              -71.72182414238415,
              41.46338232141928
            ],
            [
              -71.72196987159265,
              41.463423090255944
            ],
            [
              -71.72216997994684,
              41.463399898722855
            ],
            [
              -71.72244910765404,
              41.46342330531495
            ],
            [
              -71.72270491446001,
              41.46334173781333
            ],
            [
              -71.72258924810978,
              41.46344083505317
            ],
            [
              -71.72224512361308,
              41.46351630260502
            ],
            [
              -71.72214126435564,
              41.46358094994634
            ],
            [
              -71.72206895779246,
              41.464066618069324
            ],
            [
              -71.72217767620243,
              41.46497671174999
            ],
            [
              -71.72206538731706,
              41.46481466198064
            ],
            [
              -71.72190577243191,
              41.46468837887785
            ],
            [
              -71.72189939078042,
              41.46461243651337
            ],
            [
              -71.72194485394947,
              41.46447885344398
            ],
            [
              -71.72190443391415,
              41.46424241638564
            ],
            [
              -71.72194323769848,
              41.464064551186745
            ],
            [
              -71.72185790699938,
              41.46380649579593
            ],
            [
              -71.72182140632731,
              41.463834082281984
            ],
            [
              -71.72180768551405,
              41.46393781992474
            ],
            [
              -71.72167532282552,
              41.46392114222987
            ],
            [
              -71.72160787736969,
              41.46395513696656
            ],
            [
              -71.72159414898445,
              41.46405675776608
            ],
            [
              -71.72154353534808,
              41.46407378809722
            ],
            [
              -71.72147024413016,
              41.46404429810368
            ],
            [
              -71.72142436948893,
              41.463798864700216
            ],
            [
              -71.72138477254762,
              41.463743911423876
            ],
            [
              -71.72132278504543,
              41.46372709876169
            ],
            [
              -71.72122999808582,
              41.46375902520174
            ],
            [
              -71.72119915659302,
              41.46379506612796
            ],
            [
              -71.7212674487388,
              41.46401082267885
            ],
            [
              -71.72123945845482,
              41.464057440481085
            ],
            [
              -71.72089647222703,
              41.464189326002185
            ],
            [
              -71.7207106524524,
              41.46418121535981
            ],
            [
              -71.72027076679235,
              41.46396193877184
            ],
            [
              -71.72017225403783,
              41.4639663601278
            ],
            [
              -71.72011898582775,
              41.46402995887985
            ],
            [
              -71.72013328082473,
              41.464095544263316
            ],
            [
              -71.72004112362892,
              41.464313725297075
            ],
            [
              -71.7200361226015,
              41.464499991616485
            ],
            [
              -71.71996876391802,
              41.464559383584636
            ],
            [
              -71.7198911435699,
              41.46491511353227
            ],
            [
              -71.71981296481243,
              41.46510575244304
            ],
            [
              -71.72003348401466,
              41.46538471548377
            ],
            [
              -71.72050718965811,
              41.46561239631428
            ],
            [
              -71.72075421090955,
              41.46583445347025
            ],
            [
              -71.7208654818229,
              41.46598727559204
            ],
            [
              -71.72089294426601,
              41.46614138496292
            ],
            [
              -71.72087216320587,
              41.46619206130359
            ],
            [
              -71.72068410025638,
              41.46639818060456
            ],
            [
              -71.72047478264238,
              41.46646159615336
            ],
            [
              -71.72019704433177,
              41.466651172452224
            ],
            [
              -71.72009887809176,
              41.466832528867144
            ],
            [
              -71.71998756751967,
              41.46723554982894
            ],
            [
              -71.71992492069151,
              41.467298685580886
            ],
            [
              -71.71950653207165,
              41.46750090674087
            ],
            [
              -71.71928720962522,
              41.46770612354067
            ],
            [
              -71.71922018897425,
              41.46780414945136
            ],
            [
              -71.71922904059502,
              41.46801110101256
            ],
            [
              -71.71918872466597,
              41.468039310686734
            ],
            [
              -71.71905147536384,
              41.467949831548424
            ],
            [
              -71.71882672144991,
              41.46809851298537
            ],
            [
              -71.71875866096845,
              41.46811045742386
            ],
            [
              -71.71871739924728,
              41.46807959020568
            ],
            [
              -71.71864048581615,
              41.46790644637331
            ],
            [
              -71.71857023768627,
              41.46793527366625
            ],
            [
              -71.71853302685177,
              41.4679966711784
            ],
            [
              -71.71847395797464,
              41.46823477762064
            ],
            [
              -71.71842689928272,
              41.46826074884537
            ],
            [
              -71.71838264254394,
              41.46822988719496
            ],
            [
              -71.71837105321092,
              41.46812132064535
            ],
            [
              -71.71831339578966,
              41.46811130334233
            ],
            [
              -71.71820959885261,
              41.468177890923016
            ],
            [
              -71.71814593906764,
              41.46816282110018
            ],
            [
              -71.71801869492586,
              41.46804011158232
            ],
            [
              -71.71796630101517,
              41.46803683529172
            ],
            [
              -71.71786176577363,
              41.46810679953985
            ],
            [
              -71.71782956485781,
              41.46832403762383
            ],
            [
              -71.71785671719103,
              41.46838700035339
            ],
            [
              -71.71811819336196,
              41.468647195327065
            ],
            [
              -71.71819205956461,
              41.468804592855896
            ],
            [
              -71.71821354277691,
              41.46896208881547
            ],
            [
              -71.71801579611963,
              41.46940238864623
            ],
            [
              -71.71787661418425,
              41.47009544768011
            ],
            [
              -71.7177500552346,
              41.47007008819961
            ],
            [
              -71.71737739031558,
              41.46980653706486
            ],
            [
              -71.7172562075023,
              41.469822519314704
            ],
            [
              -71.71691113017143,
              41.4700234678797
            ],
            [
              -71.71679592309646,
              41.470197990700484
            ],
            [
              -71.71678121803068,
              41.47027678675219
            ],
            [
              -71.71687032910452,
              41.47051742576295
            ],
            [
              -71.71685300426874,
              41.470558718114184
            ],
            [
              -71.71673999661503,
              41.470482788317234
            ],
            [
              -71.71670214249285,
              41.47035232850543
            ],
            [
              -71.71674092942396,
              41.47008894397207
            ],
            [
              -71.71670416472496,
              41.470060881302906
            ],
            [
              -71.71665932610347,
              41.470080095554145
            ],
            [
              -71.71662361425216,
              41.47014317784426
            ],
            [
              -71.71657167560213,
              41.47027718145878
            ],
            [
              -71.71657088582157,
              41.47048985799372
            ],
            [
              -71.71668804782779,
              41.47105090740015
            ],
            [
              -71.71697177786646,
              41.4710785045002
            ],
            [
              -71.71713814868224,
              41.470922903096884
            ],
            [
              -71.7173485301957,
              41.47088637383323
            ],
            [
              -71.71748645610184,
              41.470953629234394
            ],
            [
              -71.71752779361516,
              41.471006438452555
            ],
            [
              -71.71756746786684,
              41.47123310440336
            ],
            [
              -71.7176851211209,
              41.471279579879656
            ],
            [
              -71.71814137319882,
              41.47120107271673
            ],
            [
              -71.71860794336821,
              41.47118952539297
            ],
            [
              -71.71876520949237,
              41.471220733016885
            ],
            [
              -71.71893917961106,
              41.471322801203875
            ],
            [
              -71.71902399026085,
              41.47161745955205
            ],
            [
              -71.71895141754179,
              41.471846026910605
            ],
            [
              -71.71898314519052,
              41.47196615297607
            ],
            [
              -71.71891190559154,
              41.47214633145907
            ],
            [
              -71.71890610535922,
              41.472201480854714
            ],
            [
              -71.71897172580036,
              41.47235326600874
            ],
            [
              -71.71891182518102,
              41.47263341169412
            ],
            [
              -71.7188282814425,
              41.47271571453874
            ],
            [
              -71.7187763289753,
              41.47284521804214
            ],
            [
              -71.71854658927839,
              41.47307408301151
            ],
            [
              -71.71853123522958,
              41.47318270063947
            ],
            [
              -71.71831689963265,
              41.47331870251838
            ],
            [
              -71.7182570495399,
              41.47332556815191
            ],
            [
              -71.71825390564018,
              41.47328056340561
            ],
            [
              -71.71838965113562,
              41.47314189804741
            ],
            [
              -71.71841039357851,
              41.4730788436662
            ],
            [
              -71.71838906950629,
              41.47296860835504
            ],
            [
              -71.71842429389994,
              41.47276036759239
            ],
            [
              -71.71871563447142,
              41.472335750739994
            ],
            [
              -71.71868450029861,
              41.47220190326893
            ],
            [
              -71.71888273354006,
              41.47195171717959
            ],
            [
              -71.7189035085051,
              41.47189822752604
            ],
            [
              -71.71887495755807,
              41.47186508701081
            ],
            [
              -71.71857938579761,
              41.47210082848618
            ],
            [
              -71.71847518216808,
              41.47227094259269
            ],
            [
              -71.71783888031206,
              41.47285227620097
            ],
            [
              -71.71759702520005,
              41.47320813042617
            ],
            [
              -71.71757239595559,
              41.47345235944948
            ],
            [
              -71.71745195063795,
              41.47371610469677
            ],
            [
              -71.71750328704194,
              41.473990081338236
            ],
            [
              -71.71776539634944,
              41.47466310726162
            ],
            [
              -71.71772756830116,
              41.474948916229586
            ],
            [
              -71.71764656801959,
              41.47508319041749
            ],
            [
              -71.7175498103226,
              41.47514460204998
            ],
            [
              -71.7173056014915,
              41.475185883924155
            ],
            [
              -71.71692530248062,
              41.47512537224902
            ],
            [
              -71.71678921423884,
              41.47502357995199
            ],
            [
              -71.71638156415948,
              41.47490188852354
            ],
            [
              -71.71624578853269,
              41.47489339652691
            ],
            [
              -71.71599010879065,
              41.474984263867555
            ],
            [
              -71.71596312325126,
              41.475033880328546
            ],
            [
              -71.71594805390598,
              41.47516802951638
            ],
            [
              -71.71599169620693,
              41.47546243134129
            ],
            [
              -71.71606895582411,
              41.47561953734792
            ],
            [
              -71.71652087353385,
              41.47622223241299
            ],
            [
              -71.71675116625029,
              41.47665915148667
            ],
            [
              -71.71684462249466,
              41.47676977059964
            ],
            [
              -71.71688378826963,
              41.476883408388055
            ],
            [
              -71.71687303563345,
              41.47714875398734
            ],
            [
              -71.71680376521212,
              41.477312162865395
            ],
            [
              -71.71671872077223,
              41.47739833593561
            ],
            [
              -71.71688645544089,
              41.47767016557075
            ],
            [
              -71.71683680960874,
              41.477903513339164
            ],
            [
              -71.71650377205442,
              41.47806304483257
            ],
            [
              -71.71638922066941,
              41.478023898780684
            ],
            [
              -71.71637545105374,
              41.47796561159321
            ],
            [
              -71.7164951854401,
              41.47781377081998
            ],
            [
              -71.716533225511,
              41.477589192367155
            ],
            [
              -71.71653299260178,
              41.47751921601143
            ],
            [
              -71.71646091193375,
              41.47742167697321
            ],
            [
              -71.71637365703019,
              41.477426214352164
            ],
            [
              -71.71623838007991,
              41.477569336904246
            ],
            [
              -71.71578951041951,
              41.47788798820196
            ],
            [
              -71.71530129878597,
              41.478040518533
            ],
            [
              -71.71496388265966,
              41.478049896025425
            ],
            [
              -71.71488233351826,
              41.47802089275327
            ],
            [
              -71.71463723678829,
              41.47779684261766
            ],
            [
              -71.71448580440058,
              41.477747559320086
            ],
            [
              -71.71436373678763,
              41.477781316630335
            ],
            [
              -71.71396723431134,
              41.477757778460756
            ],
            [
              -71.71372129413038,
              41.47786611545049
            ],
            [
              -71.71366921842437,
              41.477953682736
            ],
            [
              -71.71362709047462,
              41.47811703926037
            ],
            [
              -71.71366634601932,
              41.47825983449799
            ],
            [
              -71.71384553305626,
              41.47849275566038
            ],
            [
              -71.71421114966269,
              41.47880113722691
            ],
            [
              -71.71443350473318,
              41.479185591597876
            ],
            [
              -71.7144344466109,
              41.47947132608381
            ],
            [
              -71.7143921550626,
              41.47958511649579
            ],
            [
              -71.7144079877841,
              41.47968130481821
            ],
            [
              -71.71437913156926,
              41.47975279310877
            ],
            [
              -71.71424321043382,
              41.47970347970024
            ],
            [
              -71.71418122833943,
              41.479726919819484
            ],
            [
              -71.71419166917833,
              41.47995286488485
            ],
            [
              -71.71432572378167,
              41.48024370602164
            ],
            [
              -71.7146255374411,
              41.48059011171461
            ],
            [
              -71.71484453342596,
              41.481129103204395
            ],
            [
              -71.7149818841547,
              41.48160993199532
            ],
            [
              -71.71500957549428,
              41.48177315840678
            ],
            [
              -71.71500264017108,
              41.48207913300921
            ],
            [
              -71.71489730440733,
              41.48307065881482
            ],
            [
              -71.71476883998447,
              41.48345170096779
            ],
            [
              -71.71454252551983,
              41.48370110171224
            ],
            [
              -71.71437240813529,
              41.48377255531752
            ],
            [
              -71.7137762677402,
              41.4838021190306
            ],
            [
              -71.7127548029511,
              41.484003196010775
            ],
            [
              -71.71255605719124,
              41.48400356345388
            ],
            [
              -71.71235754488129,
              41.484075066545834
            ],
            [
              -71.7121881667408,
              41.48437415281925
            ],
            [
              -71.71218842202367,
              41.48445240276907
            ],
            [
              -71.7122833886237,
              41.48455181816434
            ],
            [
              -71.71258672888305,
              41.48470064475923
            ],
            [
              -71.71395012984095,
              41.484868844748505
            ],
            [
              -71.71464118026259,
              41.48491735257662
            ],
            [
              -71.71572909075492,
              41.48477304357984
            ],
            [
              -71.71612625595458,
              41.484672707378294
            ],
            [
              -71.71682577271139,
              41.48442241341594
            ],
            [
              -71.71692987821791,
              41.4844222171227
            ],
            [
              -71.71729015773454,
              41.48461360521943
            ],
            [
              -71.71745180894584,
              41.48484093696714
            ],
            [
              -71.71769031833132,
              41.48540957796818
            ],
            [
              -71.71792013039409,
              41.486205871176864
            ],
            [
              -71.717893739516,
              41.486803468286254
            ],
            [
              -71.71782798805363,
              41.4869529795937
            ],
            [
              -71.71769581868053,
              41.48705282039711
            ],
            [
              -71.7175357541201,
              41.48730210146781
            ],
            [
              -71.71746950179521,
              41.48730222674944
            ],
            [
              -71.71729940320685,
              41.48738079770432
            ],
            [
              -71.71720516012708,
              41.487501908274126
            ],
            [
              -71.71703522448531,
              41.48763027471213
            ],
            [
              -71.71703546188789,
              41.48770141063978
            ],
            [
              -71.71677128444644,
              41.487950887026265
            ],
            [
              -71.71652896289527,
              41.48836462157994
            ],
            [
              -71.716347559114,
              41.48872151003545
            ],
            [
              -71.71625984554936,
              41.48899525725995
            ],
            [
              -71.71618624073652,
              41.48932690999758
            ],
            [
              -71.71620727161537,
              41.489546165390706
            ],
            [
              -71.71612664690011,
              41.4897911685499
            ],
            [
              -71.71610739567855,
              41.49010736826881
            ],
            [
              -71.71597939831486,
              41.49044426963326
            ],
            [
              -71.71588473564772,
              41.49082484659579
            ],
            [
              -71.71571563920081,
              41.491013927345335
            ],
            [
              -71.71552091340084,
              41.49142033474374
            ],
            [
              -71.71645523487122,
              41.492252491252344
            ],
            [
              -71.71828283455028,
              41.487468673169396
            ],
            [
              -71.71860023200996,
              41.487542531911444
            ],
            [
              -71.71835803930118,
              41.48820077604338
            ],
            [
              -71.72203364836162,
              41.48784611162644
            ],
            [
              -71.72167892688758,
              41.48339420887772
            ],
            [
              -71.71850878051973,
              41.48431226007791
            ],
            [
              -71.71906564077676,
              41.48113098188383
            ],
            [
              -71.71905132341935,
              41.480503134410704
            ],
            [
              -71.71927022903695,
              41.48057616329246
            ],
            [
              -71.7192274009106,
              41.47965092430597
            ],
            [
              -71.71935169567065,
              41.47963468645459
            ],
            [
              -71.7184249923121,
              41.47641187585283
            ],
            [
              -71.7183909200719,
              41.47564535149977
            ],
            [
              -71.71849212225763,
              41.475101380771946
            ],
            [
              -71.7197444268596,
              41.47082062109123
            ],
            [
              -71.72246989850557,
              41.470872806709785
            ],
            [
              -71.72309957558812,
              41.47092443223502
            ],
            [
              -71.72596164903521,
              41.47098928349878
            ],
            [
              -71.72844078382744,
              41.470966701257
            ],
            [
              -71.73046715045962,
              41.47087805359417
            ],
            [
              -71.73108827405687,
              41.47079844972319
            ],
            [
              -71.7311226222359,
              41.470697381649835
            ],
            [
              -71.73123702894868,
              41.47018658293
            ],
            [
              -71.73106807341405,
              41.46964740231576
            ],
            [
              -71.72970122282352,
              41.46860609690289
            ],
            [
              -71.72878799267708,
              41.46763764578469
            ],
            [
              -71.72818281487524,
              41.466890974207885
            ],
            [
              -71.72802225305485,
              41.4666055206453
            ],
            [
              -71.72793938542296,
              41.46624956862968
            ],
            [
              -71.72751959779076,
              41.465190261506145
            ],
            [
              -71.72746425732842,
              41.46501981352725
            ],
            [
              -71.7274501183494,
              41.464752369079335
            ],
            [
              -71.72656611745751,
              41.464661272003404
            ],
            [
              -71.72576614493813,
              41.46442946589301
            ],
            [
              -71.72565864770314,
              41.46451071152736
            ],
            [
              -71.72558411186323,
              41.46438424048306
            ],
            [
              -71.72496421264665,
              41.464334807209326
            ],
            [
              -71.724963179823,
              41.46403598860904
            ],
            [
              -71.72423545456934,
              41.46397156714386
            ],
            [
              -71.72414175975973,
              41.4641490160538
            ],
            [
              -71.7241424923087,
              41.46436173490766
            ],
            [
              -71.72247854739494,
              41.46432951111641
            ],
            [
              -71.72326969249806,
              41.46324412147664
            ],
            [
              -71.7232219132419,
              41.46318018705316
            ],
            [
              -71.72298945942677,
              41.463234393329294
            ],
            [
              -71.72311182953563,
              41.46318360422679
            ]
          ],
          [
            [
              -71.72298945942677,
              41.463234393329294
            ],
            [
              -71.7228902560806,
              41.46328949353026
            ],
            [
              -71.7227756272951,
              41.463305529232585
            ],
            [
              -71.72282395721089,
              41.46326398230112
            ],
            [
              -71.72298945942677,
              41.463234393329294
            ]
          ]
        ]
      }
    }
  ],
  "bbox": [
    -71.73123702894868,
    41.46153343335318,
    -71.7121881667408,
    41.492252491252344
  ]
}
