{
  "$schema": "https://ripota.org/schemas/web/v1/display-geojson.schema.json",
  "type": "FeatureCollection",
  "properties": {
    "schemaVersion": 1,
    "geometryRole": "display",
    "geometryKind": "boundary",
    "potaReference": "US-6985",
    "potaName": "Round Top Wildlife Management Area",
    "sourceName": "Rhode Island DEM State Conservation Land",
    "sourceUrl": "https://risegis.ri.gov/hosting/rest/services/RIDEM/State_Conservation_Land/MapServer/0",
    "sourceQuery": "DEM_AREA = 'Round Top Management Area'",
    "sourceFeatureIds": [
      2,
      278,
      919
    ],
    "fidelity": "web",
    "detailedArtifact": "@ripota/parks/boundaries/us-6985.geojson"
  },
  "features": [
    {
      "type": "Feature",
      "properties": {
        "potaReference": "US-6985",
        "potaName": "Round Top Wildlife Management Area",
        "geometryKind": "boundary",
        "geometryRole": "display",
        "fidelity": "web"
      },
      "geometry": {
        "type": "Polygon",
        "coordinates": [
          [
            [
              -71.70209894957196,
              42.0108688139824
            ],
            [
              -71.70217875008021,
              42.01102156409928
            ],
            [
              -71.70800475599434,
              42.01091056502166
            ],
            [
              -71.70780483689904,
              42.009864546266485
            ],
            [
              -71.70908778927227,
              42.008902622729735
            ],
            [
              -71.70872474396832,
              42.0087485822208
            ],
            [
              -71.70833183262222,
              42.0085315640404
            ],
            [
              -71.70622772174815,
              42.006770445246445
            ],
            [
              -71.7037270397792,
              42.007632885887986
            ],
            [
              -71.7023650907213,
              42.00680338638545
            ],
            [
              -71.70332714849283,
              42.0061436420527
            ],
            [
              -71.7029534407234,
              42.005837845705514
            ],
            [
              -71.70464320632556,
              42.00469000861759
            ],
            [
              -71.70428078564146,
              42.0042419130376
            ],
            [
              -71.7036564107297,
              42.00355568266429
            ],
            [
              -71.70228197709972,
              42.00418416129812
            ],
            [
              -71.70109407809468,
              42.00287771097638
            ],
            [
              -71.70274504244576,
              42.00257886650819
            ],
            [
              -71.70146412418596,
              42.00125895497652
            ],
            [
              -71.70029195462179,
              42.000176804121786
            ],
            [
              -71.70017997337538,
              42.000212417714636
            ],
            [
              -71.69958632181279,
              42.0007024241712
            ],
            [
              -71.69876968479022,
              42.00025346021667
            ],
            [
              -71.69956098891763,
              41.99951219131187
            ],
            [
              -71.6974023668139,
              41.99742161881261
            ],
            [
              -71.69505607210294,
              41.99816260524016
            ],
            [
              -71.6953802814062,
              42.00090998383723
            ],
            [
              -71.69598012735496,
              42.003063896350056
            ],
            [
              -71.69675852126966,
              42.00542648006722
            ],
            [
              -71.69718690563903,
              42.0062381872798
            ],
            [
              -71.69726391825701,
              42.0064921478613
            ],
            [
              -71.69805041278681,
              42.00632116875938
            ],
            [
              -71.69842660576094,
              42.00701847774624
            ],
            [
              -71.69850301110202,
              42.007075202063206
            ],
            [
              -71.69933902507312,
              42.00740588060717
            ],
            [
              -71.69940407054482,
              42.007543145120884
            ],
            [
              -71.69985347735681,
              42.00781960789061
            ],
            [
              -71.70085523115286,
              42.0080165561538
            ],
            [
              -71.70119753723942,
              42.007727303645304
            ],
            [
              -71.70142479660228,
              42.008145646694324
            ],
            [
              -71.70104526261689,
              42.00844396727118
            ],
            [
              -71.70109778153305,
              42.008764510909344
            ],
            [
              -71.70106388738475,
              42.00950223320962
            ],
            [
              -71.70026922497141,
              42.009609958920635
            ],
            [
              -71.69993991222253,
              42.009866509183034
            ],
            [
              -71.6998723907036,
              42.010703249842656
            ],
            [
              -71.70068341847795,
              42.01089649893578
            ],
            [
              -71.70209894957196,
              42.0108688139824
            ]
          ]
        ]
      }
    }
  ],
  "bbox": [
    -71.70908778927227,
    41.99742161881261,
    -71.69505607210294,
    42.01102156409928
  ]
}
