{
  "$schema": "https://ripota.org/schemas/web/v1/display-geojson.schema.json",
  "type": "FeatureCollection",
  "properties": {
    "schemaVersion": 1,
    "geometryRole": "display",
    "geometryKind": "boundary",
    "potaReference": "US-6981",
    "potaName": "Great Swamp Wildlife Management Area",
    "sourceName": "Rhode Island DEM State Conservation Land",
    "sourceUrl": "https://risegis.ri.gov/hosting/rest/services/RIDEM/State_Conservation_Land/MapServer/0",
    "sourceQuery": "DEM_AREA = 'Great Swamp Management Area'",
    "sourceFeatureIds": [
      176,
      191,
      211,
      218,
      230,
      231,
      232,
      280,
      301,
      381,
      401,
      406,
      525,
      676,
      720,
      889,
      890,
      891
    ],
    "fidelity": "web",
    "detailedArtifact": "@ripota/parks/boundaries/us-6981.geojson"
  },
  "features": [
    {
      "type": "Feature",
      "properties": {
        "potaReference": "US-6981",
        "potaName": "Great Swamp Wildlife Management Area",
        "geometryKind": "boundary",
        "geometryRole": "display",
        "fidelity": "web"
      },
      "geometry": {
        "type": "MultiPolygon",
        "coordinates": [
          [
            [
              [
                -71.61008392361134,
                41.44749712035159
              ],
              [
                -71.61197726098106,
                41.44657874169946
              ],
              [
                -71.61172016860034,
                41.446212312215096
              ],
              [
                -71.61256977004554,
                41.445799606287835
              ],
              [
                -71.61226595885135,
                41.4453091207441
              ],
              [
                -71.60964657838885,
                41.44565260132756
              ],
              [
                -71.60810486612252,
                41.44596023578528
              ],
              [
                -71.60783863409965,
                41.44590975446577
              ],
              [
                -71.6074151714966,
                41.44596932937923
              ],
              [
                -71.6060355261727,
                41.446682463090305
              ],
              [
                -71.60508023818308,
                41.446897727368096
              ],
              [
                -71.60485035633596,
                41.44698614381379
              ],
              [
                -71.59905044492926,
                41.44964570203794
              ],
              [
                -71.59884333661718,
                41.449630479757595
              ],
              [
                -71.59838392586782,
                41.449685891536966
              ],
              [
                -71.598281626609,
                41.44965218791909
              ],
              [
                -71.5982443615916,
                41.44958099191167
              ],
              [
                -71.59827058507167,
                41.44928315993921
              ],
              [
                -71.59822517031947,
                41.44917612240683
              ],
              [
                -71.59814494249561,
                41.449114912443136
              ],
              [
                -71.59806291097267,
                41.44899066884303
              ],
              [
                -71.59806098909768,
                41.4487745486587
              ],
              [
                -71.5979214236457,
                41.448669608107394
              ],
              [
                -71.59776041189868,
                41.448628234861765
              ],
              [
                -71.59735146336074,
                41.44865551439174
              ],
              [
                -71.59724842793568,
                41.448585787314585
              ],
              [
                -71.59718950828892,
                41.44851503964628
              ],
              [
                -71.59724550394499,
                41.448306630121564
              ],
              [
                -71.59723036768416,
                41.44820791057507
              ],
              [
                -71.59706799611031,
                41.44805845271917
              ],
              [
                -71.59696534681773,
                41.448015745126824
              ],
              [
                -71.59674600122774,
                41.44799367464192
              ],
              [
                -71.59665861201327,
                41.447941642915325
              ],
              [
                -71.59645086236691,
                41.44766711996481
              ],
              [
                -71.59625232020426,
                41.44752749210649
              ],
              [
                -71.59620009652734,
                41.44743864119519
              ],
              [
                -71.5962497259622,
                41.447239374688664
              ],
              [
                -71.59624778111437,
                41.44707728197276
              ],
              [
                -71.59583510120518,
                41.446654302054874
              ],
              [
                -71.59543238635902,
                41.44657333169306
              ],
              [
                -71.59402973144832,
                41.445731391602486
              ],
              [
                -71.59392712596498,
                41.44563464828185
              ],
              [
                -71.59393226000688,
                41.44548138621927
              ],
              [
                -71.59382118505194,
                41.44528576515529
              ],
              [
                -71.59380473194958,
                41.44509701164125
              ],
              [
                -71.59385359472942,
                41.44491575650034
              ],
              [
                -71.59326274936915,
                41.444582360790605
              ],
              [
                -71.59319185110205,
                41.44438130501273
              ],
              [
                -71.59293499573182,
                41.44426101142976
              ],
              [
                -71.59277303194565,
                41.44410256919093
              ],
              [
                -71.59236413636609,
                41.444147792135176
              ],
              [
                -71.59196973586015,
                41.44404862206821
              ],
              [
                -71.59197783969685,
                41.44340899510598
              ],
              [
                -71.5917779356248,
                41.44317934934796
              ],
              [
                -71.59162870849279,
                41.442831443093674
              ],
              [
                -71.59145123583909,
                41.44258327926124
              ],
              [
                -71.59065565394094,
                41.44213309315689
              ],
              [
                -71.59035928833543,
                41.442139545380954
              ],
              [
                -71.58937796139709,
                41.44190049496712
              ],
              [
                -71.5889192119152,
                41.4418207508862
              ],
              [
                -71.58851957010552,
                41.44170367034541
              ],
              [
                -71.58810408949363,
                41.44167701510786
              ],
              [
                -71.58787687461735,
                41.44171813998546
              ],
              [
                -71.58775228788447,
                41.441793013301854
              ],
              [
                -71.58739966514018,
                41.44189101744973
              ],
              [
                -71.58695386222003,
                41.44194609508635
              ],
              [
                -71.58688792099376,
                41.44198359884441
              ],
              [
                -71.58683509906264,
                41.44207483933367
              ],
              [
                -71.58685556318194,
                41.44216445599338
              ],
              [
                -71.58682073521872,
                41.44228682771795
              ],
              [
                -71.58619724950968,
                41.44226032058831
              ],
              [
                -71.5859991872183,
                41.442282809542164
              ],
              [
                -71.58585173035758,
                41.44239420009821
              ],
              [
                -71.58567264226502,
                41.44263238941897
              ],
              [
                -71.58552486204488,
                41.44275280089593
              ],
              [
                -71.5855232455371,
                41.44282488720468
              ],
              [
                -71.58557376654971,
                41.44289130724294
              ],
              [
                -71.58582258049964,
                41.44284518349551
              ],
              [
                -71.58595737913481,
                41.44307630101177
              ],
              [
                -71.58624682274505,
                41.44320490366787
              ],
              [
                -71.58633459830517,
                41.44321191226908
              ],
              [
                -71.58639883458227,
                41.44326452302093
              ],
              [
                -71.58637202715015,
                41.44337320428798
              ],
              [
                -71.58638821548627,
                41.44350792524076
              ],
              [
                -71.58654614171988,
                41.44363945307453
              ],
              [
                -71.58708068840974,
                41.4439696674274
              ],
              [
                -71.58741494245086,
                41.444529574100024
              ],
              [
                -71.58754480699757,
                41.44506704084337
              ],
              [
                -71.5877137511463,
                41.44542347301733
              ],
              [
                -71.5876621024159,
                41.44549670945219
              ],
              [
                -71.58744774962807,
                41.44561861738998
              ],
              [
                -71.58643892370267,
                41.44658700560924
              ],
              [
                -71.5861527564152,
                41.44671054345011
              ],
              [
                -71.58562823279955,
                41.44665029948821
              ],
              [
                -71.58525468630967,
                41.44672171836734
              ],
              [
                -71.58480669908425,
                41.446875907904236
              ],
              [
                -71.5842949779447,
                41.44693245810929
              ],
              [
                -71.58417094639549,
                41.446917240340554
              ],
              [
                -71.58385162188675,
                41.44678930081818
              ],
              [
                -71.58326337219853,
                41.446631413601125
              ],
              [
                -71.58249810012512,
                41.446558549998315
              ],
              [
                -71.58210256405997,
                41.44663948892985
              ],
              [
                -71.58179616032982,
                41.44662838828204
              ],
              [
                -71.58125163186233,
                41.44642444297369
              ],
              [
                -71.58107163394008,
                41.446320411780455
              ],
              [
                -71.58078532142846,
                41.445966579802715
              ],
              [
                -71.58070784394462,
                41.44580621814133
              ],
              [
                -71.58064588010191,
                41.44556440712744
              ],
              [
                -71.58065047441687,
                41.44532113940189
              ],
              [
                -71.58045192729595,
                41.44495635013497
              ],
              [
                -71.58014232914059,
                41.4446570843584
              ],
              [
                -71.5799116655354,
                41.44450012780242
              ],
              [
                -71.57942662211428,
                41.44426787339847
              ],
              [
                -71.57854078227528,
                41.443999528633164
              ],
              [
                -71.57795085956172,
                41.44393170389515
              ],
              [
                -71.57789087623833,
                41.444005116289055
              ],
              [
                -71.57789747679928,
                41.44447329079187
              ],
              [
                -71.57772418116959,
                41.444819419837415
              ],
              [
                -71.57764077817507,
                41.445415746783496
              ],
              [
                -71.57749571770529,
                41.445833295853795
              ],
              [
                -71.57748534409907,
                41.446022669424536
              ],
              [
                -71.5773848642891,
                41.44635815560068
              ],
              [
                -71.5772495871357,
                41.44656832496926
              ],
              [
                -71.57634472938322,
                41.44701193803863
              ],
              [
                -71.57611662350132,
                41.447089106636064
              ],
              [
                -71.5757914068085,
                41.4471233888622
              ],
              [
                -71.57546703664988,
                41.4471036402628
              ],
              [
                -71.57504143632485,
                41.44722128570371
              ],
              [
                -71.57386733325204,
                41.44717551567447
              ],
              [
                -71.57341386461249,
                41.44724870767429
              ],
              [
                -71.57321484416163,
                41.44734325936659
              ],
              [
                -71.57301702071068,
                41.44739269815766
              ],
              [
                -71.57192120577845,
                41.44743524172688
              ],
              [
                -71.57159814803161,
                41.44751455951523
              ],
              [
                -71.57127537265083,
                41.44765686994033
              ],
              [
                -71.57117915164,
                41.447740076868186
              ],
              [
                -71.5687915294157,
                41.44822579102954
              ],
              [
                -71.56830690636913,
                41.44838070982762
              ],
              [
                -71.56800533551686,
                41.4485315765663
              ],
              [
                -71.56729367645715,
                41.44871861715294
              ],
              [
                -71.56651842234784,
                41.44880795992641
              ],
              [
                -71.56450401094088,
                41.4487989010732
              ],
              [
                -71.56388237715086,
                41.44885782521085
              ],
              [
                -71.5634704840901,
                41.44903811497524
              ],
              [
                -71.56319764851924,
                41.44921531871696
              ],
              [
                -71.56234635545692,
                41.44990082194812
              ],
              [
                -71.5619110562505,
                41.450171681782855
              ],
              [
                -71.56172748094872,
                41.450238846630974
              ],
              [
                -71.56133361507051,
                41.45021161044963
              ],
              [
                -71.56109416385681,
                41.4501358837806
              ],
              [
                -71.56094268656274,
                41.45003115681856
              ],
              [
                -71.56083658058405,
                41.44980836069304
              ],
              [
                -71.56068816980037,
                41.44932533551533
              ],
              [
                -71.56060436714765,
                41.4492956620321
              ],
              [
                -71.56047035995024,
                41.449474290642904
              ],
              [
                -71.56028539765997,
                41.44964050949889
              ],
              [
                -71.5598747688685,
                41.44972172923516
              ],
              [
                -71.5597128461243,
                41.44978836457382
              ],
              [
                -71.5593195148802,
                41.45021142052475
              ],
              [
                -71.55923063972956,
                41.450253943528566
              ],
              [
                -71.55906338875677,
                41.450226135171484
              ],
              [
                -71.55866635359736,
                41.44996480402668
              ],
              [
                -71.55832367534578,
                41.4499454243175
              ],
              [
                -71.5580377621472,
                41.44979803228409
              ],
              [
                -71.55726713567313,
                41.4509000886925
              ],
              [
                -71.55679909052515,
                41.45206722008969
              ],
              [
                -71.55658397616918,
                41.45273586737872
              ],
              [
                -71.55651539260846,
                41.45336061360854
              ],
              [
                -71.55606929295702,
                41.45418216969048
              ],
              [
                -71.55529704705773,
                41.45495737111323
              ],
              [
                -71.55485822768708,
                41.45528579247238
              ],
              [
                -71.55563223280714,
                41.460729532723754
              ],
              [
                -71.55563618346561,
                41.46092225269432
              ],
              [
                -71.55559084069927,
                41.46124042449116
              ],
              [
                -71.55546959987936,
                41.461619478999374
              ],
              [
                -71.5548316287192,
                41.46285216609424
              ],
              [
                -71.55470186628736,
                41.463259699694085
              ],
              [
                -71.55457821906285,
                41.46564012575943
              ],
              [
                -71.55450427365835,
                41.46611493435702
              ],
              [
                -71.55436213009024,
                41.466531206151025
              ],
              [
                -71.56061368871448,
                41.46595562879653
              ],
              [
                -71.56394154833495,
                41.46611070398383
              ],
              [
                -71.56524543880086,
                41.46507670044908
              ],
              [
                -71.56541251294182,
                41.46515237211289
              ],
              [
                -71.56544259738071,
                41.4652507683194
              ],
              [
                -71.56540787130795,
                41.46541364815267
              ],
              [
                -71.5655205895328,
                41.46570835483336
              ],
              [
                -71.56564583212668,
                41.46586767156776
              ],
              [
                -71.5657486004083,
                41.46591041140619
              ],
              [
                -71.5657711466709,
                41.46599097317262
              ],
              [
                -71.56588189622997,
                41.46614163611669
              ],
              [
                -71.5660656699051,
                41.46622759418193
              ],
              [
                -71.56668750951323,
                41.46632174903616
              ],
              [
                -71.5668114996752,
                41.46637304648695
              ],
              [
                -71.5670101535678,
                41.46651267961401
              ],
              [
                -71.5672772723807,
                41.46693001754748
              ],
              [
                -71.56737289279526,
                41.46699994756527
              ],
              [
                -71.56795144478482,
                41.46723017795908
              ],
              [
                -71.56802567808164,
                41.46734561347019
              ],
              [
                -71.56814390672946,
                41.46744202632198
              ],
              [
                -71.568015148932,
                41.46774214506953
              ],
              [
                -71.56813277076711,
                41.467802538846904
              ],
              [
                -71.56828067562353,
                41.46804241475402
              ],
              [
                -71.5686704701386,
                41.46832189878494
              ],
              [
                -71.5687228343719,
                41.46845582840166
              ],
              [
                -71.56887860524573,
                41.468686524679725
              ],
              [
                -71.56869462416878,
                41.46927604004457
              ],
              [
                -71.56859348723034,
                41.46938639166584
              ],
              [
                -71.56846803864897,
                41.47001965251166
              ],
              [
                -71.56839646435249,
                41.47015635893053
              ],
              [
                -71.56792288932657,
                41.47023897171784
              ],
              [
                -71.56778479670729,
                41.47034115262795
              ],
              [
                -71.56776773356414,
                41.470440607763884
              ],
              [
                -71.56780153261931,
                41.47053891463525
              ],
              [
                -71.56804395584348,
                41.470650562786126
              ],
              [
                -71.56816858530728,
                41.47075584606692
              ],
              [
                -71.56826611194997,
                41.471005873958056
              ],
              [
                -71.56822421789832,
                41.47117793646136
              ],
              [
                -71.56809026211488,
                41.471424115496816
              ],
              [
                -71.56808907826111,
                41.471487151074356
              ],
              [
                -71.56787233467331,
                41.471789225836886
              ],
              [
                -71.5678992626898,
                41.47196873615603
              ],
              [
                -71.56794132770165,
                41.472066867005175
              ],
              [
                -71.5680498634803,
                41.47215451574811
              ],
              [
                -71.56815568471963,
                41.472377330622365
              ],
              [
                -71.56815351032799,
                41.47247643030509
              ],
              [
                -71.56810829171904,
                41.47258102358106
              ],
              [
                -71.56800479307427,
                41.47266888505021
              ],
              [
                -71.56761902425897,
                41.47277657013373
              ],
              [
                -71.56753254257305,
                41.47284154663225
              ],
              [
                -71.5674969387561,
                41.47292342515112
              ],
              [
                -71.56751172160469,
                41.47299515995732
              ],
              [
                -71.56778569681347,
                41.47339430873122
              ],
              [
                -71.56778725856685,
                41.47352935986109
              ],
              [
                -71.5676631414473,
                41.47353215843535
              ],
              [
                -71.56742133273782,
                41.473474498666064
              ],
              [
                -71.56697641199536,
                41.47350246104738
              ],
              [
                -71.56682225765186,
                41.47352390537329
              ],
              [
                -71.56664483066227,
                41.47363597062874
              ],
              [
                -71.56611285582093,
                41.4736207962307
              ],
              [
                -71.56593374462538,
                41.47365186002155
              ],
              [
                -71.56546170086709,
                41.47392356810688
              ],
              [
                -71.56527486306688,
                41.47421595598762
              ],
              [
                -71.56515885442525,
                41.4742905924685
              ],
              [
                -71.56418404764712,
                41.47469962538637
              ],
              [
                -71.56361557556659,
                41.474802386314956
              ],
              [
                -71.562958087927,
                41.47471797049272
              ],
              [
                -71.56255773219371,
                41.474853009549044
              ],
              [
                -71.56214860511776,
                41.47488011802182
              ],
              [
                -71.56188707778153,
                41.47494899517014
              ],
              [
                -71.56144698703349,
                41.474796703331414
              ],
              [
                -71.56117052449211,
                41.474865931680455
              ],
              [
                -71.56104018970126,
                41.474994904141376
              ],
              [
                -71.5607333015921,
                41.47497474377881
              ],
              [
                -71.56010794958314,
                41.47523184145062
              ],
              [
                -71.55987393448281,
                41.47521905904437
              ],
              [
                -71.55964716689684,
                41.47514305928859
              ],
              [
                -71.5592967693359,
                41.47517784713201
              ],
              [
                -71.55923060621754,
                41.47515232801763
              ],
              [
                -71.55920840385487,
                41.475062756470344
              ],
              [
                -71.55924328240437,
                41.47492238767098
              ],
              [
                -71.55919117990278,
                41.47480646435088
              ],
              [
                -71.55906687289094,
                41.47479572351415
              ],
              [
                -71.55870214444992,
                41.474866875749825
              ],
              [
                -71.55849615482536,
                41.474691340671356
              ],
              [
                -71.5583059104833,
                41.47465052782417
              ],
              [
                -71.5579633907631,
                41.47469418280705
              ],
              [
                -71.55780258901363,
                41.47467976917057
              ],
              [
                -71.55743680567154,
                41.47458883154521
              ],
              [
                -71.5572172981717,
                41.474602704382406
              ],
              [
                -71.55704793572133,
                41.474768610623954
              ],
              [
                -71.55690201499024,
                41.47481690354888
              ],
              [
                -71.55678812449447,
                41.47478340481974
              ],
              [
                -71.55665004242084,
                41.474795480574834
              ],
              [
                -71.55650511179398,
                41.47493380208638
              ],
              [
                -71.55641037220865,
                41.47496291783469
              ],
              [
                -71.55618413986922,
                41.474976969375255
              ],
              [
                -71.55569488544506,
                41.47492480523777
              ],
              [
                -71.55555384866172,
                41.47498513416583
              ],
              [
                -71.56309311692222,
                41.479600531231455
              ],
              [
                -71.56346583260648,
                41.47987292858214
              ],
              [
                -71.56374482324166,
                41.480167523683
              ],
              [
                -71.56598219911393,
                41.479710800362255
              ],
              [
                -71.56635703805779,
                41.47972351078229
              ],
              [
                -71.56743234507192,
                41.479922678334866
              ],
              [
                -71.56894215513044,
                41.478950922566476
              ],
              [
                -71.56971518789898,
                41.47830250144334
              ],
              [
                -71.56977129604326,
                41.47821708933724
              ],
              [
                -71.57000605583848,
                41.47838937759812
              ],
              [
                -71.57141157716484,
                41.47752344893543
              ],
              [
                -71.57092377182605,
                41.47724563242848
              ],
              [
                -71.57145762871447,
                41.476924315894195
              ],
              [
                -71.57233641627383,
                41.47648574538006
              ],
              [
                -71.57293987465155,
                41.47661030393782
              ],
              [
                -71.58603049512081,
                41.46861461375005
              ],
              [
                -71.5859895417662,
                41.46857586612839
              ],
              [
                -71.58707321108123,
                41.467918203193314
              ],
              [
                -71.58883424286483,
                41.46678714700668
              ],
              [
                -71.59246189053832,
                41.4646763311787
              ],
              [
                -71.59507781489195,
                41.463086116403424
              ],
              [
                -71.61532805095281,
                41.45064937381425
              ],
              [
                -71.61490847982179,
                41.450274688569095
              ],
              [
                -71.61444250764964,
                41.45022227896968
              ],
              [
                -71.61414907471197,
                41.45027398776651
              ],
              [
                -71.61405294453152,
                41.45032121087222
              ],
              [
                -71.61365540284496,
                41.45064994723633
              ],
              [
                -71.6136868293542,
                41.45072581527103
              ],
              [
                -71.61375186541368,
                41.45076035869513
              ],
              [
                -71.61444988397477,
                41.4508525460626
              ],
              [
                -71.61446400086821,
                41.45090626239245
              ],
              [
                -71.61443331751157,
                41.450961010130264
              ],
              [
                -71.6141822923555,
                41.45108377407157
              ],
              [
                -71.61371591965585,
                41.45139160862343
              ],
              [
                -71.61337163676752,
                41.45144447767478
              ],
              [
                -71.61287688796558,
                41.45136567691722
              ],
              [
                -71.612508924917,
                41.45150012740282
              ],
              [
                -71.61227132601883,
                41.45167664852066
              ],
              [
                -71.61223306619912,
                41.45176759276758
              ],
              [
                -71.61233868585957,
                41.451936314351336
              ],
              [
                -71.61233589486906,
                41.45203545992889
              ],
              [
                -71.61231300578909,
                41.452116999833116
              ],
              [
                -71.61216483121011,
                41.45219243930495
              ],
              [
                -71.61177804828537,
                41.452192221517166
              ],
              [
                -71.61156224562964,
                41.45205301964299
              ],
              [
                -71.61127547351501,
                41.45180737341628
              ],
              [
                -71.6112429066411,
                41.45162798884647
              ],
              [
                -71.61115189375579,
                41.451467913966255
              ],
              [
                -71.61107201099986,
                41.451415715795825
              ],
              [
                -71.61084664000724,
                41.451411816555854
              ],
              [
                -71.61071766897415,
                41.4514507731361
              ],
              [
                -71.61069808352073,
                41.45153228703824
              ],
              [
                -71.61091279048244,
                41.45169850445324
              ],
              [
                -71.61088909923703,
                41.45178012949025
              ],
              [
                -71.61083676107113,
                41.451835327523696
              ],
              [
                -71.61014217008949,
                41.451887151683685
              ],
              [
                -71.61008938454106,
                41.45195139610605
              ],
              [
                -71.61008038961502,
                41.45202365987371
              ],
              [
                -71.61010545765131,
                41.45222123638135
              ],
              [
                -71.61025360114866,
                41.45246101550068
              ],
              [
                -71.6102799358331,
                41.45259554936358
              ],
              [
                -71.61008722808788,
                41.45269899340301
              ],
              [
                -71.60995571638455,
                41.4527199615974
              ],
              [
                -71.60987613522668,
                41.45271279123162
              ],
              [
                -71.60971773303478,
                41.45260831165023
              ],
              [
                -71.60966971410042,
                41.452456296393116
              ],
              [
                -71.60961207757673,
                41.45241707415592
              ],
              [
                -71.60944830012284,
                41.45256937217596
              ],
              [
                -71.6093159819761,
                41.452590424143835
              ],
              [
                -71.60917063360384,
                41.452584688874666
              ],
              [
                -71.60885473269317,
                41.45247028020488
              ],
              [
                -71.60880345963295,
                41.45217873474836
              ],
              [
                -71.60872986139327,
                41.45213536462161
              ],
              [
                -71.60839361167015,
                41.45208898368898
              ],
              [
                -71.60834208701009,
                41.45201810515424
              ],
              [
                -71.60831515079205,
                41.45189711969243
              ],
              [
                -71.60836146332433,
                41.45181049827895
              ],
              [
                -71.6082840460109,
                41.45169968172344
              ],
              [
                -71.60818212055585,
                41.45172451696431
              ],
              [
                -71.60812694400069,
                41.45165372910141
              ],
              [
                -71.60818224908945,
                41.45139128572062
              ],
              [
                -71.60813075153241,
                41.451338418625994
              ],
              [
                -71.6079804970796,
                41.45129454108521
              ],
              [
                -71.60783273487071,
                41.45145323533895
              ],
              [
                -71.60762692468793,
                41.451349825538024
              ],
              [
                -71.60755275328141,
                41.45123445843225
              ],
              [
                -71.6074425349475,
                41.45117388357847
              ],
              [
                -71.60727547491278,
                41.45120469985389
              ],
              [
                -71.60714831942866,
                41.45127964686822
              ],
              [
                -71.60702726520387,
                41.45124635207544
              ],
              [
                -71.60700456062135,
                41.45116584156396
              ],
              [
                -71.60693176529792,
                41.451122431715
              ],
              [
                -71.60682184830321,
                41.45114294586644
              ],
              [
                -71.60670282773617,
                41.451271742165034
              ],
              [
                -71.60661163086802,
                41.45123777635233
              ],
              [
                -71.60655978008984,
                41.45117590489599
              ],
              [
                -71.6065442440781,
                41.451086208990546
              ],
              [
                -71.60635947280826,
                41.45088325278541
              ],
              [
                -71.60624628352836,
                41.45088582267119
              ],
              [
                -71.60611433938016,
                41.451131977427856
              ],
              [
                -71.60598279910681,
                41.451134970960545
              ],
              [
                -71.6059529606328,
                41.451081612923886
              ],
              [
                -71.60571054420849,
                41.45096999655134
              ],
              [
                -71.60554016022361,
                41.45071269756037
              ],
              [
                -71.60539344681993,
                41.450634954801345
              ],
              [
                -71.60530717137522,
                41.45043372811466
              ],
              [
                -71.60514293872808,
                41.450415480494996
              ],
              [
                -71.60494692750626,
                41.45051898381148
              ],
              [
                -71.60482220657586,
                41.450476773391756
              ],
              [
                -71.60485718168927,
                41.450322881415694
              ],
              [
                -71.60474513313162,
                41.45027740171731
              ],
              [
                -71.60479905217413,
                41.45003458984802
              ],
              [
                -71.61008392361134,
                41.44749712035159
              ]
            ],
            [
              [
                -71.57521236365423,
                41.47332405716363
              ],
              [
                -71.57363974588962,
                41.47318766182095
              ],
              [
                -71.57335369251574,
                41.47308298098736
              ],
              [
                -71.57354052006221,
                41.47204964655369
              ],
              [
                -71.57570544559944,
                41.472282614934564
              ],
              [
                -71.57521236365423,
                41.47332405716363
              ]
            ]
          ],
          [
            [
              [
                -71.61557600314086,
                41.450870797662496
              ],
              [
                -71.5913873393655,
                41.46556651758384
              ],
              [
                -71.59141697663966,
                41.46560055152032
              ],
              [
                -71.5870737231476,
                41.468300910643165
              ],
              [
                -71.58624030931897,
                41.46878919283333
              ],
              [
                -71.58619935936477,
                41.46875318969115
              ],
              [
                -71.58590366584248,
                41.46891928359336
              ],
              [
                -71.58099289383405,
                41.47190524677775
              ],
              [
                -71.58040878013162,
                41.47231967450408
              ],
              [
                -71.57484319852412,
                41.47573830784069
              ],
              [
                -71.57492773448101,
                41.4758206128026
              ],
              [
                -71.57175284363952,
                41.47775044927104
              ],
              [
                -71.57219091651821,
                41.47811070654947
              ],
              [
                -71.57289093965092,
                41.47828867819379
              ],
              [
                -71.57345594497953,
                41.47827313090781
              ],
              [
                -71.57343220275784,
                41.480229629514206
              ],
              [
                -71.57351299279372,
                41.480214445887334
              ],
              [
                -71.57335260450881,
                41.48042363866228
              ],
              [
                -71.57614149384084,
                41.48001458712827
              ],
              [
                -71.58194831004,
                41.47927296862367
              ],
              [
                -71.58233109755285,
                41.47736748720653
              ],
              [
                -71.58728542171579,
                41.47585375845295
              ],
              [
                -71.5871440960216,
                41.47627597688321
              ],
              [
                -71.59576264918559,
                41.47682748880796
              ],
              [
                -71.59508962212229,
                41.479184376166394
              ],
              [
                -71.59538911402362,
                41.4789637171231
              ],
              [
                -71.59836898910234,
                41.46914552772881
              ],
              [
                -71.60012222614671,
                41.468037717771054
              ],
              [
                -71.6001989012231,
                41.46777478765585
              ],
              [
                -71.60017492388165,
                41.467532186975525
              ],
              [
                -71.59965256181412,
                41.46713868867961
              ],
              [
                -71.59932987522386,
                41.46698386107104
              ],
              [
                -71.59922677998662,
                41.46689613263072
              ],
              [
                -71.59913633773195,
                41.466655048552305
              ],
              [
                -71.59914208453871,
                41.46653780393522
              ],
              [
                -71.59903210017136,
                41.46638486556558
              ],
              [
                -71.60059697798376,
                41.464201916091625
              ],
              [
                -71.60239092876246,
                41.46296877816525
              ],
              [
                -71.6103549444444,
                41.46438510876138
              ],
              [
                -71.61426329560297,
                41.46358562883881
              ],
              [
                -71.61844576185037,
                41.46261933903778
              ],
              [
                -71.61814822783657,
                41.46197653583344
              ],
              [
                -71.61748526932244,
                41.46099026745507
              ],
              [
                -71.61720013693392,
                41.460447155297395
              ],
              [
                -71.61694614430307,
                41.459717752800515
              ],
              [
                -71.61684055600155,
                41.45912141276458
              ],
              [
                -71.61681595790387,
                41.45861631944232
              ],
              [
                -71.61683764406911,
                41.45409963857665
              ],
              [
                -71.61699796379848,
                41.45327073853694
              ],
              [
                -71.61723074611531,
                41.452559990213295
              ],
              [
                -71.61619528341068,
                41.45048763323588
              ],
              [
                -71.61557600314086,
                41.450870797662496
              ]
            ],
            [
              [
                -71.59304231026657,
                41.46961171669085
              ],
              [
                -71.59225866611779,
                41.46959102381614
              ],
              [
                -71.59214882930017,
                41.46950746240898
              ],
              [
                -71.59215130600019,
                41.46932394179547
              ],
              [
                -71.59227737878228,
                41.46917531236657
              ],
              [
                -71.59252098040109,
                41.46902809918757
              ],
              [
                -71.59301790779618,
                41.46887681011505
              ],
              [
                -71.59370853183152,
                41.468540113846544
              ],
              [
                -71.59436184893815,
                41.46837189636545
              ],
              [
                -71.59454769678025,
                41.46828400559448
              ],
              [
                -71.59468826675217,
                41.46819848382734
              ],
              [
                -71.5948946348144,
                41.467996215429466
              ],
              [
                -71.5950402223798,
                41.46802416957421
              ],
              [
                -71.59526151186587,
                41.46812061790254
              ],
              [
                -71.59566811507737,
                41.46838722888976
              ],
              [
                -71.59571055127311,
                41.46848783171977
              ],
              [
                -71.595649168954,
                41.468654468589364
              ],
              [
                -71.59573038896735,
                41.46880246209113
              ],
              [
                -71.59624793000154,
                41.46863212374632
              ],
              [
                -71.5964200564982,
                41.468642188280725
              ],
              [
                -71.59636208508057,
                41.46872064511696
              ],
              [
                -71.59611593853887,
                41.468842620567436
              ],
              [
                -71.59516595664893,
                41.46914666818909
              ],
              [
                -71.59456109052894,
                41.46924017428558
              ],
              [
                -71.59362854313805,
                41.469548201619205
              ],
              [
                -71.59304231026657,
                41.46961171669085
              ]
            ]
          ],
          [
            [
              [
                -71.5475079685367,
                41.458687210492
              ],
              [
                -71.54771645883976,
                41.45865273621858
              ],
              [
                -71.54783384399185,
                41.45858561416229
              ],
              [
                -71.54794518341531,
                41.45858197252248
              ],
              [
                -71.54826492951646,
                41.45868377999792
              ],
              [
                -71.54848032939213,
                41.45867374092697
              ],
              [
                -71.54870271644049,
                41.45874008910863
              ],
              [
                -71.54887402630322,
                41.45884850352764
              ],
              [
                -71.54917006914299,
                41.458861592495914
              ],
              [
                -71.54934659885615,
                41.45904607854777
              ],
              [
                -71.54955931813565,
                41.459062054687145
              ],
              [
                -71.54989937009086,
                41.459302936831705
              ],
              [
                -71.55025928931961,
                41.459474868565685
              ],
              [
                -71.5504494316497,
                41.459611512453186
              ],
              [
                -71.55060016314168,
                41.45980610762358
              ],
              [
                -71.55070495284698,
                41.460031844177735
              ],
              [
                -71.55084665047993,
                41.460171362998175
              ],
              [
                -71.55083892546574,
                41.46027710815184
              ],
              [
                -71.55150732559524,
                41.460922736755506
              ],
              [
                -71.55112675927798,
                41.462255814518706
              ],
              [
                -71.5552106682138,
                41.46164736820908
              ],
              [
                -71.555303411801,
                41.46142550727433
              ],
              [
                -71.55539217835897,
                41.46108395029694
              ],
              [
                -71.5553829869394,
                41.460659063668814
              ],
              [
                -71.55464559517299,
                41.45549549730321
              ],
              [
                -71.55430554102384,
                41.45584750590698
              ],
              [
                -71.55403734157584,
                41.456035156258125
              ],
              [
                -71.55365392756775,
                41.456143523926904
              ],
              [
                -71.55259939235768,
                41.456252200950715
              ],
              [
                -71.55198435644843,
                41.45625582551516
              ],
              [
                -71.55110362697528,
                41.4560220870216
              ],
              [
                -71.55065672449058,
                41.45570307475686
              ],
              [
                -71.55056766110721,
                41.4550563734404
              ],
              [
                -71.55097114182202,
                41.454658287888115
              ],
              [
                -71.55085708762496,
                41.45426043176558
              ],
              [
                -71.55010015530385,
                41.45355907825849
              ],
              [
                -71.54954796362105,
                41.45284479559976
              ],
              [
                -71.54889600867351,
                41.45253943615777
              ],
              [
                -71.54865262444996,
                41.452383278819575
              ],
              [
                -71.5486131569772,
                41.45219774680838
              ],
              [
                -71.54850290684833,
                41.452174122773755
              ],
              [
                -71.54824587010663,
                41.45219790143774
              ],
              [
                -71.54803597754449,
                41.45231642768138
              ],
              [
                -71.5476882016411,
                41.452655335557786
              ],
              [
                -71.54764990830795,
                41.45282126242185
              ],
              [
                -71.54338712240691,
                41.453273761520244
              ],
              [
                -71.54424414120574,
                41.45397716289196
              ],
              [
                -71.5435562682831,
                41.454475764237614
              ],
              [
                -71.54386649496819,
                41.45668021743166
              ],
              [
                -71.54417274417533,
                41.45920793471833
              ],
              [
                -71.5444646423212,
                41.45911521098915
              ],
              [
                -71.54478797672678,
                41.45889399568458
              ],
              [
                -71.54499195335714,
                41.45885110308926
              ],
              [
                -71.5465672164133,
                41.45884124078916
              ],
              [
                -71.54736348346194,
                41.458683317329836
              ],
              [
                -71.5475079685367,
                41.458687210492
              ]
            ]
          ],
          [
            [
              [
                -71.5723892471065,
                41.48117610487108
              ],
              [
                -71.57221865949101,
                41.481336295817194
              ],
              [
                -71.57207170001209,
                41.48140007464712
              ],
              [
                -71.57207942974007,
                41.48147012493996
              ],
              [
                -71.57058398800217,
                41.48342915363182
              ],
              [
                -71.57067669565228,
                41.48353997385261
              ],
              [
                -71.57012345917119,
                41.483878392186845
              ],
              [
                -71.56997550317176,
                41.48374101473376
              ],
              [
                -71.56720634862651,
                41.48515880646773
              ],
              [
                -71.5682556673908,
                41.48612789482949
              ],
              [
                -71.56921349961289,
                41.48616588536803
              ],
              [
                -71.56875888804544,
                41.48754804416761
              ],
              [
                -71.57550164900121,
                41.486726652413
              ],
              [
                -71.57538528645274,
                41.486359430541356
              ],
              [
                -71.57414179733331,
                41.483194656111316
              ],
              [
                -71.57412974782565,
                41.481626749073115
              ],
              [
                -71.5744158357438,
                41.48035352542193
              ],
              [
                -71.57278076149977,
                41.480573737426894
              ],
              [
                -71.57276666391354,
                41.480908327305094
              ],
              [
                -71.57252208792255,
                41.48105196223026
              ],
              [
                -71.5723892471065,
                41.48117610487108
              ]
            ]
          ]
        ]
      }
    }
  ],
  "bbox": [
    -71.61844576185037,
    41.44167701510786,
    -71.54338712240691,
    41.48754804416761
  ]
}
