{
  "$schema": "https://ripota.org/schemas/web/v1/display-geojson.schema.json",
  "type": "FeatureCollection",
  "properties": {
    "schemaVersion": 1,
    "geometryRole": "display",
    "geometryKind": "boundary",
    "potaReference": "US-7518",
    "potaName": "Kimball Wildlife Refuge",
    "sourceName": "Rhode Island DEM State Conservation Land",
    "sourceUrl": "https://risegis.ri.gov/hosting/rest/services/RIDEM/State_Conservation_Land/MapServer/0",
    "sourceQuery": "NAME = 'Kimball Refuge'",
    "sourceFeatureIds": [
      768
    ],
    "fidelity": "web",
    "detailedArtifact": "@ripota/parks/boundaries/us-7518.geojson"
  },
  "features": [
    {
      "type": "Feature",
      "properties": {
        "potaReference": "US-7518",
        "potaName": "Kimball Wildlife Refuge",
        "geometryKind": "boundary",
        "geometryRole": "display",
        "fidelity": "web"
      },
      "geometry": {
        "type": "Polygon",
        "coordinates": [
          [
            [
              -71.68679037035812,
              41.374330900919425
            ],
            [
              -71.68699725851559,
              41.37481723923024
            ],
            [
              -71.68706054382413,
              41.37481020141749
            ],
            [
              -71.68712944465155,
              41.374766771572354
            ],
            [
              -71.68718283811177,
              41.3746800490866
            ],
            [
              -71.68738174887264,
              41.374584534021416
            ],
            [
              -71.68814355593904,
              41.37433509030554
            ],
            [
              -71.6884690022005,
              41.374282594194945
            ],
            [
              -71.68874222594177,
              41.37427791356503
            ],
            [
              -71.68909063536681,
              41.37432363167592
            ],
            [
              -71.68972315486599,
              41.37400450543742
            ],
            [
              -71.68839324351502,
              41.370444709213224
            ],
            [
              -71.68702135356976,
              41.37062922516815
            ],
            [
              -71.68703922017895,
              41.370705385276224
            ],
            [
              -71.68677091574729,
              41.37073563003837
            ],
            [
              -71.68673544095128,
              41.3706395957861
            ],
            [
              -71.68513908896136,
              41.37074159932706
            ],
            [
              -71.68596307669901,
              41.37288113345719
            ],
            [
              -71.68649996196375,
              41.37439549284034
            ],
            [
              -71.68679037035812,
              41.374330900919425
            ]
          ]
        ]
      }
    }
  ],
  "bbox": [
    -71.68972315486599,
    41.370444709213224,
    -71.68513908896136,
    41.37481723923024
  ]
}
