{
  "$schema": "https://ripota.org/schemas/web/v1/display-geojson.schema.json",
  "type": "FeatureCollection",
  "properties": {
    "schemaVersion": 1,
    "geometryRole": "display",
    "geometryKind": "boundary",
    "potaReference": "US-7717",
    "potaName": "Charlestown Breachway State Park",
    "sourceName": "Rhode Island DEM State Conservation Land",
    "sourceUrl": "https://risegis.ri.gov/hosting/rest/services/RIDEM/State_Conservation_Land/MapServer/0",
    "sourceQuery": "DEM_AREA = 'Charlestown Breachway State Park Campground'",
    "sourceFeatureIds": [
      265
    ],
    "fidelity": "web",
    "detailedArtifact": "@ripota/parks/boundaries/us-7717.geojson"
  },
  "features": [
    {
      "type": "Feature",
      "properties": {
        "potaReference": "US-7717",
        "potaName": "Charlestown Breachway State Park",
        "geometryKind": "boundary",
        "geometryRole": "display",
        "fidelity": "web"
      },
      "geometry": {
        "type": "Polygon",
        "coordinates": [
          [
            [
              -71.63883385918237,
              41.357378632060694
            ],
            [
              -71.63870671195811,
              41.3564903946318
            ],
            [
              -71.63833896590131,
              41.35497222639609
            ],
            [
              -71.63827351033785,
              41.35496922834597
            ],
            [
              -71.63818609975485,
              41.354998248309606
            ],
            [
              -71.63815264671359,
              41.35505756088337
            ],
            [
              -71.63829114264242,
              41.35558125591212
            ],
            [
              -71.6382616027525,
              41.355663002107846
            ],
            [
              -71.63799353478882,
              41.3560017063454
            ],
            [
              -71.63740691506776,
              41.35631283559115
            ],
            [
              -71.63623240633474,
              41.35684390533933
            ],
            [
              -71.63598881257425,
              41.357011273187055
            ],
            [
              -71.63639152159902,
              41.35752023950591
            ],
            [
              -71.6367433581953,
              41.35734338876684
            ],
            [
              -71.63684279725464,
              41.35741598882463
            ],
            [
              -71.63437160055523,
              41.35864468952297
            ],
            [
              -71.63632810236398,
              41.361095366353446
            ],
            [
              -71.63645446517317,
              41.36113060910413
            ],
            [
              -71.63645562147683,
              41.36102334880471
            ],
            [
              -71.63649038360076,
              41.360957474826655
            ],
            [
              -71.63661119995784,
              41.3608865455483
            ],
            [
              -71.63690951498086,
              41.36093067951942
            ],
            [
              -71.63736490893466,
              41.36089573479536
            ],
            [
              -71.63752958618032,
              41.3609140001724
            ],
            [
              -71.63760411010533,
              41.360957229030404
            ],
            [
              -71.63774418228246,
              41.36113519635298
            ],
            [
              -71.63817685065692,
              41.36116908062911
            ],
            [
              -71.63834203987894,
              41.361103049419526
            ],
            [
              -71.6383847768541,
              41.360986642242516
            ],
            [
              -71.63825667936109,
              41.36078434477137
            ],
            [
              -71.6381328439386,
              41.36068525001451
            ],
            [
              -71.63792617951572,
              41.36015820551175
            ],
            [
              -71.63789896761902,
              41.35996992583634
            ],
            [
              -71.63792666218124,
              41.35973303911191
            ],
            [
              -71.63787686098762,
              41.359678433836436
            ],
            [
              -71.63789517690171,
              41.35943552377763
            ],
            [
              -71.63785849092021,
              41.35924221220888
            ],
            [
              -71.6380422458379,
              41.35910033091076
            ],
            [
              -71.6381814566748,
              41.35887240534159
            ],
            [
              -71.63848730866405,
              41.358662562068396
            ],
            [
              -71.63846290302489,
              41.35854308414581
            ],
            [
              -71.63847708954712,
              41.35830621348232
            ],
            [
              -71.63851456811425,
              41.35822115319873
            ],
            [
              -71.63875452051091,
              41.35799112469838
            ],
            [
              -71.63883385918237,
              41.357378632060694
            ]
          ]
        ]
      }
    }
  ],
  "bbox": [
    -71.63883385918237,
    41.35496922834597,
    -71.63437160055523,
    41.36116908062911
  ]
}
