{
  "$schema": "https://ripota.org/schemas/web/v1/display-geojson.schema.json",
  "type": "FeatureCollection",
  "properties": {
    "schemaVersion": 1,
    "geometryRole": "display",
    "geometryKind": "boundary",
    "potaReference": "US-7719",
    "potaName": "Misquamicut State Beach",
    "sourceName": "Rhode Island DEM State Conservation Land",
    "sourceUrl": "https://risegis.ri.gov/hosting/rest/services/RIDEM/State_Conservation_Land/MapServer/0",
    "sourceQuery": "NAME = 'Misquamicut State Beach'",
    "sourceFeatureIds": [
      664,
      665
    ],
    "fidelity": "web",
    "detailedArtifact": "@ripota/parks/boundaries/us-7719.geojson"
  },
  "features": [
    {
      "type": "Feature",
      "properties": {
        "potaReference": "US-7719",
        "potaName": "Misquamicut State Beach",
        "geometryKind": "boundary",
        "geometryRole": "display",
        "fidelity": "web"
      },
      "geometry": {
        "type": "MultiPolygon",
        "coordinates": [
          [
            [
              [
                -71.79816223138478,
                41.324769828377704
              ],
              [
                -71.79854326985372,
                41.324807288492934
              ],
              [
                -71.7990517320443,
                41.32476434588077
              ],
              [
                -71.80632768536422,
                41.32336009962862
              ],
              [
                -71.80670557598641,
                41.3232491884075
              ],
              [
                -71.80698425489079,
                41.32311855043241
              ],
              [
                -71.80726845834216,
                41.32295288251504
              ],
              [
                -71.80781453409425,
                41.322542164986984
              ],
              [
                -71.80819274871854,
                41.322414859514794
              ],
              [
                -71.80801597004822,
                41.32187475646101
              ],
              [
                -71.80702954799429,
                41.322028029004244
              ],
              [
                -71.80670242926784,
                41.3220451482365
              ],
              [
                -71.80632896233513,
                41.322146334891904
              ],
              [
                -71.80459629889668,
                41.322389747129044
              ],
              [
                -71.80375619973726,
                41.322626514184144
              ],
              [
                -71.80277671150469,
                41.322799162079725
              ],
              [
                -71.80185181246208,
                41.32301604815626
              ],
              [
                -71.8009733271842,
                41.323153985632416
              ],
              [
                -71.80053968244273,
                41.32328699921327
              ],
              [
                -71.79930479376074,
                41.32349063270025
              ],
              [
                -71.79880500204116,
                41.32360513167633
              ],
              [
                -71.7984486179181,
                41.323611223791964
              ],
              [
                -71.79820232211277,
                41.32367446364498
              ],
              [
                -71.79766611710401,
                41.32373567258472
              ],
              [
                -71.79739386297477,
                41.32372568929181
              ],
              [
                -71.7965584312921,
                41.32379461522661
              ],
              [
                -71.7967479367282,
                41.324584500222315
              ],
              [
                -71.79720167955048,
                41.32457283695661
              ],
              [
                -71.79816223138478,
                41.324769828377704
              ]
            ]
          ],
          [
            [
              [
                -71.79947272466954,
                41.32747768872118
              ],
              [
                -71.79955940958381,
                41.32747638534913
              ],
              [
                -71.79996413132073,
                41.327214869645466
              ],
              [
                -71.79983270490482,
                41.3270033810021
              ],
              [
                -71.79981630460355,
                41.32673005816894
              ],
              [
                -71.79979229067388,
                41.32670270393523
              ],
              [
                -71.79982504268648,
                41.3266723024995
              ],
              [
                -71.80000787012376,
                41.32665446877748
              ],
              [
                -71.80010910341575,
                41.32678164262304
              ],
              [
                -71.80010585150072,
                41.326854679383956
              ],
              [
                -71.79997088269886,
                41.32707868116691
              ],
              [
                -71.79997433113505,
                41.327171641081144
              ],
              [
                -71.80000588850253,
                41.32718049546538
              ],
              [
                -71.80054061711965,
                41.32665690571644
              ],
              [
                -71.80081084392855,
                41.326493702530804
              ],
              [
                -71.80115682910694,
                41.32638753639338
              ],
              [
                -71.80143702175882,
                41.32621512770992
              ],
              [
                -71.80154289307495,
                41.32620942628533
              ],
              [
                -71.80167873537904,
                41.326120678225415
              ],
              [
                -71.8021440172692,
                41.325992969956566
              ],
              [
                -71.80232685263466,
                41.3258897982445
              ],
              [
                -71.8024262301993,
                41.32588693857145
              ],
              [
                -71.80254323103723,
                41.325787770747866
              ],
              [
                -71.80262896659077,
                41.32564735588702
              ],
              [
                -71.80285562201108,
                41.32557755550516
              ],
              [
                -71.80293705473159,
                41.32549812615031
              ],
              [
                -71.80314671586515,
                41.32543352030404
              ],
              [
                -71.80368599903144,
                41.32513401304911
              ],
              [
                -71.80408321347237,
                41.32499525190322
              ],
              [
                -71.80457244730127,
                41.32464598779933
              ],
              [
                -71.80512424640564,
                41.3244994349835
              ],
              [
                -71.80535090436237,
                41.324385289545475
              ],
              [
                -71.80557564491251,
                41.324346922429974
              ],
              [
                -71.80594796374889,
                41.32422436720292
              ],
              [
                -71.80631348998052,
                41.32416693078787
              ],
              [
                -71.80660946538609,
                41.32398455387173
              ],
              [
                -71.80699518490998,
                41.323841288683944
              ],
              [
                -71.80702203075268,
                41.32370076554469
              ],
              [
                -71.80713112100962,
                41.32362632427102
              ],
              [
                -71.80768430425633,
                41.323582823501596
              ],
              [
                -71.8084197386253,
                41.323107659996275
              ],
              [
                -71.80823619552527,
                41.32254519110485
              ],
              [
                -71.80791914541426,
                41.32265484070517
              ],
              [
                -71.80738842251859,
                41.323056166891
              ],
              [
                -71.80708760466523,
                41.3232315373023
              ],
              [
                -71.80678710480221,
                41.32337216528716
              ],
              [
                -71.80638184674778,
                41.32349120745621
              ],
              [
                -71.79909666739245,
                41.324897322437764
              ],
              [
                -71.79873078923409,
                41.3249414502977
              ],
              [
                -71.79836035377797,
                41.32493505021202
              ],
              [
                -71.79716905261537,
                41.32470783786404
              ],
              [
                -71.79678114064592,
                41.32471942762468
              ],
              [
                -71.79716208101034,
                41.32627563181365
              ],
              [
                -71.79734233984557,
                41.3261114291217
              ],
              [
                -71.79737264689672,
                41.326113446994775
              ],
              [
                -71.79727023304135,
                41.32638424622623
              ],
              [
                -71.79727551062845,
                41.326462116831955
              ],
              [
                -71.79731373829517,
                41.326502989750004
              ],
              [
                -71.79735762264687,
                41.32649437375093
              ],
              [
                -71.79739624687045,
                41.32643698135207
              ],
              [
                -71.79752865352009,
                41.32608476624721
              ],
              [
                -71.79756745920758,
                41.32576384296189
              ],
              [
                -71.79760279074539,
                41.32577704086498
              ],
              [
                -71.79766625725188,
                41.32592103346326
              ],
              [
                -71.79786374061011,
                41.32620300309198
              ],
              [
                -71.797985588388,
                41.326278582920985
              ],
              [
                -71.79811011618588,
                41.3262879741565
              ],
              [
                -71.79866690283673,
                41.326097678250214
              ],
              [
                -71.79887342117999,
                41.325992489458095
              ],
              [
                -71.79906229098215,
                41.32573797152405
              ],
              [
                -71.79912836855883,
                41.325383980164055
              ],
              [
                -71.79922745197163,
                41.32542505174925
              ],
              [
                -71.79924513193879,
                41.3255614900542
              ],
              [
                -71.79936404205897,
                41.32578067722662
              ],
              [
                -71.79921994797625,
                41.32600460285872
              ],
              [
                -71.79933667462146,
                41.32606625882363
              ],
              [
                -71.79934400271412,
                41.32611088512408
              ],
              [
                -71.79928649268578,
                41.3261279381984
              ],
              [
                -71.79913774018071,
                41.32609667884732
              ],
              [
                -71.79858976496479,
                41.326388661631256
              ],
              [
                -71.79849741860613,
                41.32641172491589
              ],
              [
                -71.79826840261025,
                41.326377825449974
              ],
              [
                -71.79817997605917,
                41.326411809379884
              ],
              [
                -71.7981515592928,
                41.32648359217106
              ],
              [
                -71.7980340416076,
                41.32650593512049
              ],
              [
                -71.79807830909259,
                41.32658376505032
              ],
              [
                -71.79794325577505,
                41.326604448829336
              ],
              [
                -71.79788492583103,
                41.32681773920982
              ],
              [
                -71.79807165796181,
                41.32709375119076
              ],
              [
                -71.79856132637306,
                41.32718875189899
              ],
              [
                -71.79903506246875,
                41.327446959081016
              ],
              [
                -71.79947272466954,
                41.32747768872118
              ]
            ]
          ]
        ]
      }
    }
  ],
  "bbox": [
    -71.8084197386253,
    41.32187475646101,
    -71.7965584312921,
    41.32747768872118
  ]
}
