{
  "$schema": "https://ripota.org/schemas/web/v1/display-geojson.schema.json",
  "type": "FeatureCollection",
  "properties": {
    "schemaVersion": 1,
    "geometryRole": "display",
    "geometryKind": "boundary",
    "potaReference": "US-7718",
    "potaName": "East Matunuck State Beach",
    "sourceName": "Rhode Island DEM State Conservation Land",
    "sourceUrl": "https://risegis.ri.gov/hosting/rest/services/RIDEM/State_Conservation_Land/MapServer/0",
    "sourceQuery": "NAME = 'East Matunuck State Beach'",
    "sourceFeatureIds": [
      609
    ],
    "fidelity": "web",
    "detailedArtifact": "@ripota/parks/boundaries/us-7718.geojson"
  },
  "features": [
    {
      "type": "Feature",
      "properties": {
        "potaReference": "US-7718",
        "potaName": "East Matunuck State Beach",
        "geometryKind": "boundary",
        "geometryRole": "display",
        "fidelity": "web"
      },
      "geometry": {
        "type": "Polygon",
        "coordinates": [
          [
            [
              -71.52636880034667,
              41.378771611536465
            ],
            [
              -71.5265422368137,
              41.37885571046778
            ],
            [
              -71.52638536571978,
              41.37811541053298
            ],
            [
              -71.5264201466082,
              41.3780826447335
            ],
            [
              -71.5266028252298,
              41.37812191184529
            ],
            [
              -71.5270290259317,
              41.3780825033161
            ],
            [
              -71.52779447683655,
              41.37808887234651
            ],
            [
              -71.52854246899453,
              41.37795110477345
            ],
            [
              -71.52886428888101,
              41.377911714390635
            ],
            [
              -71.52909911749774,
              41.37785924237214
            ],
            [
              -71.52933395870777,
              41.377832975406484
            ],
            [
              -71.52973408068007,
              41.3778394249908
            ],
            [
              -71.5299862962934,
              41.377767291614695
            ],
            [
              -71.53035162330751,
              41.37776719582989
            ],
            [
              -71.53096922242489,
              41.377819444136904
            ],
            [
              -71.53118666888061,
              41.377799730354965
            ],
            [
              -71.53178675313423,
              41.377603016522656
            ],
            [
              -71.53231730137372,
              41.377517697140796
            ],
            [
              -71.53294799907123,
              41.37746093290052
            ],
            [
              -71.53325560439553,
              41.37739890879679
            ],
            [
              -71.53357741781373,
              41.37730663494713
            ],
            [
              -71.53359110337846,
              41.37726804567509
            ],
            [
              -71.53362903099296,
              41.377236991154646
            ],
            [
              -71.53362246286812,
              41.37718722470125
            ],
            [
              -71.53358973525475,
              41.377150770347555
            ],
            [
              -71.53359884156247,
              41.37705024589263
            ],
            [
              -71.53358573550196,
              41.377006887763145
            ],
            [
              -71.53355497143637,
              41.37697388229689
            ],
            [
              -71.53293444807102,
              41.376672360210286
            ],
            [
              -71.53271679576565,
              41.37627277158142
            ],
            [
              -71.53269424363087,
              41.37617289276972
            ],
            [
              -71.5321932467701,
              41.37634903903963
            ],
            [
              -71.53152515345874,
              41.376511181723224
            ],
            [
              -71.53141188863796,
              41.37655935493674
            ],
            [
              -71.53126723479633,
              41.37659502717184
            ],
            [
              -71.53079161054707,
              41.37668516224449
            ],
            [
              -71.53027024831704,
              41.376740700122504
            ],
            [
              -71.52981059109742,
              41.37682047131846
            ],
            [
              -71.52921194880538,
              41.376846788975385
            ],
            [
              -71.52816755331875,
              41.376842277204446
            ],
            [
              -71.5272533895069,
              41.37691910156068
            ],
            [
              -71.5270451044759,
              41.376913981449796
            ],
            [
              -71.52682010710545,
              41.37693071061203
            ],
            [
              -71.52643563121627,
              41.3769260346152
            ],
            [
              -71.52635637735001,
              41.37691227471855
            ],
            [
              -71.52585938140845,
              41.37694946367886
            ],
            [
              -71.52570699216535,
              41.376980072155995
            ],
            [
              -71.5254625734866,
              41.376990327250766
            ],
            [
              -71.5242057660728,
              41.376927207825425
            ],
            [
              -71.52365857678976,
              41.37687088392151
            ],
            [
              -71.52348910475582,
              41.376839529440424
            ],
            [
              -71.52318333089642,
              41.37681957353427
            ],
            [
              -71.52235674462004,
              41.376813904252195
            ],
            [
              -71.52156625656697,
              41.37675529165447
            ],
            [
              -71.52100570635115,
              41.37667653562073
            ],
            [
              -71.52055158378542,
              41.376589385879996
            ],
            [
              -71.51962533493662,
              41.376459211399926
            ],
            [
              -71.5188728601193,
              41.37631799537327
            ],
            [
              -71.51893916141341,
              41.376667731761145
            ],
            [
              -71.51887605622477,
              41.37671767618474
            ],
            [
              -71.51956863325331,
              41.37680498491567
            ],
            [
              -71.52000396755284,
              41.37689131162181
            ],
            [
              -71.52028635378882,
              41.37696880281046
            ],
            [
              -71.5214445109037,
              41.37742196283474
            ],
            [
              -71.52210566896028,
              41.3777035589412
            ],
            [
              -71.52269717405751,
              41.37777551170669
            ],
            [
              -71.523384309348,
              41.37770330618455
            ],
            [
              -71.52427153307055,
              41.377716225220595
            ],
            [
              -71.52496746028397,
              41.37789297088706
            ],
            [
              -71.52535895046324,
              41.37806977983717
            ],
            [
              -71.52604628980014,
              41.378508586998045
            ],
            [
              -71.52636880034667,
              41.378771611536465
            ]
          ]
        ]
      }
    }
  ],
  "bbox": [
    -71.53362903099296,
    41.37617289276972,
    -71.5188728601193,
    41.37885571046778
  ]
}
