{
  "$schema": "https://ripota.org/schemas/web/v1/display-geojson.schema.json",
  "type": "FeatureCollection",
  "properties": {
    "schemaVersion": 1,
    "geometryRole": "display",
    "geometryKind": "boundary",
    "potaReference": "US-7971",
    "potaName": "Blackstone River Valley National Historical Park",
    "sourceName": "National Park Service Land Resources Division Boundary and Tract Data Service",
    "sourceUrl": "https://services1.arcgis.com/fBc8EJBxQRMcHlei/arcgis/rest/services/NPS_Land_Resources_Division_Boundary_and_Tract_Data_Service/FeatureServer/2",
    "sourceQuery": "UNIT_CODE = 'BLRV'",
    "sourceFeatureIds": [
      2131
    ],
    "fidelity": "web",
    "detailedArtifact": "@ripota/parks/boundaries/us-7971.geojson"
  },
  "features": [
    {
      "type": "Feature",
      "properties": {
        "potaReference": "US-7971",
        "potaName": "Blackstone River Valley National Historical Park",
        "geometryKind": "boundary",
        "geometryRole": "display",
        "fidelity": "web"
      },
      "geometry": {
        "type": "MultiPolygon",
        "coordinates": [
          [
            [
              [
                -71.382312890351,
                41.8773908324956
              ],
              [
                -71.3821957464447,
                41.8774278928526
              ],
              [
                -71.381840104322,
                41.877723762259
              ],
              [
                -71.3817065652634,
                41.8782068744025
              ],
              [
                -71.3826121506132,
                41.8784495544483
              ],
              [
                -71.3828326924053,
                41.8779721742378
              ],
              [
                -71.3834711583154,
                41.8769000910921
              ],
              [
                -71.3834740311277,
                41.8768402233421
              ],
              [
                -71.3833129874517,
                41.8766745503252
              ],
              [
                -71.3831256114599,
                41.8768970651321
              ],
              [
                -71.3825803403706,
                41.8773062192485
              ],
              [
                -71.3823649692813,
                41.8773743563883
              ],
              [
                -71.3821644545301,
                41.8768895009002
              ],
              [
                -71.382423859238,
                41.8768831392928
              ],
              [
                -71.3826035267864,
                41.8768369271561
              ],
              [
                -71.3827389172728,
                41.8767360348892
              ],
              [
                -71.3828256648848,
                41.8765969107869
              ],
              [
                -71.3830954083034,
                41.8764344962237
              ],
              [
                -71.3830503398256,
                41.8763906221447
              ],
              [
                -71.3822977034328,
                41.8764653439761
              ],
              [
                -71.3813987804384,
                41.8767899708688
              ],
              [
                -71.3815961829763,
                41.8770703312136
              ],
              [
                -71.3820292221472,
                41.8768843900768
              ],
              [
                -71.3821068329945,
                41.8768778418547
              ],
              [
                -71.382312890351,
                41.8773908324956
              ]
            ]
          ],
          [
            [
              [
                -71.4330832770975,
                41.9370474370447
              ],
              [
                -71.4333620943988,
                41.9373751389715
              ],
              [
                -71.4339166172371,
                41.9379160428021
              ],
              [
                -71.4340825944606,
                41.9378456301069
              ],
              [
                -71.4342921318905,
                41.9376037263701
              ],
              [
                -71.4344555605935,
                41.9375256861148
              ],
              [
                -71.4340857170045,
                41.9370697221228
              ],
              [
                -71.434036651922,
                41.9367211628032
              ],
              [
                -71.4339191325199,
                41.9366821087353
              ],
              [
                -71.4339577124664,
                41.9365782691564
              ],
              [
                -71.4340166733901,
                41.9365896179315
              ],
              [
                -71.4339672175405,
                41.936274744975
              ],
              [
                -71.4337316460353,
                41.9362910368222
              ],
              [
                -71.4336789589456,
                41.9359478700333
              ],
              [
                -71.4339165498635,
                41.9359303739117
              ],
              [
                -71.4336180432878,
                41.933958372152
              ],
              [
                -71.433567353153,
                41.9336824712965
              ],
              [
                -71.4328427603667,
                41.9309731388395
              ],
              [
                -71.4324477980857,
                41.9310275786998
              ],
              [
                -71.4323390237829,
                41.9305228707616
              ],
              [
                -71.4322077026648,
                41.930289337892
              ],
              [
                -71.4319772156242,
                41.9290623765718
              ],
              [
                -71.4318996191499,
                41.9284196754199
              ],
              [
                -71.4323379592793,
                41.9283813440793
              ],
              [
                -71.4323003522083,
                41.9280531461539
              ],
              [
                -71.4321320222971,
                41.9273909661058
              ],
              [
                -71.4319277714526,
                41.927176968098
              ],
              [
                -71.4317475721016,
                41.9270972027907
              ],
              [
                -71.4311942161747,
                41.9270626929092
              ],
              [
                -71.4311064399917,
                41.9277815605943
              ],
              [
                -71.4312016739882,
                41.9292754867412
              ],
              [
                -71.4312764048367,
                41.9296683666925
              ],
              [
                -71.4315733815814,
                41.9305500648257
              ],
              [
                -71.4315470816049,
                41.9308398458601
              ],
              [
                -71.4313572720769,
                41.9311486908488
              ],
              [
                -71.4310228023472,
                41.9321331201773
              ],
              [
                -71.4309183660089,
                41.9328357790069
              ],
              [
                -71.4308965890498,
                41.9335963635109
              ],
              [
                -71.4310597716144,
                41.9341226562814
              ],
              [
                -71.4314320756889,
                41.9348940846812
              ],
              [
                -71.4319512228714,
                41.9358272835549
              ],
              [
                -71.4330832770975,
                41.9370474370447
              ]
            ]
          ],
          [
            [
              [
                -71.4363698920235,
                41.9404154874216
              ],
              [
                -71.4366426510865,
                41.9404477963695
              ],
              [
                -71.437490365169,
                41.9416752456234
              ],
              [
                -71.4382727106449,
                41.9424246409091
              ],
              [
                -71.4386840123826,
                41.9427285801588
              ],
              [
                -71.4389278807277,
                41.9429573922521
              ],
              [
                -71.4393621595737,
                41.9432531278031
              ],
              [
                -71.4407452426161,
                41.9425578756007
              ],
              [
                -71.4405779111823,
                41.942382144183
              ],
              [
                -71.4430217271579,
                41.9412223181768
              ],
              [
                -71.4422091650508,
                41.940136339956
              ],
              [
                -71.4447659751653,
                41.9389782011125
              ],
              [
                -71.4432230315283,
                41.9384284616797
              ],
              [
                -71.4415079608013,
                41.9404021420679
              ],
              [
                -71.4386835596317,
                41.9397092790375
              ],
              [
                -71.4381106464828,
                41.9399700302768
              ],
              [
                -71.4373844726616,
                41.9392988354336
              ],
              [
                -71.437332908466,
                41.9393262035012
              ],
              [
                -71.4362763167662,
                41.9382715464737
              ],
              [
                -71.4363672869092,
                41.9382215658551
              ],
              [
                -71.4359417872985,
                41.937799697295
              ],
              [
                -71.4358412460552,
                41.9378425188278
              ],
              [
                -71.4357085675827,
                41.937729627274
              ],
              [
                -71.435472361867,
                41.9378438359093
              ],
              [
                -71.435376750578,
                41.9377437329656
              ],
              [
                -71.4349451765593,
                41.9379497542925
              ],
              [
                -71.4346273948326,
                41.9375695329009
              ],
              [
                -71.4343270691685,
                41.9377148967828
              ],
              [
                -71.4342528737159,
                41.9378341913444
              ],
              [
                -71.4341280599938,
                41.9379068947425
              ],
              [
                -71.4353422696442,
                41.9390999904374
              ],
              [
                -71.435500019198,
                41.939278737534
              ],
              [
                -71.4357102716868,
                41.9395968672232
              ],
              [
                -71.4360353818696,
                41.9399186323831
              ],
              [
                -71.4362005919318,
                41.9401754938098
              ],
              [
                -71.4358727445824,
                41.9403126228177
              ],
              [
                -71.4359495972516,
                41.9403876554202
              ],
              [
                -71.4362550603808,
                41.9402601787916
              ],
              [
                -71.4363698920235,
                41.9404154874216
              ]
            ]
          ],
          [
            [
              [
                -71.5739013888971,
                42.002142011601
              ],
              [
                -71.5739853661048,
                42.0033106962923
              ],
              [
                -71.5753343985063,
                42.00277304571
              ],
              [
                -71.5764675037613,
                42.0022470167196
              ],
              [
                -71.5768942214876,
                42.001993274636
              ],
              [
                -71.5771755405969,
                42.001785456989
              ],
              [
                -71.5768860912851,
                42.0013353596628
              ],
              [
                -71.5771654210752,
                42.0012304928947
              ],
              [
                -71.5770733751996,
                42.0010836256569
              ],
              [
                -71.5765724215966,
                42.0010301575242
              ],
              [
                -71.5764173903448,
                42.0013860114211
              ],
              [
                -71.5765384949233,
                42.0015937749652
              ],
              [
                -71.5761875518878,
                42.0017001788602
              ],
              [
                -71.5760038131746,
                42.0013412739488
              ],
              [
                -71.5756481099665,
                42.0013655479167
              ],
              [
                -71.5755250394251,
                42.0016471087783
              ],
              [
                -71.575032556486,
                42.0015369127073
              ],
              [
                -71.5738597690517,
                42.0016136195668
              ],
              [
                -71.5739013888971,
                42.002142011601
              ]
            ]
          ],
          [
            [
              [
                -71.5731243668376,
                41.9987445721405
              ],
              [
                -71.5737314707645,
                41.9987938750908
              ],
              [
                -71.5746862146215,
                41.998960289957
              ],
              [
                -71.5751320062762,
                42.0001278614891
              ],
              [
                -71.57525375315,
                42.000300238319
              ],
              [
                -71.5756813269707,
                42.0007134072831
              ],
              [
                -71.5765585704732,
                42.0009150934749
              ],
              [
                -71.5769332775412,
                42.0009681504823
              ],
              [
                -71.5771931197287,
                42.000970933574
              ],
              [
                -71.578318889341,
                42.000810283759
              ],
              [
                -71.5784485476776,
                42.0007423117601
              ],
              [
                -71.5791636632376,
                42.0001224374256
              ],
              [
                -71.5793509520929,
                42.0000423741897
              ],
              [
                -71.5798030050051,
                41.9999391472012
              ],
              [
                -71.5798005049936,
                41.9999070760307
              ],
              [
                -71.5793494671777,
                41.9998197105314
              ],
              [
                -71.5791221440035,
                41.9997247044453
              ],
              [
                -71.5789990936742,
                41.9996123450822
              ],
              [
                -71.5787310121389,
                41.9988637524709
              ],
              [
                -71.5784107474687,
                41.998432965022
              ],
              [
                -71.5782240856375,
                41.9985208458049
              ],
              [
                -71.5771827980861,
                41.9985828311981
              ],
              [
                -71.5760471272426,
                41.9983818118855
              ],
              [
                -71.5755793735759,
                41.9983413308945
              ],
              [
                -71.575136826636,
                41.9982587792878
              ],
              [
                -71.5737120572729,
                41.9981587532073
              ],
              [
                -71.573255158848,
                41.9981664940019
              ],
              [
                -71.5730340996263,
                41.9982207823471
              ],
              [
                -71.5730386603729,
                41.9982452410944
              ],
              [
                -71.5728885806351,
                41.998262481111
              ],
              [
                -71.572614151604,
                41.9983799419509
              ],
              [
                -71.5724764353793,
                41.9984842643205
              ],
              [
                -71.5722195387677,
                41.9985740209698
              ],
              [
                -71.5720115518299,
                41.9987016653512
              ],
              [
                -71.5714156498946,
                41.9988492370539
              ],
              [
                -71.5711646480278,
                41.9989776385968
              ],
              [
                -71.5708531518132,
                41.9992103283482
              ],
              [
                -71.5706296689368,
                41.9995238496272
              ],
              [
                -71.5703072051908,
                41.9995196338383
              ],
              [
                -71.5702582739573,
                41.9994299753224
              ],
              [
                -71.5701214228103,
                41.999349882509
              ],
              [
                -71.5700450767909,
                41.9992311103168
              ],
              [
                -71.5695183298611,
                41.9991541355531
              ],
              [
                -71.5691614938774,
                41.9989458646866
              ],
              [
                -71.5687419905212,
                41.9985837945352
              ],
              [
                -71.5687185157462,
                41.9985320814088
              ],
              [
                -71.5687497465754,
                41.9984963431023
              ],
              [
                -71.5688240111983,
                41.9985101796567
              ],
              [
                -71.5691799084425,
                41.9987629082068
              ],
              [
                -71.5695678369148,
                41.998785998184
              ],
              [
                -71.5697553530438,
                41.9987546374172
              ],
              [
                -71.5695842509316,
                41.9985732045032
              ],
              [
                -71.5695616843534,
                41.9984580285284
              ],
              [
                -71.5698313303047,
                41.998449907908
              ],
              [
                -71.5698498531167,
                41.9983937812011
              ],
              [
                -71.5696622372747,
                41.9983727192364
              ],
              [
                -71.5696717755864,
                41.9980899024871
              ],
              [
                -71.5695514309827,
                41.9979369454973
              ],
              [
                -71.5690420754368,
                41.9976018695001
              ],
              [
                -71.5689784971726,
                41.9975487142185
              ],
              [
                -71.568941298835,
                41.9974532654578
              ],
              [
                -71.5688093246417,
                41.9973687552784
              ],
              [
                -71.5687350339677,
                41.9973615284435
              ],
              [
                -71.5685561479536,
                41.9972690662757
              ],
              [
                -71.5684467277621,
                41.9972924104856
              ],
              [
                -71.5682542143051,
                41.9972728349172
              ],
              [
                -71.5681290439517,
                41.9971271522289
              ],
              [
                -71.5678669155518,
                41.9970513699409
              ],
              [
                -71.5685854024891,
                41.9989477245907
              ],
              [
                -71.5690974952017,
                41.9992643728016
              ],
              [
                -71.5698548791908,
                41.999586447552
              ],
              [
                -71.570601519329,
                41.9997617204793
              ],
              [
                -71.5713274164691,
                41.9998177418372
              ],
              [
                -71.5724056050158,
                41.999161086471
              ],
              [
                -71.5726774172545,
                41.9989337045442
              ],
              [
                -71.5731243668376,
                41.9987445721405
              ]
            ]
          ],
          [
            [
              [
                -71.5800743833575,
                41.999524861016
              ],
              [
                -71.5792308015253,
                41.9996552739554
              ],
              [
                -71.5798026196278,
                41.9997891640547
              ],
              [
                -71.5801465818552,
                41.9998275505933
              ],
              [
                -71.580502349742,
                41.9997951789554
              ],
              [
                -71.5809089128665,
                41.9996757880784
              ],
              [
                -71.5813460932709,
                41.9994510763246
              ],
              [
                -71.5810839918205,
                41.9991416503356
              ],
              [
                -71.5811823016485,
                41.9989938062671
              ],
              [
                -71.5813441286554,
                41.998897730804
              ],
              [
                -71.5814414889642,
                41.9987833358307
              ],
              [
                -71.5813177101012,
                41.9987678477148
              ],
              [
                -71.5812298890024,
                41.9988699483759
              ],
              [
                -71.5811019446514,
                41.9989355998309
              ],
              [
                -71.5801599667529,
                41.9989106720333
              ],
              [
                -71.5798737617068,
                41.9989924891142
              ],
              [
                -71.5794381425743,
                41.9991581964861
              ],
              [
                -71.5792438270969,
                41.9992734699964
              ],
              [
                -71.5791026900877,
                41.9993042704032
              ],
              [
                -71.5791787136119,
                41.9995210083924
              ],
              [
                -71.5800455213857,
                41.999401241151
              ],
              [
                -71.5800743833575,
                41.999524861016
              ]
            ]
          ],
          [
            [
              [
                -71.5799413518471,
                42.0005588891391
              ],
              [
                -71.5801578494238,
                42.0006619422212
              ],
              [
                -71.5806145331513,
                42.000469367605
              ],
              [
                -71.5807555560745,
                42.0006604495315
              ],
              [
                -71.5810858100106,
                42.0004786215072
              ],
              [
                -71.5808244891961,
                42.0004190151914
              ],
              [
                -71.5808448369356,
                42.0004133141096
              ],
              [
                -71.5805168449574,
                42.0000864870551
              ],
              [
                -71.5804723837407,
                41.9999459024326
              ],
              [
                -71.5794388747013,
                42.0001791454022
              ],
              [
                -71.5793264622216,
                42.0002427006537
              ],
              [
                -71.5793253914298,
                42.0002962455516
              ],
              [
                -71.5793687135827,
                42.0003389903804
              ],
              [
                -71.5799413518471,
                42.0005588891391
              ]
            ]
          ],
          [
            [
              [
                -71.5783953072256,
                42.0009998933422
              ],
              [
                -71.577713802132,
                42.0015817348223
              ],
              [
                -71.5782195069245,
                42.0019400415806
              ],
              [
                -71.5793950405087,
                42.000981660726
              ],
              [
                -71.5794918914727,
                42.0010376215965
              ],
              [
                -71.5799849578676,
                42.000720295279
              ],
              [
                -71.5792057681733,
                42.000416132607
              ],
              [
                -71.5791204021701,
                42.0004087205326
              ],
              [
                -71.5783953072256,
                42.0009998933422
              ]
            ]
          ],
          [
            [
              [
                -71.6631011663057,
                42.1116425560454
              ],
              [
                -71.6634824831775,
                42.111515638925
              ],
              [
                -71.6635508314959,
                42.1116063202172
              ],
              [
                -71.6639548766427,
                42.1114761556201
              ],
              [
                -71.6638675271594,
                42.1113447992165
              ],
              [
                -71.664563437637,
                42.11109115279
              ],
              [
                -71.6648188196891,
                42.1114505695617
              ],
              [
                -71.6656133202691,
                42.1111712027724
              ],
              [
                -71.6671882448286,
                42.1108538178359
              ],
              [
                -71.667872632616,
                42.1108248907908
              ],
              [
                -71.667828236078,
                42.1103675915522
              ],
              [
                -71.6657619968385,
                42.1104884558979
              ],
              [
                -71.6656731327957,
                42.1098157753513
              ],
              [
                -71.6650397926726,
                42.1098488473523
              ],
              [
                -71.6650146946419,
                42.109423677628
              ],
              [
                -71.6654464968326,
                42.1093944693634
              ],
              [
                -71.6661515045491,
                42.1092433776242
              ],
              [
                -71.6665293440424,
                42.1091942936241
              ],
              [
                -71.6664431902168,
                42.1088499055031
              ],
              [
                -71.6657711479763,
                42.1089538633121
              ],
              [
                -71.665668654694,
                42.1084415573446
              ],
              [
                -71.6652608348263,
                42.10847509657
              ],
              [
                -71.6653319921766,
                42.1089426492243
              ],
              [
                -71.665208046227,
                42.1089836555757
              ],
              [
                -71.664878183058,
                42.109374346522
              ],
              [
                -71.6648998576092,
                42.1096004397228
              ],
              [
                -71.6648450918179,
                42.1095673436008
              ],
              [
                -71.664226095095,
                42.1095789527696
              ],
              [
                -71.6635210164116,
                42.1097050214087
              ],
              [
                -71.6633916024169,
                42.110378055
              ],
              [
                -71.6622371343261,
                42.1101934959482
              ],
              [
                -71.6621332531466,
                42.1106858385999
              ],
              [
                -71.6626175223399,
                42.1107719208167
              ],
              [
                -71.6625877943922,
                42.1108894956395
              ],
              [
                -71.6626679878959,
                42.1110083517557
              ],
              [
                -71.6628366340141,
                42.1111116416126
              ],
              [
                -71.662982249125,
                42.1114489581875
              ],
              [
                -71.6631011663057,
                42.1116425560454
              ]
            ]
          ],
          [
            [
              [
                -71.5444845951563,
                42.1331955960153
              ],
              [
                -71.5438558355428,
                42.1334888860571
              ],
              [
                -71.5438116905331,
                42.1335296979911
              ],
              [
                -71.5438154760337,
                42.1335992646809
              ],
              [
                -71.544052301587,
                42.1338924349411
              ],
              [
                -71.5442800963768,
                42.1338352060886
              ],
              [
                -71.544226235189,
                42.1336196509635
              ],
              [
                -71.5441152878615,
                42.1334956290913
              ],
              [
                -71.5441086897357,
                42.1334451669023
              ],
              [
                -71.5441988311829,
                42.1333389589486
              ],
              [
                -71.5444845951563,
                42.1331955960153
              ]
            ]
          ]
        ]
      }
    }
  ],
  "bbox": [
    -71.667872632616,
    41.8763906221447,
    -71.3813987804384,
    42.1338924349411
  ]
}
