{
  "$schema": "https://ripota.org/schemas/web/v1/display-geojson.schema.json",
  "type": "FeatureCollection",
  "properties": {
    "schemaVersion": 1,
    "geometryRole": "display",
    "geometryKind": "boundary",
    "potaReference": "US-7720",
    "potaName": "Roger W. Wheeler State Beach",
    "sourceName": "Rhode Island DEM State Conservation Land",
    "sourceUrl": "https://risegis.ri.gov/hosting/rest/services/RIDEM/State_Conservation_Land/MapServer/0",
    "sourceQuery": "DEM_AREA = 'Roger Wheeler Beach State Park'",
    "sourceFeatureIds": [
      263
    ],
    "fidelity": "web",
    "detailedArtifact": "@ripota/parks/boundaries/us-7720.geojson"
  },
  "features": [
    {
      "type": "Feature",
      "properties": {
        "potaReference": "US-7720",
        "potaName": "Roger W. Wheeler State Beach",
        "geometryKind": "boundary",
        "geometryRole": "display",
        "fidelity": "web"
      },
      "geometry": {
        "type": "Polygon",
        "coordinates": [
          [
            [
              -71.49633406795256,
              41.37222516473064
            ],
            [
              -71.49651255413693,
              41.37294824888231
            ],
            [
              -71.49662241571295,
              41.373117765307974
            ],
            [
              -71.4967276159053,
              41.37319431317182
            ],
            [
              -71.50050537746478,
              41.37473333420108
            ],
            [
              -71.5007942365083,
              41.37471999658101
            ],
            [
              -71.50178525181451,
              41.374247167213056
            ],
            [
              -71.50204211506312,
              41.37420736748386
            ],
            [
              -71.50223302533034,
              41.37423537751001
            ],
            [
              -71.5021749558864,
              41.37326297191967
            ],
            [
              -71.50100154472337,
              41.372814204457804
            ],
            [
              -71.50004538309712,
              41.37249276483048
            ],
            [
              -71.49950149981083,
              41.372396515244205
            ],
            [
              -71.49869303581305,
              41.37188676553969
            ],
            [
              -71.49870054324441,
              41.37184371427071
            ],
            [
              -71.49858088448909,
              41.37176371673975
            ],
            [
              -71.49829101619822,
              41.371635216042634
            ],
            [
              -71.49797200108317,
              41.37155765846339
            ],
            [
              -71.4977055872456,
              41.371450984463785
            ],
            [
              -71.49756373185055,
              41.3713219490351
            ],
            [
              -71.49695977773096,
              41.37053103689006
            ],
            [
              -71.49654607640986,
              41.36986603005118
            ],
            [
              -71.49635926035927,
              41.36963201638187
            ],
            [
              -71.49608927428505,
              41.369493712440885
            ],
            [
              -71.49595299028293,
              41.37164273459196
            ],
            [
              -71.49710486499406,
              41.372191244790244
            ],
            [
              -71.49670796899012,
              41.37218038507897
            ],
            [
              -71.49633406795256,
              41.37222516473064
            ]
          ]
        ]
      }
    }
  ],
  "bbox": [
    -71.50223302533034,
    41.369493712440885,
    -71.49595299028293,
    41.37473333420108
  ]
}
