{
  "$schema": "https://ripota.org/schemas/web/v1/display-geojson.schema.json",
  "type": "FeatureCollection",
  "properties": {
    "schemaVersion": 1,
    "geometryRole": "display",
    "geometryKind": "boundary",
    "potaReference": "US-7865",
    "potaName": "East State Beach",
    "sourceName": "Rhode Island DEM State Conservation Land",
    "sourceUrl": "https://risegis.ri.gov/hosting/rest/services/RIDEM/State_Conservation_Land/MapServer/0",
    "sourceQuery": "DEM_AREA = 'East Beach State Park'",
    "sourceFeatureIds": [
      125,
      269,
      270
    ],
    "fidelity": "web",
    "detailedArtifact": "@ripota/parks/boundaries/us-7865.geojson"
  },
  "features": [
    {
      "type": "Feature",
      "properties": {
        "potaReference": "US-7865",
        "potaName": "East State Beach",
        "geometryKind": "boundary",
        "geometryRole": "display",
        "fidelity": "web"
      },
      "geometry": {
        "type": "MultiPolygon",
        "coordinates": [
          [
            [
              [
                -71.66261914430152,
                41.35050937639242
              ],
              [
                -71.66126969316898,
                41.35099185586697
              ],
              [
                -71.66039650720994,
                41.35123273298043
              ],
              [
                -71.65798305566962,
                41.351764849188015
              ],
              [
                -71.6568486416415,
                41.352136569926124
              ],
              [
                -71.65503527488441,
                41.35251450132901
              ],
              [
                -71.65355772120468,
                41.35291405811876
              ],
              [
                -71.64986176421199,
                41.35367411426692
              ],
              [
                -71.65073430783232,
                41.3557257092023
              ],
              [
                -71.65124721621079,
                41.35552870747723
              ],
              [
                -71.65129405285816,
                41.35548141383844
              ],
              [
                -71.65131625634247,
                41.35531376822113
              ],
              [
                -71.65136029282876,
                41.35525871577266
              ],
              [
                -71.6514330453213,
                41.355266057479376
              ],
              [
                -71.65160878289888,
                41.35536107091766
              ],
              [
                -71.65177254151304,
                41.35593371775626
              ],
              [
                -71.6519410433187,
                41.35614597760793
              ],
              [
                -71.65207977056086,
                41.35623284360808
              ],
              [
                -71.65217807118401,
                41.35626210044872
              ],
              [
                -71.6522246695055,
                41.35608539667855
              ],
              [
                -71.6522372097056,
                41.355751862558165
              ],
              [
                -71.65230192800594,
                41.35563329245886
              ],
              [
                -71.6522862806404,
                41.35556159255262
              ],
              [
                -71.65186193922612,
                41.35512106874297
              ],
              [
                -71.65182370358866,
                41.354878767549565
              ],
              [
                -71.65186004923922,
                41.35479685941922
              ],
              [
                -71.65189589126791,
                41.35474200756095
              ],
              [
                -71.6520485268277,
                41.35469345290746
              ],
              [
                -71.65218658603791,
                41.35469024953782
              ],
              [
                -71.65290789816108,
                41.35479068717845
              ],
              [
                -71.65293700751839,
                41.35482605004939
              ],
              [
                -71.65263879534915,
                41.354877967605155
              ],
              [
                -71.65254544907802,
                41.354970182043786
              ],
              [
                -71.65221841506136,
                41.3550858193389
              ],
              [
                -71.65217475513734,
                41.35513184677692
              ],
              [
                -71.65244583894835,
                41.355404798548676
              ],
              [
                -71.65251988065873,
                41.355574212238956
              ],
              [
                -71.65249215800843,
                41.35579101714714
              ],
              [
                -71.65240579542768,
                41.356000164262205
              ],
              [
                -71.65247951576215,
                41.35617858521855
              ],
              [
                -71.6527361181982,
                41.35638881735912
              ],
              [
                -71.65307035287503,
                41.35645314900781
              ],
              [
                -71.65328203813107,
                41.35643927372269
              ],
              [
                -71.65363771998662,
                41.35633197623439
              ],
              [
                -71.65402343382456,
                41.3563365876156
              ],
              [
                -71.65410895402854,
                41.356086940747524
              ],
              [
                -71.65409983215582,
                41.355789927377955
              ],
              [
                -71.65397367450223,
                41.35538754130533
              ],
              [
                -71.65402406262511,
                41.35532334374845
              ],
              [
                -71.65417029072327,
                41.35535599412657
              ],
              [
                -71.65427252741914,
                41.35546171060192
              ],
              [
                -71.65460107346186,
                41.35562523225809
              ],
              [
                -71.65476904229043,
                41.355657383550444
              ],
              [
                -71.65529225487072,
                41.35559125831593
              ],
              [
                -71.6554814139086,
                41.35563191408949
              ],
              [
                -71.65558337438824,
                41.355620562549326
              ],
              [
                -71.65605555909156,
                41.35549256429459
              ],
              [
                -71.6562163370452,
                41.35551586586121
              ],
              [
                -71.6565506918667,
                41.355490132424656
              ],
              [
                -71.65677506633664,
                41.35540389245475
              ],
              [
                -71.65686924749943,
                41.35532966011102
              ],
              [
                -71.65699926309662,
                41.355056452312894
              ],
              [
                -71.65683100164345,
                41.35499729227275
              ],
              [
                -71.6566573846307,
                41.35517244391442
              ],
              [
                -71.65639475575328,
                41.35501638852349
              ],
              [
                -71.65624277126604,
                41.35482794667245
              ],
              [
                -71.65622591010835,
                41.354759110454786
              ],
              [
                -71.65620936174744,
                41.35440822563256
              ],
              [
                -71.65617960073357,
                41.35433686864627
              ],
              [
                -71.65622254022503,
                41.354254819624366
              ],
              [
                -71.6563907564674,
                41.35436801443076
              ],
              [
                -71.65666013711748,
                41.35446985757615
              ],
              [
                -71.65669044422253,
                41.354599761269185
              ],
              [
                -71.6567708655562,
                41.354602404310505
              ],
              [
                -71.65706052666637,
                41.35445160162239
              ],
              [
                -71.65717698979041,
                41.35441289142601
              ],
              [
                -71.6573080114162,
                41.354418865835804
              ],
              [
                -71.65741631749047,
                41.35425424463671
              ],
              [
                -71.65757642378159,
                41.35433159704287
              ],
              [
                -71.65773851823674,
                41.354571024503585
              ],
              [
                -71.65756456672057,
                41.354701131206454
              ],
              [
                -71.65771061886845,
                41.3548958958435
              ],
              [
                -71.65805385988696,
                41.35501405621267
              ],
              [
                -71.6584041928076,
                41.355195096957324
              ],
              [
                -71.65876771329806,
                41.35513265030434
              ],
              [
                -71.65914406448074,
                41.35487174988569
              ],
              [
                -71.65935435071343,
                41.35465975012938
              ],
              [
                -71.65943921599458,
                41.35436054949633
              ],
              [
                -71.65937229799351,
                41.3540378682988
              ],
              [
                -71.65942406990408,
                41.35365840649203
              ],
              [
                -71.65931957804568,
                41.35375088589109
              ],
              [
                -71.65919463516549,
                41.35360067353164
              ],
              [
                -71.65930242751078,
                41.35336851032978
              ],
              [
                -71.6591424961901,
                41.35342174343992
              ],
              [
                -71.65871913978832,
                41.35322439197709
              ],
              [
                -71.65868191269163,
                41.35308115420109
              ],
              [
                -71.65874654803092,
                41.35298056900509
              ],
              [
                -71.6593520192351,
                41.35319172291461
              ],
              [
                -71.65944815577775,
                41.353405657673555
              ],
              [
                -71.65955460404265,
                41.35353379205482
              ],
              [
                -71.65976970734492,
                41.35359635870567
              ],
              [
                -71.660214347799,
                41.35380223959264
              ],
              [
                -71.66044721764634,
                41.35379683504157
              ],
              [
                -71.66082563375208,
                41.35373403966191
              ],
              [
                -71.66130629932921,
                41.35377695777631
              ],
              [
                -71.66177804958637,
                41.35362191971525
              ],
              [
                -71.66250343231097,
                41.35325386940994
              ],
              [
                -71.66261945599129,
                41.35322415845582
              ],
              [
                -71.66312174314864,
                41.35326656572212
              ],
              [
                -71.66328154324803,
                41.35317279155246
              ],
              [
                -71.6634477396321,
                41.352997832193495
              ],
              [
                -71.66364933343625,
                41.3529139459148
              ],
              [
                -71.66358446797916,
                41.35278305587144
              ],
              [
                -71.66333098654809,
                41.35291947828486
              ],
              [
                -71.66306996181207,
                41.35313267378062
              ],
              [
                -71.66241543630183,
                41.353111816531325
              ],
              [
                -71.66201564320248,
                41.35327417354662
              ],
              [
                -71.66194357506166,
                41.35335691132905
              ],
              [
                -71.66168263255784,
                41.35351604902715
              ],
              [
                -71.66090379531774,
                41.35348905306402
              ],
              [
                -71.66075832198428,
                41.35343839560343
              ],
              [
                -71.66063485498539,
                41.35334667810264
              ],
              [
                -71.66065437882713,
                41.353197607201324
              ],
              [
                -71.66115265459413,
                41.352537618732995
              ],
              [
                -71.6612541563212,
                41.35248121511332
              ],
              [
                -71.66196090962549,
                41.3525909456409
              ],
              [
                -71.66217818520101,
                41.35249584862208
              ],
              [
                -71.66227226777953,
                41.35238559361574
              ],
              [
                -71.6625402836831,
                41.35223527671994
              ],
              [
                -71.66281648310157,
                41.35217485122464
              ],
              [
                -71.66342632056407,
                41.35217155574247
              ],
              [
                -71.66413840517504,
                41.35181996629225
              ],
              [
                -71.66479307588793,
                41.35167872016437
              ],
              [
                -71.66493069794635,
                41.3516845251802
              ],
              [
                -71.6651425930237,
                41.35180570784282
              ],
              [
                -71.6653175689456,
                41.35186469935216
              ],
              [
                -71.66544107753077,
                41.35187082566834
              ],
              [
                -71.6658110563142,
                41.35167311972287
              ],
              [
                -71.665956917456,
                41.351696750637814
              ],
              [
                -71.66602601191154,
                41.351677139917314
              ],
              [
                -71.66621793301272,
                41.35148355126192
              ],
              [
                -71.66641245234433,
                41.35121784978467
              ],
              [
                -71.66683389249349,
                41.351072982529345
              ],
              [
                -71.6671664820678,
                41.350768036682396
              ],
              [
                -71.66816078699793,
                41.35045676293421
              ],
              [
                -71.66852366709081,
                41.35025018231803
              ],
              [
                -71.66890098860273,
                41.350124348292226
              ],
              [
                -71.66923535352981,
                41.35002651514744
              ],
              [
                -71.66959844489732,
                41.349991052697526
              ],
              [
                -71.67001332755447,
                41.34999944560453
              ],
              [
                -71.67061851093654,
                41.350183523853
              ],
              [
                -71.67076438866496,
                41.35017112759755
              ],
              [
                -71.67127245740892,
                41.34995216540148
              ],
              [
                -71.6717133597088,
                41.34955463293421
              ],
              [
                -71.67214892668201,
                41.3493373624292
              ],
              [
                -71.67245339865671,
                41.3492582392234
              ],
              [
                -71.67304230997084,
                41.349163485301865
              ],
              [
                -71.67352964791016,
                41.34917917778613
              ],
              [
                -71.67374046019953,
                41.34914723268832
              ],
              [
                -71.67402407441723,
                41.34901455676966
              ],
              [
                -71.67419803660451,
                41.34899248826471
              ],
              [
                -71.67456993031774,
                41.349100928898835
              ],
              [
                -71.67520246102323,
                41.34904117968616
              ],
              [
                -71.67552871787473,
                41.34885345404823
              ],
              [
                -71.67597161261601,
                41.348744072516354
              ],
              [
                -71.67659608117175,
                41.34852238128051
              ],
              [
                -71.67719912223704,
                41.348418278619874
              ],
              [
                -71.67825392696268,
                41.34833064938089
              ],
              [
                -71.67857381070093,
                41.34831417744201
              ],
              [
                -71.67890174381753,
                41.348369587473215
              ],
              [
                -71.67927938009512,
                41.34828872700902
              ],
              [
                -71.67980261571445,
                41.34809641786635
              ],
              [
                -71.68046383900443,
                41.34804495344926
              ],
              [
                -71.68134838452737,
                41.347592012514816
              ],
              [
                -71.68201601539614,
                41.34735128990838
              ],
              [
                -71.68326635320484,
                41.34715097323124
              ],
              [
                -71.683906369675,
                41.347090988673365
              ],
              [
                -71.6843858834395,
                41.346980722053864
              ],
              [
                -71.68492956754945,
                41.34674286157057
              ],
              [
                -71.68632090400008,
                41.34582771702733
              ],
              [
                -71.68702431511116,
                41.345496060053456
              ],
              [
                -71.68747362977112,
                41.345179330331895
              ],
              [
                -71.68814871721477,
                41.34497440813393
              ],
              [
                -71.68898484512503,
                41.3448917964992
              ],
              [
                -71.6909276717609,
                41.34498143074737
              ],
              [
                -71.69117505315268,
                41.34493061488316
              ],
              [
                -71.69140682801834,
                41.34471802353121
              ],
              [
                -71.69181097661566,
                41.344102202662455
              ],
              [
                -71.69135176731135,
                41.34312060816649
              ],
              [
                -71.69115160395306,
                41.34318333143321
              ],
              [
                -71.69109602325676,
                41.343081870434844
              ],
              [
                -71.69166792939563,
                41.3429139374859
              ],
              [
                -71.69133441111593,
                41.342195023016245
              ],
              [
                -71.69056684174343,
                41.34241522791175
              ],
              [
                -71.68836174040725,
                41.343216754368854
              ],
              [
                -71.68749497671338,
                41.34348997611355
              ],
              [
                -71.68280460495855,
                41.34482317438866
              ],
              [
                -71.68181944737363,
                41.34516868074757
              ],
              [
                -71.67861731445724,
                41.34608199983546
              ],
              [
                -71.67596748690698,
                41.34675913892715
              ],
              [
                -71.67545394950386,
                41.34684958352497
              ],
              [
                -71.67360548120938,
                41.3473049025238
              ],
              [
                -71.67098281554588,
                41.348001657072885
              ],
              [
                -71.66639516604769,
                41.34940110955273
              ],
              [
                -71.66531105898197,
                41.34965127347242
              ],
              [
                -71.66261914430152,
                41.35050937639242
              ]
            ]
          ],
          [
            [
              [
                -71.6528920653406,
                41.35884729660415
              ],
              [
                -71.65307252547628,
                41.35883868377902
              ],
              [
                -71.653173967157,
                41.3587495250043
              ],
              [
                -71.65335563635526,
                41.35840794020086
              ],
              [
                -71.65356312533416,
                41.358168033071706
              ],
              [
                -71.65331443414853,
                41.3581431927049
              ],
              [
                -71.6533139189645,
                41.3582872612374
              ],
              [
                -71.65317494268614,
                41.358485647853456
              ],
              [
                -71.65312997498467,
                41.35867801334403
              ],
              [
                -71.6530917091837,
                41.358718481079144
              ],
              [
                -71.65300387668792,
                41.35873813053849
              ],
              [
                -71.65295061071528,
                41.35869255221973
              ],
              [
                -71.65291048127403,
                41.35842343436328
              ],
              [
                -71.65301429202327,
                41.35820351463185
              ],
              [
                -71.65300181426068,
                41.35814938129658
              ],
              [
                -71.65279943365272,
                41.3578120169801
              ],
              [
                -71.65278063662807,
                41.357465038119976
              ],
              [
                -71.65266299677202,
                41.35732017733009
              ],
              [
                -71.6525879078035,
                41.35728719934374
              ],
              [
                -71.6525389106964,
                41.357338819240404
              ],
              [
                -71.65257485793919,
                41.357524146797715
              ],
              [
                -71.65252596577628,
                41.35764434469406
              ],
              [
                -71.65194740833915,
                41.35814955551317
              ],
              [
                -71.65182420318244,
                41.35820554190934
              ],
              [
                -71.65166097025681,
                41.35820487743432
              ],
              [
                -71.65162781295668,
                41.35825213967224
              ],
              [
                -71.65203753345166,
                41.35840659167331
              ],
              [
                -71.65212345887674,
                41.35852158419006
              ],
              [
                -71.65211125636614,
                41.35868341168999
              ],
              [
                -71.65227794221038,
                41.35869909434312
              ],
              [
                -71.65247872628612,
                41.35880298463256
              ],
              [
                -71.65262897164621,
                41.35884261072258
              ],
              [
                -71.6528920653406,
                41.35884729660415
              ]
            ]
          ]
        ]
      }
    }
  ],
  "bbox": [
    -71.69181097661566,
    41.342195023016245,
    -71.64986176421199,
    41.35884729660415
  ]
}
