{
  "$schema": "https://ripota.org/schemas/web/v1/display-geojson.schema.json",
  "type": "FeatureCollection",
  "properties": {
    "schemaVersion": 1,
    "geometryRole": "display",
    "geometryKind": "boundary",
    "potaReference": "US-7714",
    "potaName": "Buck Hill Wildlife Management Area",
    "sourceName": "Rhode Island DEM State Conservation Land",
    "sourceUrl": "https://risegis.ri.gov/hosting/rest/services/RIDEM/State_Conservation_Land/MapServer/0",
    "sourceQuery": "DEM_AREA = 'Buck Hill Management Area' OR DEM_AREA = 'Buck HIll'",
    "sourceFeatureIds": [
      41,
      42,
      501,
      656,
      873,
      8578,
      8579,
      8581,
      8583,
      8585,
      8587,
      8588,
      8592,
      8593,
      8594,
      8595,
      8597,
      8599,
      8601,
      8603,
      8608,
      9126,
      9128,
      9130,
      9133,
      9135,
      9136,
      9138,
      9139,
      9140,
      9142,
      9144,
      9146,
      9149,
      9152,
      9155,
      9157,
      9159,
      9163,
      9164,
      9166,
      9170,
      9173,
      9174,
      36473,
      40693,
      46210
    ],
    "fidelity": "web",
    "detailedArtifact": "@ripota/parks/boundaries/us-7714.geojson"
  },
  "features": [
    {
      "type": "Feature",
      "properties": {
        "potaReference": "US-7714",
        "potaName": "Buck Hill Wildlife Management Area",
        "geometryKind": "boundary",
        "geometryRole": "display",
        "fidelity": "web"
      },
      "geometry": {
        "type": "MultiPolygon",
        "coordinates": [
          [
            [
              [
                -71.79908056252128,
                42.00081114979085
              ],
              [
                -71.79894800453087,
                41.99402409689771
              ],
              [
                -71.79886920941313,
                41.98777182669882
              ],
              [
                -71.79811381168807,
                41.987775589662476
              ],
              [
                -71.7970108388245,
                41.98552060557518
              ],
              [
                -71.7968718006838,
                41.98534353776885
              ],
              [
                -71.79616579423288,
                41.985532564382346
              ],
              [
                -71.79575683553006,
                41.98478755063621
              ],
              [
                -71.79545082995958,
                41.98472959583711
              ],
              [
                -71.79558779667015,
                41.98433554158095
              ],
              [
                -71.79425378377466,
                41.98407758784067
              ],
              [
                -71.79028682389199,
                41.98214362013227
              ],
              [
                -71.79059179524207,
                41.98180060054317
              ],
              [
                -71.78878581858262,
                41.98091853571226
              ],
              [
                -71.78803181207846,
                41.980626547628646
              ],
              [
                -71.78746631782697,
                41.980306232368726
              ],
              [
                -71.78689581367942,
                41.97991959706987
              ],
              [
                -71.78636680529524,
                41.97944857878048
              ],
              [
                -71.78588382293228,
                41.97885961565381
              ],
              [
                -71.78548477950363,
                41.978149612311206
              ],
              [
                -71.78514377952834,
                41.97725860722375
              ],
              [
                -71.7848477898331,
                41.97678159990528
              ],
              [
                -71.7845587842332,
                41.9764655372576
              ],
              [
                -71.78421251431678,
                41.97618074493097
              ],
              [
                -71.78355182903442,
                41.97580754245035
              ],
              [
                -71.78309220013563,
                41.9756399100265
              ],
              [
                -71.78256083136696,
                41.9755046116003
              ],
              [
                -71.78250312949686,
                41.97632131313153
              ],
              [
                -71.78030692549734,
                41.9762278220805
              ],
              [
                -71.78036354380879,
                41.97540691979839
              ],
              [
                -71.77936475455975,
                41.97556517393507
              ],
              [
                -71.77965220037356,
                41.97704117867784
              ],
              [
                -71.77892256353795,
                41.977134970378614
              ],
              [
                -71.77868282953433,
                41.97591353721692
              ],
              [
                -71.77531807014998,
                41.97639862735315
              ],
              [
                -71.77401134942428,
                41.97683310082672
              ],
              [
                -71.77442473780029,
                41.97775767120607
              ],
              [
                -71.762468561351,
                41.98321015153568
              ],
              [
                -71.76299313272024,
                41.98385297343736
              ],
              [
                -71.77473297372799,
                41.978493827110576
              ],
              [
                -71.77547903192483,
                41.9802143453229
              ],
              [
                -71.77447374758233,
                41.98169045321594
              ],
              [
                -71.76902547688567,
                41.98441706901506
              ],
              [
                -71.76466798623957,
                41.98669054735644
              ],
              [
                -71.76432744632285,
                41.99315490313278
              ],
              [
                -71.76472683597903,
                41.9944392947001
              ],
              [
                -71.76479828487673,
                41.99451056878059
              ],
              [
                -71.76499029255751,
                41.994490101874874
              ],
              [
                -71.76518078088777,
                41.99469210888665
              ],
              [
                -71.76519081480805,
                41.99494208166898
              ],
              [
                -71.7652758180488,
                41.99499556817798
              ],
              [
                -71.76534378605407,
                41.99510281922221
              ],
              [
                -71.7654247931019,
                41.99533657082822
              ],
              [
                -71.76541079073426,
                41.99561082653096
              ],
              [
                -71.76554730408907,
                41.99572507912369
              ],
              [
                -71.76554279760776,
                41.99588508668327
              ],
              [
                -71.76567528671434,
                41.99607159755623
              ],
              [
                -71.7656628012382,
                41.99613053926003
              ],
              [
                -71.7654633217175,
                41.996411826906424
              ],
              [
                -71.76538229575948,
                41.996652063491666
              ],
              [
                -71.76542331936047,
                41.99695558348871
              ],
              [
                -71.76541113458755,
                41.99711284300451
              ],
              [
                -71.76554106769805,
                41.99719409635603
              ],
              [
                -71.76576279315383,
                41.99727193377675
              ],
              [
                -71.76613830872856,
                41.99732556867003
              ],
              [
                -71.76685679803197,
                41.99714808151256
              ],
              [
                -71.76717380215914,
                41.99724407544254
              ],
              [
                -71.76776981198175,
                41.99708410493264
              ],
              [
                -71.7679833052515,
                41.997059059740806
              ],
              [
                -71.76820580935805,
                41.99706505655464
              ],
              [
                -71.76859780300649,
                41.997230076482154
              ],
              [
                -71.76894911721841,
                41.99726922957413
              ],
              [
                -71.76918515166095,
                41.99720956276768
              ],
              [
                -71.76978878844447,
                41.9968088988638
              ],
              [
                -71.77014230649702,
                41.996624109486206
              ],
              [
                -71.77039181100399,
                41.99678954405482
              ],
              [
                -71.77052379937604,
                41.99724759258213
              ],
              [
                -71.77070630197963,
                41.997471583038376
              ],
              [
                -71.770894802713,
                41.99759158115301
              ],
              [
                -71.77118681116832,
                41.997653577688574
              ],
              [
                -71.77142730827926,
                41.997916577308786
              ],
              [
                -71.77167580385093,
                41.99803210175999
              ],
              [
                -71.77176480546947,
                41.99820327169209
              ],
              [
                -71.7716711529139,
                41.998339586255014
              ],
              [
                -71.77131805435938,
                41.99854333895596
              ],
              [
                -71.77114730642417,
                41.99875360589368
              ],
              [
                -71.77101681398449,
                41.99878560050803
              ],
              [
                -71.77098878805339,
                41.99891361262717
              ],
              [
                -71.77087077783027,
                41.99910358135636
              ],
              [
                -71.7707018230037,
                41.999493563529334
              ],
              [
                -71.77042983038709,
                41.99983662360436
              ],
              [
                -71.7701218011331,
                42.000025581419855
              ],
              [
                -71.7700143240244,
                42.00036958209891
              ],
              [
                -71.77011049438512,
                42.00046690186371
              ],
              [
                -71.77021179936362,
                42.000747596536414
              ],
              [
                -71.77028579147783,
                42.000818040945724
              ],
              [
                -71.77032930963959,
                42.000941083024394
              ],
              [
                -71.77032354231646,
                42.001004340758804
              ],
              [
                -71.77019679536183,
                42.00110430719983
              ],
              [
                -71.77018877728,
                42.00124356998096
              ],
              [
                -71.77024079468272,
                42.0013915459996
              ],
              [
                -71.77018080501901,
                42.001615078678014
              ],
              [
                -71.7701858130875,
                42.001711541514354
              ],
              [
                -71.77013630268955,
                42.00182356758869
              ],
              [
                -71.77002580082349,
                42.00195558988198
              ],
              [
                -71.76989880552476,
                42.00202790801441
              ],
              [
                -71.76959477686434,
                42.001969080376554
              ],
              [
                -71.76957366174028,
                42.00192120821357
              ],
              [
                -71.76942480469222,
                42.00204657306194
              ],
              [
                -71.769415798613,
                42.002269084432896
              ],
              [
                -71.76937082094246,
                42.00231807056483
              ],
              [
                -71.76921096737706,
                42.0023437289948
              ],
              [
                -71.76892631307015,
                42.00248809303007
              ],
              [
                -71.76880380928024,
                42.002633248075185
              ],
              [
                -71.76880728707843,
                42.00268207009008
              ],
              [
                -71.7686058163881,
                42.00277157703269
              ],
              [
                -71.76840230506029,
                42.003008092939055
              ],
              [
                -71.76820677389486,
                42.003694544417264
              ],
              [
                -71.76800379100347,
                42.003968575191415
              ],
              [
                -71.76760780527653,
                42.00436260163463
              ],
              [
                -71.76742781142282,
                42.00458906927865
              ],
              [
                -71.76736280488439,
                42.004749582215794
              ],
              [
                -71.76751780306076,
                42.00488960111742
              ],
              [
                -71.76781379571804,
                42.00495554111266
              ],
              [
                -71.76804277628062,
                42.00497061534442
              ],
              [
                -71.76870899100477,
                42.00494999099607
              ],
              [
                -71.7690198120902,
                42.004773580003715
              ],
              [
                -71.76907677971363,
                42.00478656670786
              ],
              [
                -71.76915492344955,
                42.004940782255225
              ],
              [
                -71.76927281529152,
                42.00502557790655
              ],
              [
                -71.76946878230365,
                42.00509209394313
              ],
              [
                -71.76976606511408,
                42.00526157507545
              ],
              [
                -71.7697650500015,
                42.005429315192856
              ],
              [
                -71.76963625743551,
                42.00549649824704
              ],
              [
                -71.76946478555466,
                42.005663614966736
              ],
              [
                -71.76948977612948,
                42.00578258363038
              ],
              [
                -71.76946032877845,
                42.00596308034971
              ],
              [
                -71.76955930839385,
                42.0060955546007
              ],
              [
                -71.76955179332188,
                42.00622862010074
              ],
              [
                -71.76919163587779,
                42.00663793781293
              ],
              [
                -71.76906082447168,
                42.00671660119739
              ],
              [
                -71.76896480661986,
                42.006823570593035
              ],
              [
                -71.76901729627154,
                42.00692935467961
              ],
              [
                -71.76920379761671,
                42.00705654091853
              ],
              [
                -71.76928679359904,
                42.007201616689585
              ],
              [
                -71.76921782156444,
                42.00741058829237
              ],
              [
                -71.76901247325272,
                42.00752233183199
              ],
              [
                -71.76893130745243,
                42.00763318992958
              ],
              [
                -71.76886881880144,
                42.007790614173175
              ],
              [
                -71.7688978015182,
                42.00796757244183
              ],
              [
                -71.7689367896118,
                42.008005613734845
              ],
              [
                -71.76922582062406,
                42.00797157792698
              ],
              [
                -71.76955378766995,
                42.00802157493289
              ],
              [
                -71.7696803040794,
                42.007931856284
              ],
              [
                -71.76996178559685,
                42.00782861152252
              ],
              [
                -71.77004680071087,
                42.00787960678218
              ],
              [
                -71.7700657856913,
                42.00808657489513
              ],
              [
                -71.77030473340172,
                42.00829926529345
              ],
              [
                -71.77039128602819,
                42.008424067681474
              ],
              [
                -71.77108105613172,
                42.0086598921668
              ],
              [
                -71.77119780645857,
                42.00868032982587
              ],
              [
                -71.77146178442152,
                42.00865758074384
              ],
              [
                -71.77176479831688,
                42.008558590434355
              ],
              [
                -71.7721728157687,
                42.00860658888236
              ],
              [
                -71.77228081636875,
                42.00855359440451
              ],
              [
                -71.7725727995156,
                42.008537078505185
              ],
              [
                -71.77274780214692,
                42.00858734396558
              ],
              [
                -71.77270978567628,
                42.008789557452765
              ],
              [
                -71.7726162901219,
                42.00883261357621
              ],
              [
                -71.77209978566015,
                42.008690285564356
              ],
              [
                -71.77181930819255,
                42.00885109718638
              ],
              [
                -71.77158745815177,
                42.008871844418465
              ],
              [
                -71.77153029132899,
                42.00895009864208
              ],
              [
                -71.7715488303993,
                42.00911856487431
              ],
              [
                -71.7713977761157,
                42.0095326018456
              ],
              [
                -71.77695605558073,
                42.00919793412785
              ],
              [
                -71.799174691263,
                42.00806147791371
              ],
              [
                -71.79908056252128,
                42.00081114979085
              ]
            ],
            [
              [
                -71.79909419372417,
                42.00186126199062
              ],
              [
                -71.79801267460452,
                42.00191991838675
              ],
              [
                -71.78775355543348,
                42.002475808562615
              ],
              [
                -71.79909419372417,
                42.00186126199062
              ]
            ],
            [
              [
                -71.78713888838621,
                41.98939649065749
              ],
              [
                -71.78713888838621,
                41.989396490657484
              ],
              [
                -71.79760049642007,
                41.98930480457737
              ],
              [
                -71.79515241016131,
                41.989326345556954
              ],
              [
                -71.78713888838621,
                41.98939649065749
              ]
            ]
          ],
          [
            [
              [
                -71.776989506603,
                41.96697341860107
              ],
              [
                -71.77859480354714,
                41.975481577161766
              ],
              [
                -71.78043180531868,
                41.975170576132264
              ],
              [
                -71.78108280498361,
                41.975139576192014
              ],
              [
                -71.78168280522567,
                41.975163576408264
              ],
              [
                -71.78179080413275,
                41.97433157686148
              ],
              [
                -71.78284380556236,
                41.97447957681182
              ],
              [
                -71.78375680515715,
                41.97443157609812
              ],
              [
                -71.7841598057727,
                41.974317576251494
              ],
              [
                -71.78628480549915,
                41.97127157526759
              ],
              [
                -71.78632980648192,
                41.964883574307805
              ],
              [
                -71.786755359475,
                41.96436890584695
              ],
              [
                -71.78681245409452,
                41.96414766975063
              ],
              [
                -71.78708601832837,
                41.96396899608934
              ],
              [
                -71.78721358243679,
                41.96360072386621
              ],
              [
                -71.78745172606999,
                41.963270679420184
              ],
              [
                -71.78766540599813,
                41.963110126399805
              ],
              [
                -71.78784307152884,
                41.963354414236306
              ],
              [
                -71.78815938352076,
                41.963579528254634
              ],
              [
                -71.78852567800587,
                41.96370097485917
              ],
              [
                -71.78880318079557,
                41.96370968994102
              ],
              [
                -71.78920599321884,
                41.9635392453312
              ],
              [
                -71.78957062723255,
                41.96329359310414
              ],
              [
                -71.78982188110618,
                41.963076464421164
              ],
              [
                -71.79028718854417,
                41.9627834916515
              ],
              [
                -71.79053848074356,
                41.96257577410044
              ],
              [
                -71.79071380240562,
                41.96230235868863
              ],
              [
                -71.79034802462792,
                41.962293871497984
              ],
              [
                -71.79000721515345,
                41.96222884408929
              ],
              [
                -71.78956593911728,
                41.962258195447355
              ],
              [
                -71.78945196659647,
                41.96215494278919
              ],
              [
                -71.78960266554904,
                41.96201337053467
              ],
              [
                -71.78999238422156,
                41.96173941518555
              ],
              [
                -71.79044846575016,
                41.961309749144974
              ],
              [
                -71.79096950923405,
                41.961474856131154
              ],
              [
                -71.79138710419889,
                41.961773364937166
              ],
              [
                -71.79175757548776,
                41.961517236402436
              ],
              [
                -71.79255944163688,
                41.96132657943281
              ],
              [
                -71.79293112523297,
                41.96133672630664
              ],
              [
                -71.79346546175026,
                41.9611578398937
              ],
              [
                -71.79425066710614,
                41.96057888437508
              ],
              [
                -71.79485921698627,
                41.96037761110983
              ],
              [
                -71.79526072786663,
                41.96040986485852
              ],
              [
                -71.79603294231521,
                41.960241449078914
              ],
              [
                -71.79653850843651,
                41.960273430009615
              ],
              [
                -71.7967474431257,
                41.960450412021174
              ],
              [
                -71.79661417179831,
                41.96056170790233
              ],
              [
                -71.79642138704928,
                41.96066206178817
              ],
              [
                -71.7962437769502,
                41.960828946547196
              ],
              [
                -71.79637782069169,
                41.96088407633796
              ],
              [
                -71.79671982345957,
                41.960905383073325
              ],
              [
                -71.79704665152572,
                41.96086015770132
              ],
              [
                -71.79759676739079,
                41.96088092318422
              ],
              [
                -71.79810290815999,
                41.96103494181972
              ],
              [
                -71.79805155976037,
                41.96023012314353
              ],
              [
                -71.79836499858745,
                41.96028100973082
              ],
              [
                -71.79816775950638,
                41.94630040121024
              ],
              [
                -71.79383335019537,
                41.94636085094202
              ],
              [
                -71.7938182633766,
                41.945410064784895
              ],
              [
                -71.79356950856211,
                41.9454073627038
              ],
              [
                -71.79345378428347,
                41.94333034800395
              ],
              [
                -71.78655662455411,
                41.94349765329408
              ],
              [
                -71.78666850866722,
                41.948890608644334
              ],
              [
                -71.77796462073034,
                41.95204947089331
              ],
              [
                -71.77934624791547,
                41.95781468350557
              ],
              [
                -71.77655715853685,
                41.95743319620652
              ],
              [
                -71.77629983226005,
                41.963411178786394
              ],
              [
                -71.776989506603,
                41.96697341860107
              ]
            ]
          ],
          [
            [
              [
                -71.78679880786375,
                41.97266958343817
              ],
              [
                -71.78625778931132,
                41.97333956730655
              ],
              [
                -71.78621280432549,
                41.97861559490018
              ],
              [
                -71.78667278886147,
                41.979201611549044
              ],
              [
                -71.78726280710373,
                41.97971955593794
              ],
              [
                -71.78818882022243,
                41.98031057457428
              ],
              [
                -71.79043280826939,
                41.98130757769735
              ],
              [
                -71.79139680877161,
                41.98194257692876
              ],
              [
                -71.79425280959651,
                41.983313577912774
              ],
              [
                -71.79507180994999,
                41.98357357775716
              ],
              [
                -71.79660581051354,
                41.98387557731296
              ],
              [
                -71.79673380958685,
                41.98348457796199
              ],
              [
                -71.79727680987546,
                41.98358157741423
              ],
              [
                -71.79713981059268,
                41.98398057743583
              ],
              [
                -71.79738681097412,
                41.98399457785029
              ],
              [
                -71.79760481068706,
                41.983889577449716
              ],
              [
                -71.79767881004875,
                41.98376657742123
              ],
              [
                -71.79769781127091,
                41.9835115773492
              ],
              [
                -71.79774381043579,
                41.983516577238795
              ],
              [
                -71.79791581046818,
                41.98238757790312
              ],
              [
                -71.7978458097818,
                41.98220457719329
              ],
              [
                -71.79742681044685,
                41.98164657760737
              ],
              [
                -71.79737781038637,
                41.98145457755788
              ],
              [
                -71.79736881003346,
                41.981058577070264
              ],
              [
                -71.79733081043135,
                41.98087957692984
              ],
              [
                -71.79692981006643,
                41.980222577050974
              ],
              [
                -71.79685981092497,
                41.979900577060135
              ],
              [
                -71.79725980965019,
                41.97845357696269
              ],
              [
                -71.79727680985228,
                41.97826457675397
              ],
              [
                -71.79721583292827,
                41.977648617027576
              ],
              [
                -71.79695579121604,
                41.977124554221355
              ],
              [
                -71.79688478200217,
                41.9767565911173
              ],
              [
                -71.79688081784688,
                41.975816553035976
              ],
              [
                -71.79701381535189,
                41.974450558235446
              ],
              [
                -71.79699480340417,
                41.97352453700428
              ],
              [
                -71.79713381017272,
                41.97285957451782
              ],
              [
                -71.79760581559486,
                41.97127556863566
              ],
              [
                -71.79760780135528,
                41.97118354763961
              ],
              [
                -71.79745578728559,
                41.971113536027154
              ],
              [
                -71.79608778642043,
                41.97105155545023
              ],
              [
                -71.79504278024262,
                41.97109455113984
              ],
              [
                -71.79407882148563,
                41.970782559476106
              ],
              [
                -71.79368782496901,
                41.97069454705776
              ],
              [
                -71.7930538044438,
                41.97058554273206
              ],
              [
                -71.7921637895279,
                41.97049553869188
              ],
              [
                -71.79171082219422,
                41.97058853444111
              ],
              [
                -71.79142283674132,
                41.970560537653355
              ],
              [
                -71.79078379384015,
                41.970331561962915
              ],
              [
                -71.79061680296132,
                41.97032658200765
              ],
              [
                -71.78996278466806,
                41.97045558267459
              ],
              [
                -71.78931480720257,
                41.970510556639574
              ],
              [
                -71.78858781975616,
                41.97069161492693
              ],
              [
                -71.78830181934823,
                41.97072157664778
              ],
              [
                -71.78797479423703,
                41.97080257862956
              ],
              [
                -71.78775377899275,
                41.97096057910979
              ],
              [
                -71.78736481943501,
                41.971426604191855
              ],
              [
                -71.78726980316631,
                41.971609586239104
              ],
              [
                -71.78706679864788,
                41.972337555255095
              ],
              [
                -71.78679880786375,
                41.97266958343817
              ]
            ],
            [
              [
                -71.79392339208239,
                41.97848989604342
              ],
              [
                -71.79392280908765,
                41.97849057665536
              ],
              [
                -71.79060283377162,
                41.98096518810845
              ],
              [
                -71.79392339208239,
                41.97848989604342
              ]
            ],
            [
              [
                -71.79683291725479,
                41.97770659061923
              ],
              [
                -71.7963698099455,
                41.97771257658663
              ],
              [
                -71.79605780928793,
                41.97771757617744
              ],
              [
                -71.79524825970657,
                41.97772844297367
              ],
              [
                -71.79605781039442,
                41.97771755456705
              ],
              [
                -71.79606779558591,
                41.9774666093522
              ],
              [
                -71.7963698238565,
                41.977479550838964
              ],
              [
                -71.79636981222507,
                41.97771254777069
              ],
              [
                -71.79683291725479,
                41.97770659061923
              ]
            ]
          ]
        ]
      }
    }
  ],
  "bbox": [
    -71.799174691263,
    41.94333034800395,
    -71.762468561351,
    42.0095326018456
  ]
}
