{
  "$schema": "https://ripota.org/schemas/web/v1/display-geojson.schema.json",
  "type": "FeatureCollection",
  "properties": {
    "schemaVersion": 1,
    "geometryRole": "display",
    "geometryKind": "boundary",
    "potaReference": "US-7716",
    "potaName": "Carolina Wildlife Management Area",
    "sourceName": "Rhode Island DEM State Conservation Land",
    "sourceUrl": "https://risegis.ri.gov/hosting/rest/services/RIDEM/State_Conservation_Land/MapServer/0",
    "sourceQuery": "DEM_AREA = 'Carolina Management Area'",
    "sourceFeatureIds": [
      44,
      47,
      202,
      215,
      238,
      250,
      497,
      571,
      780
    ],
    "fidelity": "web",
    "detailedArtifact": "@ripota/parks/boundaries/us-7716.geojson"
  },
  "features": [
    {
      "type": "Feature",
      "properties": {
        "potaReference": "US-7716",
        "potaName": "Carolina Wildlife Management Area",
        "geometryKind": "boundary",
        "geometryRole": "display",
        "fidelity": "web"
      },
      "geometry": {
        "type": "MultiPolygon",
        "coordinates": [
          [
            [
              [
                -71.69098444445483,
                41.44071363835422
              ],
              [
                -71.69132126995285,
                41.437874778910995
              ],
              [
                -71.690071103464,
                41.43821308574328
              ],
              [
                -71.68934286706224,
                41.438497734310154
              ],
              [
                -71.68884193624365,
                41.438762280305134
              ],
              [
                -71.68837848979574,
                41.43906306145778
              ],
              [
                -71.68762322522171,
                41.43967205747162
              ],
              [
                -71.68876828166542,
                41.440362254974744
              ],
              [
                -71.68882577965081,
                41.44057086335407
              ],
              [
                -71.68884792427612,
                41.440850167886374
              ],
              [
                -71.68903812714078,
                41.44120625706833
              ],
              [
                -71.68902651313685,
                41.44134234993248
              ],
              [
                -71.69098444445483,
                41.44071363835422
              ]
            ]
          ],
          [
            [
              [
                -71.69098444445483,
                41.44071363835422
              ],
              [
                -71.68897051891734,
                41.441363418530045
              ],
              [
                -71.68525349261448,
                41.442742833436476
              ],
              [
                -71.6846658500345,
                41.44239034805609
              ],
              [
                -71.68443320417126,
                41.442778173012194
              ],
              [
                -71.6841436789037,
                41.44337930847785
              ],
              [
                -71.68375124184229,
                41.44394843451396
              ],
              [
                -71.6833752936013,
                41.444343686523034
              ],
              [
                -71.68401040986339,
                41.4447250808884
              ],
              [
                -71.68318200327467,
                41.445919987993705
              ],
              [
                -71.68208287889802,
                41.44592620337712
              ],
              [
                -71.68182006475895,
                41.445498877353806
              ],
              [
                -71.68150719259964,
                41.44561711207911
              ],
              [
                -71.68118892696673,
                41.445689697019326
              ],
              [
                -71.68112964621943,
                41.44605492732287
              ],
              [
                -71.68099597029666,
                41.446187898821165
              ],
              [
                -71.69002780642676,
                41.4464921295261
              ],
              [
                -71.68995528010335,
                41.44645102995129
              ],
              [
                -71.69007964703563,
                41.44623885085841
              ],
              [
                -71.69000326714423,
                41.44613850603789
              ],
              [
                -71.68977285866431,
                41.44621634765819
              ],
              [
                -71.69007332781011,
                41.44551732491212
              ],
              [
                -71.69002290908975,
                41.4452934952083
              ],
              [
                -71.69005136248676,
                41.44511647479923
              ],
              [
                -71.69032627508854,
                41.44503697428658
              ],
              [
                -71.690453767479,
                41.44485224993581
              ],
              [
                -71.69076707582799,
                41.44487176649925
              ],
              [
                -71.69090801048372,
                41.44474075696158
              ],
              [
                -71.69080389000581,
                41.44473382465046
              ],
              [
                -71.69092694871485,
                41.44461381789623
              ],
              [
                -71.69111908691114,
                41.44451460713392
              ],
              [
                -71.69112503456736,
                41.44446945304685
              ],
              [
                -71.69086114958326,
                41.444329100254265
              ],
              [
                -71.69091115981715,
                41.444045823758195
              ],
              [
                -71.69103307452835,
                41.44379208969704
              ],
              [
                -71.69062918146841,
                41.443343270501785
              ],
              [
                -71.69098444445483,
                41.44071363835422
              ]
            ]
          ],
          [
            [
              [
                -71.66612072865924,
                41.467889899167204
              ],
              [
                -71.66683797377983,
                41.467981593756484
              ],
              [
                -71.66660711910116,
                41.46748006499408
              ],
              [
                -71.6658595572714,
                41.46737346880625
              ],
              [
                -71.66612072865924,
                41.467889899167204
              ]
            ]
          ],
          [
            [
              [
                -71.69567775575563,
                41.50014297647862
              ],
              [
                -71.6956822112874,
                41.500317305158724
              ],
              [
                -71.69859199779034,
                41.50072599661497
              ],
              [
                -71.70121476211278,
                41.498552577018415
              ],
              [
                -71.69915686769636,
                41.49522899259486
              ],
              [
                -71.6983743032505,
                41.49383342596295
              ],
              [
                -71.69785637413405,
                41.49277223719145
              ],
              [
                -71.69027697578795,
                41.49529929527286
              ],
              [
                -71.69233326051734,
                41.497592669556155
              ],
              [
                -71.69419897914003,
                41.49983226857933
              ],
              [
                -71.6944307582776,
                41.49979346364301
              ],
              [
                -71.69472563609087,
                41.4998254679705
              ],
              [
                -71.69564492496912,
                41.49968207481678
              ],
              [
                -71.69567775575563,
                41.50014297647862
              ]
            ]
          ],
          [
            [
              [
                -71.68108534261667,
                41.467926414852116
              ],
              [
                -71.68432022194017,
                41.47405656419561
              ],
              [
                -71.68593462307851,
                41.47425099475438
              ],
              [
                -71.68599578658583,
                41.47436997933013
              ],
              [
                -71.68601077873818,
                41.474508477157265
              ],
              [
                -71.68617550931438,
                41.47471216707608
              ],
              [
                -71.68617054317686,
                41.4747840797027
              ],
              [
                -71.68605813824172,
                41.47489641648796
              ],
              [
                -71.68614724906107,
                41.47500664174509
              ],
              [
                -71.68615267912412,
                41.475065478224444
              ],
              [
                -71.6860880537921,
                41.475179726671044
              ],
              [
                -71.68610725376153,
                41.475238014142704
              ],
              [
                -71.6860651515886,
                41.47538081454623
              ],
              [
                -71.686101303633,
                41.47557076174613
              ],
              [
                -71.68605494652154,
                41.47574670712808
              ],
              [
                -71.68606295100149,
                41.47581322250317
              ],
              [
                -71.68623037709645,
                41.47596988575329
              ],
              [
                -71.68616908443768,
                41.476043673224765
              ],
              [
                -71.68617354485485,
                41.47616233704662
              ],
              [
                -71.68603317665197,
                41.476503420026404
              ],
              [
                -71.68619197483748,
                41.47683162142157
              ],
              [
                -71.68612012228394,
                41.47693952566924
              ],
              [
                -71.68590142862877,
                41.476977432053346
              ],
              [
                -71.68584363563247,
                41.477122133211715
              ],
              [
                -71.68567452260511,
                41.477163342727586
              ],
              [
                -71.6855808791398,
                41.47725579773132
              ],
              [
                -71.68541667990621,
                41.47722923529333
              ],
              [
                -71.68536701286568,
                41.47727992738611
              ],
              [
                -71.68542650338497,
                41.47740021956767
              ],
              [
                -71.6852881048355,
                41.47742166577297
              ],
              [
                -71.68525707489407,
                41.47746006893107
              ],
              [
                -71.6853420801945,
                41.477644287637936
              ],
              [
                -71.68529266597915,
                41.47783684173921
              ],
              [
                -71.68529964170045,
                41.47832124055942
              ],
              [
                -71.68523070690436,
                41.4784201517943
              ],
              [
                -71.68507788356321,
                41.47842762345083
              ],
              [
                -71.68487349949392,
                41.478536951990584
              ],
              [
                -71.68472831855253,
                41.47852648045873
              ],
              [
                -71.68466777054381,
                41.478568796242655
              ],
              [
                -71.68456349521708,
                41.478741356584386
              ],
              [
                -71.68408459397699,
                41.478912880066545
              ],
              [
                -71.68112942490617,
                41.477838349638375
              ],
              [
                -71.67205438407267,
                41.47441462925691
              ],
              [
                -71.66793727944128,
                41.47281625927389
              ],
              [
                -71.66683352894255,
                41.48130617554655
              ],
              [
                -71.66178071168423,
                41.48132649312014
              ],
              [
                -71.66098432857025,
                41.48300308752082
              ],
              [
                -71.66069598704713,
                41.48373555713118
              ],
              [
                -71.66064529863945,
                41.484110678543615
              ],
              [
                -71.66065144576432,
                41.48523136739107
              ],
              [
                -71.66293645541413,
                41.48620808753346
              ],
              [
                -71.66566857868241,
                41.48716966496517
              ],
              [
                -71.66567700108753,
                41.48788445457024
              ],
              [
                -71.66551053873293,
                41.488621831902485
              ],
              [
                -71.66609179754371,
                41.48874509148253
              ],
              [
                -71.6657110658799,
                41.489594467343075
              ],
              [
                -71.66559216534621,
                41.4895673377946
              ],
              [
                -71.6649751953112,
                41.4909069074007
              ],
              [
                -71.66576754624171,
                41.49226833287214
              ],
              [
                -71.66622447648486,
                41.492012733820005
              ],
              [
                -71.66678743772096,
                41.49148379407022
              ],
              [
                -71.66780480701237,
                41.48986829605799
              ],
              [
                -71.66945636655353,
                41.48737195209908
              ],
              [
                -71.6696137615492,
                41.487254206288796
              ],
              [
                -71.66980671274341,
                41.48719022603246
              ],
              [
                -71.67062099649291,
                41.48719008167817
              ],
              [
                -71.67084727582241,
                41.484938190686684
              ],
              [
                -71.67320973860815,
                41.481767099874055
              ],
              [
                -71.67636891327632,
                41.48023479264048
              ],
              [
                -71.6772655888202,
                41.48140346648931
              ],
              [
                -71.67705778374891,
                41.48208399404794
              ],
              [
                -71.67714287524743,
                41.48253433154015
              ],
              [
                -71.67835994454221,
                41.48291084274508
              ],
              [
                -71.67808687156133,
                41.48602397249707
              ],
              [
                -71.67840014690431,
                41.485812525043315
              ],
              [
                -71.67877388385608,
                41.4856166342977
              ],
              [
                -71.67912563533524,
                41.4852619878201
              ],
              [
                -71.67927269764711,
                41.484907301999414
              ],
              [
                -71.67949976725814,
                41.48456599883382
              ],
              [
                -71.67952366048908,
                41.48430812505455
              ],
              [
                -71.67986798861655,
                41.483847657434936
              ],
              [
                -71.68014132202745,
                41.48365842718935
              ],
              [
                -71.68002054107234,
                41.483368476356034
              ],
              [
                -71.68428076971375,
                41.48465402231349
              ],
              [
                -71.6837025553439,
                41.48559302766417
              ],
              [
                -71.69023033714866,
                41.48805004663867
              ],
              [
                -71.68994107063868,
                41.490292822251604
              ],
              [
                -71.69042366119842,
                41.490455766856364
              ],
              [
                -71.69126904934492,
                41.490203059385045
              ],
              [
                -71.69246316091233,
                41.49000761017786
              ],
              [
                -71.69682680427584,
                41.48899248906044
              ],
              [
                -71.69987374767827,
                41.488373893924155
              ],
              [
                -71.70034238693142,
                41.48831231294534
              ],
              [
                -71.70075611935299,
                41.48819589028097
              ],
              [
                -71.70219929688733,
                41.48789775998832
              ],
              [
                -71.70386024858819,
                41.48761406787293
              ],
              [
                -71.7049793215155,
                41.48730206678242
              ],
              [
                -71.70587171773117,
                41.48711254581917
              ],
              [
                -71.70643182038067,
                41.48704853520477
              ],
              [
                -71.7069780866681,
                41.48694119737693
              ],
              [
                -71.70715448620652,
                41.48693879540724
              ],
              [
                -71.70866925316062,
                41.48726845331997
              ],
              [
                -71.70895457405877,
                41.48735503928241
              ],
              [
                -71.70846331487017,
                41.485845806232
              ],
              [
                -71.70831771596627,
                41.48499410064579
              ],
              [
                -71.70832258876025,
                41.48442419823283
              ],
              [
                -71.70852135672477,
                41.48292670190808
              ],
              [
                -71.70845883836543,
                41.481092343692666
              ],
              [
                -71.7083705349601,
                41.480637464778596
              ],
              [
                -71.70820512282899,
                41.48028877278167
              ],
              [
                -71.70802381551448,
                41.48006836039859
              ],
              [
                -71.70713957102535,
                41.479371080727034
              ],
              [
                -71.70695071657676,
                41.479185400277515
              ],
              [
                -71.70682659967153,
                41.47899995337832
              ],
              [
                -71.70477434371699,
                41.47328030971993
              ],
              [
                -71.70439266095076,
                41.472518226587766
              ],
              [
                -71.70364404090873,
                41.47040223299902
              ],
              [
                -71.69897741460986,
                41.47012833145202
              ],
              [
                -71.69621509928277,
                41.465657410398116
              ],
              [
                -71.69581979798375,
                41.46487926060541
              ],
              [
                -71.6953649437449,
                41.46420738248539
              ],
              [
                -71.69455475080065,
                41.46457678163064
              ],
              [
                -71.69196568462543,
                41.4664220390683
              ],
              [
                -71.69183688007723,
                41.46648507544618
              ],
              [
                -71.69173681430243,
                41.46637387865581
              ],
              [
                -71.69181387852764,
                41.46444809182892
              ],
              [
                -71.69202025807333,
                41.46125577208284
              ],
              [
                -71.68895021019648,
                41.46128141724791
              ],
              [
                -71.68921341655715,
                41.46075878799322
              ],
              [
                -71.6892166304621,
                41.460609762585264
              ],
              [
                -71.68955392365046,
                41.46029936193278
              ],
              [
                -71.6896126936722,
                41.46011214286131
              ],
              [
                -71.68982154729055,
                41.45990063830634
              ],
              [
                -71.68987466338054,
                41.459776296812414
              ],
              [
                -71.68984119929783,
                41.45971746250144
              ],
              [
                -71.68942205155562,
                41.45964503764675
              ],
              [
                -71.68936514130299,
                41.45961167080355
              ],
              [
                -71.68931929688584,
                41.45950100827606
              ],
              [
                -71.68944124738458,
                41.45935739052499
              ],
              [
                -71.68949632767493,
                41.45905164032822
              ],
              [
                -71.6895971484812,
                41.45893493945196
              ],
              [
                -71.68936163941935,
                41.45883944411754
              ],
              [
                -71.68928293908952,
                41.45872789922786
              ],
              [
                -71.689239823546,
                41.45831761070608
              ],
              [
                -71.68937209032012,
                41.458157897641115
              ],
              [
                -71.68939050410577,
                41.458092321134096
              ],
              [
                -71.68925056528512,
                41.457819275572035
              ],
              [
                -71.68934922585225,
                41.45766567837427
              ],
              [
                -71.68933488123797,
                41.45760479823324
              ],
              [
                -71.68919470860311,
                41.45759680733056
              ],
              [
                -71.68915056973992,
                41.457565467766194
              ],
              [
                -71.68915307995151,
                41.45735220010742
              ],
              [
                -71.68934171990199,
                41.457196029246084
              ],
              [
                -71.68937008976951,
                41.45713521655186
              ],
              [
                -71.68933272975677,
                41.45689587327176
              ],
              [
                -71.68952769057276,
                41.45675064772247
              ],
              [
                -71.68965359690856,
                41.4563283943637
              ],
              [
                -71.68965670211011,
                41.456215593788095
              ],
              [
                -71.69010997483855,
                41.45580734742605
              ],
              [
                -71.69017764831064,
                41.45560896448871
              ],
              [
                -71.6901399818495,
                41.4553658033297
              ],
              [
                -71.69001974255166,
                41.455183099793175
              ],
              [
                -71.69004914144922,
                41.4549927396391
              ],
              [
                -71.69010560613486,
                41.454885840302914
              ],
              [
                -71.6900402766861,
                41.45474146057282
              ],
              [
                -71.69007403155811,
                41.45470598857285
              ],
              [
                -71.69024499592867,
                41.45466596872404
              ],
              [
                -71.69036967551561,
                41.45449676956999
              ],
              [
                -71.69034137829932,
                41.454383168226265
              ],
              [
                -71.69037336417507,
                41.454324454402034
              ],
              [
                -71.69049528305796,
                41.45427884553038
              ],
              [
                -71.69045047476216,
                41.45408191724963
              ],
              [
                -71.69027182717778,
                41.45371031536852
              ],
              [
                -71.6898969751176,
                41.453544498968334
              ],
              [
                -71.68978719607324,
                41.4532684777569
              ],
              [
                -71.68963557282632,
                41.45322991616144
              ],
              [
                -71.68958939040706,
                41.45318467886945
              ],
              [
                -71.68958925751012,
                41.45294749723054
              ],
              [
                -71.68954124780352,
                41.45290225752597
              ],
              [
                -71.68938406839104,
                41.452906754566115
              ],
              [
                -71.6893324147422,
                41.452863620500324
              ],
              [
                -71.6892692272305,
                41.452728127281745
              ],
              [
                -71.68939338850869,
                41.452589739792685
              ],
              [
                -71.6893780604213,
                41.45252117632685
              ],
              [
                -71.68925751865402,
                41.45242455672953
              ],
              [
                -71.68922548827993,
                41.45223200982839
              ],
              [
                -71.68937730654739,
                41.451845946728696
              ],
              [
                -71.68919149361845,
                41.45184032244528
              ],
              [
                -71.68923363186164,
                41.449580935614534
              ],
              [
                -71.68122411716936,
                41.44942546292451
              ],
              [
                -71.68097054382406,
                41.44647878023924
              ],
              [
                -71.68064706015313,
                41.44656284115944
              ],
              [
                -71.68033049988617,
                41.44675935011974
              ],
              [
                -71.68000981753053,
                41.446784851024155
              ],
              [
                -71.67976795497275,
                41.446871549549385
              ],
              [
                -71.67915645372149,
                41.44746221059398
              ],
              [
                -71.67883347354251,
                41.44764989159518
              ],
              [
                -71.67875230572251,
                41.44776884244637
              ],
              [
                -71.67758727026542,
                41.44823732697973
              ],
              [
                -71.6769891418662,
                41.44893575953606
              ],
              [
                -71.6765981774968,
                41.44990853036348
              ],
              [
                -71.67680287255271,
                41.45044415007933
              ],
              [
                -71.6768253873548,
                41.45101100793958
              ],
              [
                -71.67661674996987,
                41.45137616523823
              ],
              [
                -71.67656359853788,
                41.451575517515266
              ],
              [
                -71.67664333976899,
                41.45218611252064
              ],
              [
                -71.67654527701556,
                41.452512593359515
              ],
              [
                -71.67647764423866,
                41.45266728463846
              ],
              [
                -71.6759774085677,
                41.453039188626065
              ],
              [
                -71.6756764876923,
                41.453217350164365
              ],
              [
                -71.67535852606386,
                41.45349100335685
              ],
              [
                -71.67522088283476,
                41.45401118554258
              ],
              [
                -71.67487784482589,
                41.45464060913348
              ],
              [
                -71.6746081470207,
                41.45528634088729
              ],
              [
                -71.67454365796776,
                41.45581019361306
              ],
              [
                -71.6745547572903,
                41.45608015820925
              ],
              [
                -71.67448583204626,
                41.45635191713821
              ],
              [
                -71.67438189353801,
                41.4565344934266
              ],
              [
                -71.67434406797089,
                41.456670442310745
              ],
              [
                -71.67437090068785,
                41.45681392585571
              ],
              [
                -71.67466412200616,
                41.45728444905654
              ],
              [
                -71.67481551308103,
                41.45745205671421
              ],
              [
                -71.67484942151151,
                41.45764038265422
              ],
              [
                -71.67480452075394,
                41.457731489138546
              ],
              [
                -71.6745921566164,
                41.45782649379612
              ],
              [
                -71.67435511353756,
                41.458156269866514
              ],
              [
                -71.67417080051302,
                41.45829565680677
              ],
              [
                -71.6737870681612,
                41.45868285680135
              ],
              [
                -71.67353583269289,
                41.45899489765196
              ],
              [
                -71.67340157033645,
                41.45922318774192
              ],
              [
                -71.67310840638096,
                41.45937410089315
              ],
              [
                -71.67271770314352,
                41.459716452678556
              ],
              [
                -71.6726865291163,
                41.45987027193601
              ],
              [
                -71.67269846511479,
                41.46015820358345
              ],
              [
                -71.67227832254129,
                41.461146934201864
              ],
              [
                -71.67148601976035,
                41.46350456873698
              ],
              [
                -71.6707769101273,
                41.463394543588834
              ],
              [
                -71.67068906403149,
                41.46368348324249
              ],
              [
                -71.67159510585415,
                41.46384386441006
              ],
              [
                -71.67170682913513,
                41.46393686978484
              ],
              [
                -71.67172575309341,
                41.46406728191603
              ],
              [
                -71.67160833988295,
                41.46416528786963
              ],
              [
                -71.6720466404061,
                41.464040148908005
              ],
              [
                -71.67287463467983,
                41.463221600872366
              ],
              [
                -71.67359561023778,
                41.461047035723915
              ],
              [
                -71.67634210670053,
                41.460838703235005
              ],
              [
                -71.67817405833462,
                41.46116912159519
              ],
              [
                -71.67879512862879,
                41.46148658856195
              ],
              [
                -71.6794494739796,
                41.461471686448625
              ],
              [
                -71.68051533158157,
                41.46173166409128
              ],
              [
                -71.67720231877995,
                41.46965353170839
              ],
              [
                -71.67749491741105,
                41.46957287789089
              ],
              [
                -71.68108534261667,
                41.467926414852116
              ]
            ]
          ]
        ]
      }
    }
  ],
  "bbox": [
    -71.70895457405877,
    41.437874778910995,
    -71.66064529863945,
    41.50072599661497
  ]
}
