{
  "$schema": "https://ripota.org/schemas/web/v1/display-geojson.schema.json",
  "type": "FeatureCollection",
  "properties": {
    "schemaVersion": 1,
    "geometryRole": "display",
    "geometryKind": "boundary",
    "potaReference": "US-7722",
    "potaName": "Scarborough North State Beach",
    "sourceName": "Rhode Island DEM State Conservation Land",
    "sourceUrl": "https://risegis.ri.gov/hosting/rest/services/RIDEM/State_Conservation_Land/MapServer/0",
    "sourceQuery": "DEM_AREA = 'Scarborough Beach State Park'",
    "sourceFeatureIds": [
      138,
      239,
      240,
      550,
      901
    ],
    "fidelity": "web",
    "detailedArtifact": "@ripota/parks/boundaries/us-7722.geojson"
  },
  "features": [
    {
      "type": "Feature",
      "properties": {
        "potaReference": "US-7722",
        "potaName": "Scarborough North State Beach",
        "geometryKind": "boundary",
        "geometryRole": "display",
        "fidelity": "web"
      },
      "geometry": {
        "type": "MultiPolygon",
        "coordinates": [
          [
            [
              [
                -71.47512821907874,
                41.38563676843955
              ],
              [
                -71.47487021109168,
                41.386124214449175
              ],
              [
                -71.47419671523132,
                41.38703033491156
              ],
              [
                -71.47335943363987,
                41.387912349171955
              ],
              [
                -71.47247919724947,
                41.38858945000329
              ],
              [
                -71.47211289709384,
                41.38898462759968
              ],
              [
                -71.47155660717347,
                41.3896900739078
              ],
              [
                -71.47064226690885,
                41.39061041169987
              ],
              [
                -71.47040769678271,
                41.39102976169794
              ],
              [
                -71.47009926546572,
                41.391460113913816
              ],
              [
                -71.47003571491369,
                41.39182583228269
              ],
              [
                -71.46950208390734,
                41.39293680975592
              ],
              [
                -71.46897007631506,
                41.39370858433142
              ],
              [
                -71.46864971636964,
                41.39402832587995
              ],
              [
                -71.46780299624714,
                41.394686531296024
              ],
              [
                -71.4675604429162,
                41.39483611539757
              ],
              [
                -71.46722142462377,
                41.39492637701838
              ],
              [
                -71.46728162079766,
                41.3957220940317
              ],
              [
                -71.46830901943069,
                41.39565160503236
              ],
              [
                -71.46843126745361,
                41.39556649251573
              ],
              [
                -71.46869369822076,
                41.3952926350831
              ],
              [
                -71.47016215460822,
                41.393020666684095
              ],
              [
                -71.47087566922363,
                41.39177505061633
              ],
              [
                -71.47112944061398,
                41.39153610217398
              ],
              [
                -71.47472956670727,
                41.38954403432293
              ],
              [
                -71.47524346956628,
                41.38921392127634
              ],
              [
                -71.47548118741716,
                41.389004135605866
              ],
              [
                -71.47568322808408,
                41.388770328912436
              ],
              [
                -71.47738651635696,
                41.38633719864531
              ],
              [
                -71.47766358470534,
                41.38578163208039
              ],
              [
                -71.47771201913571,
                41.38580051043845
              ],
              [
                -71.47810118788642,
                41.384973358758295
              ],
              [
                -71.47575979308232,
                41.38446684244379
              ],
              [
                -71.47557891323939,
                41.384747667897045
              ],
              [
                -71.47512821907874,
                41.38563676843955
              ]
            ],
            [
              [
                -71.47500367446523,
                41.38911489025669
              ],
              [
                -71.47469279570076,
                41.38877404656202
              ],
              [
                -71.47514818799324,
                41.38854942367195
              ],
              [
                -71.47546683626409,
                41.38888969694736
              ],
              [
                -71.47500367446523,
                41.38911489025669
              ]
            ]
          ],
          [
            [
              [
                -71.47512885787046,
                41.38965528841195
              ],
              [
                -71.47137406710738,
                41.39171364629371
              ],
              [
                -71.4712857588112,
                41.39181490757867
              ],
              [
                -71.4713039243518,
                41.3919246349161
              ],
              [
                -71.47140196345006,
                41.39199745639787
              ],
              [
                -71.47350878766724,
                41.39274070437248
              ],
              [
                -71.47522612679377,
                41.38990410299127
              ],
              [
                -71.47515188812831,
                41.38986927090177
              ],
              [
                -71.47536777347351,
                41.38950849581416
              ],
              [
                -71.47512885787046,
                41.38965528841195
              ]
            ]
          ]
        ]
      }
    }
  ],
  "bbox": [
    -71.47810118788642,
    41.38446684244379,
    -71.46722142462377,
    41.3957220940317
  ]
}
