{
  "$schema": "https://ripota.org/schemas/web/v1/display-geojson.schema.json",
  "type": "FeatureCollection",
  "properties": {
    "schemaVersion": 1,
    "geometryRole": "display",
    "geometryKind": "boundary",
    "potaReference": "US-7723",
    "potaName": "John H. Chaffee Rome Point State Nature Preserve",
    "sourceName": "Rhode Island DEM State Conservation Land",
    "sourceUrl": "https://risegis.ri.gov/hosting/rest/services/RIDEM/State_Conservation_Land/MapServer/0",
    "sourceQuery": "DEM_AREA = 'John H. Chafee Rome Point Preserve'",
    "sourceFeatureIds": [
      647
    ],
    "fidelity": "web",
    "detailedArtifact": "@ripota/parks/boundaries/us-7723.geojson"
  },
  "features": [
    {
      "type": "Feature",
      "properties": {
        "potaReference": "US-7723",
        "potaName": "John H. Chaffee Rome Point State Nature Preserve",
        "geometryKind": "boundary",
        "geometryRole": "display",
        "fidelity": "web"
      },
      "geometry": {
        "type": "MultiPolygon",
        "coordinates": [
          [
            [
              [
                -71.42508462100962,
                41.54556590428295
              ],
              [
                -71.4247856437209,
                41.546256694136055
              ],
              [
                -71.42448040784909,
                41.546722476787814
              ],
              [
                -71.42425392594511,
                41.54700645914699
              ],
              [
                -71.4235659897547,
                41.547687464545646
              ],
              [
                -71.42330323237061,
                41.5480352679467
              ],
              [
                -71.4232767845479,
                41.54819793965816
              ],
              [
                -71.42330275782255,
                41.54834147987455
              ],
              [
                -71.42354720179053,
                41.548651581558424
              ],
              [
                -71.42373680554479,
                41.548827695449035
              ],
              [
                -71.42389647297642,
                41.548770298253245
              ],
              [
                -71.42462303462074,
                41.54816049433066
              ],
              [
                -71.42506813837686,
                41.54778184989964
              ],
              [
                -71.42538819257355,
                41.54743283350651
              ],
              [
                -71.42555139403392,
                41.547177242993776
              ],
              [
                -71.4256139422996,
                41.546986763233264
              ],
              [
                -71.42563115869714,
                41.546806288899695
              ],
              [
                -71.425606997213,
                41.54667166954099
              ],
              [
                -71.42552255924146,
                41.54653838243702
              ],
              [
                -71.42549917442182,
                41.54642177662569
              ],
              [
                -71.42540899849446,
                41.54631558816094
              ],
              [
                -71.42548860764465,
                41.545980697074114
              ],
              [
                -71.42564657769239,
                41.54580623203987
              ],
              [
                -71.42606535704542,
                41.545563196764434
              ],
              [
                -71.42681434209106,
                41.545367280560086
              ],
              [
                -71.42854456453367,
                41.5455288287299
              ],
              [
                -71.4287787597357,
                41.54547884604642
              ],
              [
                -71.42916835516196,
                41.545290495895756
              ],
              [
                -71.42977877752998,
                41.54506141555372
              ],
              [
                -71.43002764661439,
                41.54505616314433
              ],
              [
                -71.43017395742515,
                41.54508909987494
              ],
              [
                -71.43053942662398,
                41.54504532574722
              ],
              [
                -71.43085535445813,
                41.54477746827614
              ],
              [
                -71.43115097125451,
                41.544609080277624
              ],
              [
                -71.43203760580262,
                41.544626331401076
              ],
              [
                -71.43225635394737,
                41.54460368975949
              ],
              [
                -71.43242274852176,
                41.544537107930026
              ],
              [
                -71.43260893526805,
                41.54428055555886
              ],
              [
                -71.43274224247298,
                41.544200925313895
              ],
              [
                -71.43289929173578,
                41.544146342142845
              ],
              [
                -71.43354356444145,
                41.54413917734199
              ],
              [
                -71.43367642960919,
                41.544190480487416
              ],
              [
                -71.43359411606342,
                41.544321070587394
              ],
              [
                -71.43355810328929,
                41.5444891802698
              ],
              [
                -71.43326546416706,
                41.54470553063208
              ],
              [
                -71.43321816285479,
                41.54485737721567
              ],
              [
                -71.43333829986044,
                41.54503135514722
              ],
              [
                -71.43972415449461,
                41.54053512144994
              ],
              [
                -71.43813358621674,
                41.538179343165666
              ],
              [
                -71.43727888227312,
                41.538652190900606
              ],
              [
                -71.43757833509638,
                41.53910546525331
              ],
              [
                -71.43759889928768,
                41.53920287462951
              ],
              [
                -71.43755273297774,
                41.53932322020003
              ],
              [
                -71.43734086552459,
                41.53945238129251
              ],
              [
                -71.43710034681665,
                41.539517562098716
              ],
              [
                -71.43654696112897,
                41.53974917647536
              ],
              [
                -71.43611454556694,
                41.53914548937038
              ],
              [
                -71.43801852326244,
                41.53802382075658
              ],
              [
                -71.43753862635558,
                41.537333159444145
              ],
              [
                -71.43700706624435,
                41.53673477344091
              ],
              [
                -71.436267136488,
                41.536097304566255
              ],
              [
                -71.43440442983163,
                41.53491930599362
              ],
              [
                -71.42391806958608,
                41.540226033614125
              ],
              [
                -71.42408354977344,
                41.54069823436203
              ],
              [
                -71.42467099065168,
                41.54123906468009
              ],
              [
                -71.42566704812245,
                41.54264905185911
              ],
              [
                -71.42601473453665,
                41.54331519923674
              ],
              [
                -71.42617262953642,
                41.54378666703896
              ],
              [
                -71.42616854507067,
                41.543966892470834
              ],
              [
                -71.42601097115102,
                41.544402504975714
              ],
              [
                -71.42571932847544,
                41.54477795350355
              ],
              [
                -71.4255536341065,
                41.54492552730933
              ],
              [
                -71.42526887754155,
                41.54526478819338
              ],
              [
                -71.42508462100962,
                41.54556590428295
              ]
            ]
          ],
          [
            [
              [
                -71.43081627402532,
                41.55019670564491
              ],
              [
                -71.43074553101772,
                41.550094155362515
              ],
              [
                -71.43079825587999,
                41.55010312610468
              ],
              [
                -71.43079547039906,
                41.55005587773172
              ],
              [
                -71.43085758175442,
                41.550022895347304
              ],
              [
                -71.43070528216536,
                41.549553262930516
              ],
              [
                -71.43064429089948,
                41.549462654828694
              ],
              [
                -71.43091236920797,
                41.54938013401522
              ],
              [
                -71.4309909626449,
                41.549404684230325
              ],
              [
                -71.43110163320031,
                41.54950423031415
              ],
              [
                -71.43114857366243,
                41.54947443233783
              ],
              [
                -71.4311425933983,
                41.54931341414908
              ],
              [
                -71.43118801289835,
                41.54916248940494
              ],
              [
                -71.43130585310236,
                41.54898473688699
              ],
              [
                -71.43132350005877,
                41.54885298085226
              ],
              [
                -71.43131051372112,
                41.54877809903135
              ],
              [
                -71.43125222543635,
                41.54872111856522
              ],
              [
                -71.43098206026944,
                41.54854077655347
              ],
              [
                -71.4308749102318,
                41.54841561384989
              ],
              [
                -71.43088608972685,
                41.54824067970341
              ],
              [
                -71.43097256967431,
                41.54800925210433
              ],
              [
                -71.4307288348732,
                41.54736420686489
              ],
              [
                -71.43059509977105,
                41.54730993935585
              ],
              [
                -71.43006336756453,
                41.54736325125344
              ],
              [
                -71.42891692766732,
                41.54735837775945
              ],
              [
                -71.42878610663188,
                41.547395782484735
              ],
              [
                -71.42870808796602,
                41.54758526574815
              ],
              [
                -71.42863908840337,
                41.54757592739441
              ],
              [
                -71.42837458416473,
                41.5473834806821
              ],
              [
                -71.42781791714206,
                41.54713426124484
              ],
              [
                -71.42782061486623,
                41.54706653159341
              ],
              [
                -71.42820650981231,
                41.54681185928506
              ],
              [
                -71.42820841035243,
                41.54675256481601
              ],
              [
                -71.42813628768361,
                41.54673194780669
              ],
              [
                -71.42804839735417,
                41.54675120427559
              ],
              [
                -71.42787656055326,
                41.54684072170786
              ],
              [
                -71.42768804555418,
                41.54698522291764
              ],
              [
                -71.4276141414916,
                41.54711959917044
              ],
              [
                -71.42729167727896,
                41.54695944622603
              ],
              [
                -71.4269629884403,
                41.546733129141124
              ],
              [
                -71.42675439373676,
                41.54646042156786
              ],
              [
                -71.42657288366658,
                41.54628205058194
              ],
              [
                -71.42623116625228,
                41.54616174322873
              ],
              [
                -71.42609311069353,
                41.54614856391058
              ],
              [
                -71.42595783790833,
                41.546191277529616
              ],
              [
                -71.42595742908416,
                41.54629329612781
              ],
              [
                -71.42606333889215,
                41.54650363984357
              ],
              [
                -71.42647522857499,
                41.54671651868503
              ],
              [
                -71.42688232118269,
                41.54703972868432
              ],
              [
                -71.42736209219962,
                41.54727010950591
              ],
              [
                -71.42754334562797,
                41.54731132545187
              ],
              [
                -71.4280358283605,
                41.54752837948417
              ],
              [
                -71.42860908694063,
                41.547858746195466
              ],
              [
                -71.429065032483,
                41.54848791454747
              ],
              [
                -71.42966782636641,
                41.54902761071837
              ],
              [
                -71.43006237903231,
                41.54958070908182
              ],
              [
                -71.4302658881306,
                41.549582320100754
              ],
              [
                -71.43036788223888,
                41.54964750570992
              ],
              [
                -71.43041708769907,
                41.549763738028545
              ],
              [
                -71.43056497533131,
                41.549862150143554
              ],
              [
                -71.43066039912436,
                41.55004324412905
              ],
              [
                -71.43081627402532,
                41.55019670564491
              ]
            ]
          ]
        ]
      }
    }
  ],
  "bbox": [
    -71.43972415449461,
    41.53491930599362,
    -71.4232767845479,
    41.55019670564491
  ]
}
