{
  "$schema": "https://ripota.org/schemas/web/v1/display-geojson.schema.json",
  "type": "FeatureCollection",
  "properties": {
    "schemaVersion": 1,
    "geometryRole": "display",
    "geometryKind": "boundary",
    "potaReference": "US-7721",
    "potaName": "Salty Brine State Beach",
    "sourceName": "Rhode Island DEM State Conservation Land",
    "sourceUrl": "https://risegis.ri.gov/hosting/rest/services/RIDEM/State_Conservation_Land/MapServer/0",
    "sourceQuery": "DEM_AREA = 'Salty Brine Beach State Park'",
    "sourceFeatureIds": [
      684
    ],
    "fidelity": "web",
    "detailedArtifact": "@ripota/parks/boundaries/us-7721.geojson"
  },
  "features": [
    {
      "type": "Feature",
      "properties": {
        "potaReference": "US-7721",
        "potaName": "Salty Brine State Beach",
        "geometryKind": "boundary",
        "geometryRole": "display",
        "fidelity": "web"
      },
      "geometry": {
        "type": "Polygon",
        "coordinates": [
          [
            [
              -71.5130794667337,
              41.37707882083898
            ],
            [
              -71.51316619169249,
              41.37709842818478
            ],
            [
              -71.51320837305973,
              41.375781646168846
            ],
            [
              -71.51319948397649,
              41.37517770045759
            ],
            [
              -71.51269587218256,
              41.37531746843123
            ],
            [
              -71.51266827558416,
              41.37548935713595
            ],
            [
              -71.51263722653388,
              41.37678482058579
            ],
            [
              -71.51293681745842,
              41.37700730747761
            ],
            [
              -71.5130794667337,
              41.37707882083898
            ]
          ]
        ]
      }
    }
  ],
  "bbox": [
    -71.51320837305973,
    41.37517770045759,
    -71.51263722653388,
    41.37709842818478
  ]
}
