{
  "$schema": "https://ripota.org/schemas/web/v1/display-geojson.schema.json",
  "type": "FeatureCollection",
  "properties": {
    "schemaVersion": 1,
    "geometryRole": "display",
    "geometryKind": "boundary",
    "potaReference": "US-8293",
    "potaName": "Sapowet Marsh State Wildlife Area",
    "sourceName": "Rhode Island DEM State Conservation Land",
    "sourceUrl": "https://risegis.ri.gov/hosting/rest/services/RIDEM/State_Conservation_Land/MapServer/0",
    "sourceQuery": "DEM_AREA = 'Seapowet Marsh Management Area'",
    "sourceFeatureIds": [
      151,
      152,
      154,
      157,
      545
    ],
    "fidelity": "web",
    "detailedArtifact": "@ripota/parks/boundaries/us-8293.geojson"
  },
  "features": [
    {
      "type": "Feature",
      "properties": {
        "potaReference": "US-8293",
        "potaName": "Sapowet Marsh State Wildlife Area",
        "geometryKind": "boundary",
        "geometryRole": "display",
        "fidelity": "web"
      },
      "geometry": {
        "type": "MultiPolygon",
        "coordinates": [
          [
            [
              [
                -71.20340189895678,
                41.57863281843116
              ],
              [
                -71.20348930787814,
                41.57850477885003
              ],
              [
                -71.20389309607039,
                41.578490190682054
              ],
              [
                -71.2040790316507,
                41.578697780418324
              ],
              [
                -71.20436875863098,
                41.57874309348134
              ],
              [
                -71.20470224467498,
                41.57890994126091
              ],
              [
                -71.20482034185258,
                41.5790570572881
              ],
              [
                -71.20482701870318,
                41.57912523747405
              ],
              [
                -71.2047439089493,
                41.579349175650975
              ],
              [
                -71.20486679126137,
                41.579645166835526
              ],
              [
                -71.20519072738385,
                41.57985048698027
              ],
              [
                -71.20542254907113,
                41.579955948042
              ],
              [
                -71.20581127710962,
                41.580292063589184
              ],
              [
                -71.20601116186938,
                41.580507550625356
              ],
              [
                -71.20645282943536,
                41.58055849061795
              ],
              [
                -71.20696081360494,
                41.58084650239747
              ],
              [
                -71.2072294798877,
                41.580916660788155
              ],
              [
                -71.20744602568698,
                41.580925076764295
              ],
              [
                -71.20761343497892,
                41.580984489885196
              ],
              [
                -71.20781006047538,
                41.581150153942005
              ],
              [
                -71.20779361279838,
                41.581311344408874
              ],
              [
                -71.20782940032072,
                41.581509370570686
              ],
              [
                -71.2079604103528,
                41.581561390428135
              ],
              [
                -71.2080832174766,
                41.58147671932935
              ],
              [
                -71.20821635895472,
                41.58147590840073
              ],
              [
                -71.2084013625594,
                41.58160215136059
              ],
              [
                -71.2086192522689,
                41.581812863368626
              ],
              [
                -71.20874006912551,
                41.58183637668941
              ],
              [
                -71.20781530572536,
                41.581073247183525
              ],
              [
                -71.20660433664193,
                41.58031284034058
              ],
              [
                -71.20636353999107,
                41.58008211181619
              ],
              [
                -71.20626950280224,
                41.57991440241569
              ],
              [
                -71.20551001788164,
                41.57809613172585
              ],
              [
                -71.20533353348671,
                41.577826739595196
              ],
              [
                -71.20522498896902,
                41.57759005561228
              ],
              [
                -71.20496248135991,
                41.57623680027887
              ],
              [
                -71.2029406541254,
                41.5761564184567
              ],
              [
                -71.2027066143409,
                41.5758460891016
              ],
              [
                -71.20246512155553,
                41.5756051455755
              ],
              [
                -71.2021855275976,
                41.57537815414677
              ],
              [
                -71.20183427680611,
                41.57518032044334
              ],
              [
                -71.20138677542825,
                41.575141078559895
              ],
              [
                -71.20119866926717,
                41.5751585101016
              ],
              [
                -71.20049928237708,
                41.5753209427768
              ],
              [
                -71.20020501990724,
                41.575505002725
              ],
              [
                -71.20018978831409,
                41.5758366251833
              ],
              [
                -71.1999447024085,
                41.576373811048754
              ],
              [
                -71.1999440600426,
                41.576512602552384
              ],
              [
                -71.1998677048924,
                41.57678565610322
              ],
              [
                -71.19969925198647,
                41.576989066205556
              ],
              [
                -71.19955869641842,
                41.577405082109465
              ],
              [
                -71.19949481539393,
                41.5774786497677
              ],
              [
                -71.19922264843802,
                41.57762540641664
              ],
              [
                -71.19895632172768,
                41.57768293592004
              ],
              [
                -71.19882302327409,
                41.57789495971012
              ],
              [
                -71.19886884826916,
                41.57793676629697
              ],
              [
                -71.1988683244466,
                41.578049534464576
              ],
              [
                -71.19890264819601,
                41.57812119173139
              ],
              [
                -71.1989716519995,
                41.578188599069485
              ],
              [
                -71.19938082092469,
                41.578393523065735
              ],
              [
                -71.19962248269722,
                41.57859800812197
              ],
              [
                -71.19970906833245,
                41.57861124563738
              ],
              [
                -71.19986045594185,
                41.578351404918706
              ],
              [
                -71.20001683683776,
                41.578260727269885
              ],
              [
                -71.20020176128119,
                41.578243859320615
              ],
              [
                -71.20045667831575,
                41.578079706064656
              ],
              [
                -71.20041562356303,
                41.57821405602593
              ],
              [
                -71.20016642057132,
                41.57839123543699
              ],
              [
                -71.20000390221581,
                41.578559968972215
              ],
              [
                -71.19994917591451,
                41.57852729554776
              ],
              [
                -71.199847235839,
                41.578711366382294
              ],
              [
                -71.19982954728894,
                41.57878939100006
              ],
              [
                -71.19985814660812,
                41.57885018708703
              ],
              [
                -71.20005653771844,
                41.57898570192311
              ],
              [
                -71.20085921860459,
                41.57918069611609
              ],
              [
                -71.20087821423976,
                41.579227936094426
              ],
              [
                -71.20114849220907,
                41.57932432917456
              ],
              [
                -71.20150822767543,
                41.57933837131145
              ],
              [
                -71.20170513293132,
                41.57943850542718
              ],
              [
                -71.20182919515332,
                41.57942702957833
              ],
              [
                -71.20209161084944,
                41.57933464141955
              ],
              [
                -71.20225342929416,
                41.5793653096364
              ],
              [
                -71.20247181859874,
                41.57935145632282
              ],
              [
                -71.20264692802857,
                41.57925359624688
              ],
              [
                -71.20265874414747,
                41.5793427632273
              ],
              [
                -71.20296260847059,
                41.57935272527006
              ],
              [
                -71.20350411595312,
                41.57911507551957
              ],
              [
                -71.20389909468986,
                41.579061038907476
              ],
              [
                -71.20402681519867,
                41.57901286713628
              ],
              [
                -71.2040078065557,
                41.57896824953931
              ],
              [
                -71.20376378936001,
                41.57882794921444
              ],
              [
                -71.20348112756612,
                41.578765612311216
              ],
              [
                -71.2034219301744,
                41.57872482381441
              ],
              [
                -71.20340189895678,
                41.57863281843116
              ]
            ]
          ],
          [
            [
              [
                -71.21013633907174,
                41.58558497934573
              ],
              [
                -71.21299940713764,
                41.585952631725355
              ],
              [
                -71.21467837022792,
                41.586010716841024
              ],
              [
                -71.21486533463155,
                41.58553407315339
              ],
              [
                -71.21458038064614,
                41.584648548425314
              ],
              [
                -71.21409994131105,
                41.58388479544956
              ],
              [
                -71.21403285490358,
                41.58380623464272
              ],
              [
                -71.2137549788821,
                41.583679785813345
              ],
              [
                -71.21323648900886,
                41.5833632846424
              ],
              [
                -71.21290928073073,
                41.583079923651546
              ],
              [
                -71.21276169763902,
                41.583004426737794
              ],
              [
                -71.21234672333232,
                41.582892331458595
              ],
              [
                -71.21183105913069,
                41.582922070787745
              ],
              [
                -71.211250987339,
                41.58276056186287
              ],
              [
                -71.21063520141762,
                41.582505917018956
              ],
              [
                -71.21035221703751,
                41.58232687770097
              ],
              [
                -71.21010212289721,
                41.58210683642778
              ],
              [
                -71.20956172374333,
                41.58207525870042
              ],
              [
                -71.20937711199142,
                41.58201273015808
              ],
              [
                -71.20904126441803,
                41.58196288497534
              ],
              [
                -71.20907011483133,
                41.582048520771274
              ],
              [
                -71.20888632853764,
                41.582071195270395
              ],
              [
                -71.20875992424088,
                41.5821907269917
              ],
              [
                -71.20862851468974,
                41.582229292127145
              ],
              [
                -71.20834665314764,
                41.58221903171316
              ],
              [
                -71.207754816429,
                41.58212622355317
              ],
              [
                -71.20740424595311,
                41.58198234315066
              ],
              [
                -71.20698816608595,
                41.581403659517015
              ],
              [
                -71.20683008861583,
                41.58133434623217
              ],
              [
                -71.20660282567458,
                41.58133548986048
              ],
              [
                -71.20637520375921,
                41.581415877878996
              ],
              [
                -71.20595540558978,
                41.581859273304595
              ],
              [
                -71.20550095033153,
                41.58202757817699
              ],
              [
                -71.2054547271279,
                41.582096369197046
              ],
              [
                -71.20549983104198,
                41.582273928247794
              ],
              [
                -71.20541222515907,
                41.582356395308615
              ],
              [
                -71.20467451687134,
                41.58253883603729
              ],
              [
                -71.20453010955555,
                41.58249195068073
              ],
              [
                -71.20446618726628,
                41.58241426307701
              ],
              [
                -71.20444370401333,
                41.58231084115789
              ],
              [
                -71.20437265280084,
                41.582286540109635
              ],
              [
                -71.20414269813152,
                41.58237380827447
              ],
              [
                -71.2040011891572,
                41.58253429542837
              ],
              [
                -71.20370474269905,
                41.58263863012602
              ],
              [
                -71.20360770389942,
                41.5827055562085
              ],
              [
                -71.20354247336704,
                41.582762813149174
              ],
              [
                -71.20353205567032,
                41.58283104562843
              ],
              [
                -71.20359023074533,
                41.58292524353829
              ],
              [
                -71.20368639109734,
                41.58299205082407
              ],
              [
                -71.20376176950924,
                41.58319844836648
              ],
              [
                -71.20365900374725,
                41.58331966503111
              ],
              [
                -71.20342191304414,
                41.583359961416335
              ],
              [
                -71.20357233835534,
                41.58366240218649
              ],
              [
                -71.20351356307381,
                41.58375301937894
              ],
              [
                -71.20344299921693,
                41.58377945432297
              ],
              [
                -71.20326419545927,
                41.583784954395085
              ],
              [
                -71.20305047392125,
                41.58385804620006
              ],
              [
                -71.20291312203717,
                41.58384913600802
              ],
              [
                -71.20274368738329,
                41.58378929215946
              ],
              [
                -71.20260969838814,
                41.58366483690385
              ],
              [
                -71.2025300770062,
                41.583651733044725
              ],
              [
                -71.2023313803169,
                41.58369446658182
              ],
              [
                -71.20208725023566,
                41.583619229107484
              ],
              [
                -71.20190267461656,
                41.583658972326475
              ],
              [
                -71.20182640442674,
                41.58363039109632
              ],
              [
                -71.20178582848887,
                41.58356642217057
              ],
              [
                -71.20174132086092,
                41.583352514162286
              ],
              [
                -71.2016426832921,
                41.583297156116124
              ],
              [
                -71.20075531074947,
                41.58344789421254
              ],
              [
                -71.2014006969179,
                41.583166031879266
              ],
              [
                -71.20179389051799,
                41.58311112545538
              ],
              [
                -71.20182572603721,
                41.58301876817452
              ],
              [
                -71.2018960561039,
                41.58299306651968
              ],
              [
                -71.20201479740048,
                41.58302064401955
              ],
              [
                -71.2021593568126,
                41.58319295805792
              ],
              [
                -71.20219655239049,
                41.583493902560974
              ],
              [
                -71.20228357522353,
                41.583588417135786
              ],
              [
                -71.20242814621456,
                41.58362438146326
              ],
              [
                -71.20260010218381,
                41.583598480458704
              ],
              [
                -71.20292411149855,
                41.583740847332905
              ],
              [
                -71.20309719540883,
                41.58373759746599
              ],
              [
                -71.20319407231754,
                41.58369809777311
              ],
              [
                -71.20330161605595,
                41.58361564065791
              ],
              [
                -71.20322761167763,
                41.583407681521926
              ],
              [
                -71.20325040825438,
                41.58331136227273
              ],
              [
                -71.20360347486648,
                41.583142335927704
              ],
              [
                -71.20336738902172,
                41.58305098085315
              ],
              [
                -71.20331480330309,
                41.58293929843937
              ],
              [
                -71.20334405328794,
                41.58273877723987
              ],
              [
                -71.20353369343204,
                41.58248792537644
              ],
              [
                -71.2041298320337,
                41.58218676425656
              ],
              [
                -71.20460006561837,
                41.58201011744163
              ],
              [
                -71.20444070907625,
                41.58172608027815
              ],
              [
                -71.20429754011681,
                41.58176461834012
              ],
              [
                -71.2042252348051,
                41.5817545993493
              ],
              [
                -71.20414347071065,
                41.58169538820714
              ],
              [
                -71.20395780401904,
                41.581683794260776
              ],
              [
                -71.20408265530267,
                41.581562587315645
              ],
              [
                -71.20422390453216,
                41.58154681150576
              ],
              [
                -71.20431346410898,
                41.58156243379654
              ],
              [
                -71.20433816706635,
                41.581600548139626
              ],
              [
                -71.20443807395569,
                41.581554203306
              ],
              [
                -71.2044904192456,
                41.581568874432946
              ],
              [
                -71.20449211681266,
                41.581696284793836
              ],
              [
                -71.20453523318653,
                41.58173572855314
              ],
              [
                -71.20473538108942,
                41.58182004075913
              ],
              [
                -71.20495903877566,
                41.58199590561517
              ],
              [
                -71.20504344278564,
                41.58197645524289
              ],
              [
                -71.20508011617737,
                41.581929519944325
              ],
              [
                -71.20509595917738,
                41.58170296549435
              ],
              [
                -71.2051466280225,
                41.581585094777466
              ],
              [
                -71.20550262028,
                41.58143910798069
              ],
              [
                -71.20546066214172,
                41.58139539075953
              ],
              [
                -71.2051535391317,
                41.5812834430898
              ],
              [
                -71.20511956855096,
                41.58123718195295
              ],
              [
                -71.20506869011844,
                41.58090015118533
              ],
              [
                -71.20498718705457,
                41.58078365212977
              ],
              [
                -71.20454734509052,
                41.58063623222375
              ],
              [
                -71.20437028468524,
                41.58048699344164
              ],
              [
                -71.20431224438968,
                41.580472308512775
              ],
              [
                -71.20425057081638,
                41.580504642691956
              ],
              [
                -71.20421015894824,
                41.58062168406463
              ],
              [
                -71.20414943005385,
                41.580946456695294
              ],
              [
                -71.20424474350459,
                41.58128010060538
              ],
              [
                -71.20420699581945,
                41.58131249629709
              ],
              [
                -71.20403959215736,
                41.58129410930268
              ],
              [
                -71.20395392187305,
                41.58134177258573
              ],
              [
                -71.20367911508593,
                41.58163863107507
              ],
              [
                -71.2036572790323,
                41.581679618466865
              ],
              [
                -71.20373251159491,
                41.581793742401864
              ],
              [
                -71.20376297573873,
                41.58198364819603
              ],
              [
                -71.20369750866519,
                41.58197321791253
              ],
              [
                -71.20368666264325,
                41.58185347948981
              ],
              [
                -71.20355761492208,
                41.581669305245825
              ],
              [
                -71.20316071202407,
                41.581756354292914
              ],
              [
                -71.20291308632115,
                41.581756284672224
              ],
              [
                -71.20355014378886,
                41.581558980839915
              ],
              [
                -71.20359276936384,
                41.5814564820078
              ],
              [
                -71.20352529627436,
                41.5812636544471
              ],
              [
                -71.20353240639932,
                41.58120381663718
              ],
              [
                -71.20376340885964,
                41.58101800613848
              ],
              [
                -71.20378643070235,
                41.580966760182605
              ],
              [
                -71.20376639453127,
                41.580863245368896
              ],
              [
                -71.20389223598853,
                41.58075155364425
              ],
              [
                -71.20395211465211,
                41.58061318576486
              ],
              [
                -71.20399399801873,
                41.58047546931666
              ],
              [
                -71.20394661388468,
                41.58037273767405
              ],
              [
                -71.2035886074744,
                41.58017771296491
              ],
              [
                -71.20359000861352,
                41.58012042649648
              ],
              [
                -71.2036677658784,
                41.580059060952614
              ],
              [
                -71.20392148263264,
                41.580012686080565
              ],
              [
                -71.20389627730749,
                41.57991856239833
              ],
              [
                -71.20365775553412,
                41.579756338337184
              ],
              [
                -71.2035231816085,
                41.579785063686025
              ],
              [
                -71.20332415370711,
                41.57995556610888
              ],
              [
                -71.20320316554941,
                41.58000313771022
              ],
              [
                -71.20245111666453,
                41.58002000646108
              ],
              [
                -71.20195239586678,
                41.58013834874462
              ],
              [
                -71.20166527414622,
                41.58013931483078
              ],
              [
                -71.20118984453025,
                41.57996107967382
              ],
              [
                -71.20084566710105,
                41.57998156055409
              ],
              [
                -71.20065447077562,
                41.57993488891206
              ],
              [
                -71.20044396676968,
                41.57982944226953
              ],
              [
                -71.20027527809474,
                41.579597277156935
              ],
              [
                -71.2002057873818,
                41.57959538527403
              ],
              [
                -71.20013466979113,
                41.57969866393554
              ],
              [
                -71.1999999678135,
                41.579754748180555
              ],
              [
                -71.19998383898998,
                41.57979318460409
              ],
              [
                -71.20011467528626,
                41.58007997632258
              ],
              [
                -71.20043784396843,
                41.58032453725011
              ],
              [
                -71.20056482693045,
                41.58045997045668
              ],
              [
                -71.20063084180923,
                41.580474678940575
              ],
              [
                -71.20069714493421,
                41.580426966813924
              ],
              [
                -71.20077464753479,
                41.58042118282988
              ],
              [
                -71.2009339198791,
                41.58047290158502
              ],
              [
                -71.20111104326995,
                41.5806067547768
              ],
              [
                -71.20131839194315,
                41.58085697617392
              ],
              [
                -71.20088275499677,
                41.580696799342775
              ],
              [
                -71.20040280120996,
                41.580737593739336
              ],
              [
                -71.20030515566097,
                41.58068897822986
              ],
              [
                -71.20028428284039,
                41.580631214173806
              ],
              [
                -71.20039412141291,
                41.58056513006313
              ],
              [
                -71.20040970655879,
                41.58051899935128
              ],
              [
                -71.2003794153507,
                41.58042081086271
              ],
              [
                -71.20001919744738,
                41.580196236925346
              ],
              [
                -71.19995091018396,
                41.58000416232602
              ],
              [
                -71.1998269164427,
                41.579807616852044
              ],
              [
                -71.19984496768218,
                41.57972409729487
              ],
              [
                -71.20002381586846,
                41.57961335038321
              ],
              [
                -71.20006543839246,
                41.57954636918024
              ],
              [
                -71.19981937784732,
                41.57946131400726
              ],
              [
                -71.19965907342804,
                41.57927358726395
              ],
              [
                -71.19937086700862,
                41.579116760925956
              ],
              [
                -71.1992605157212,
                41.57887985146523
              ],
              [
                -71.199031560558,
                41.57865766149119
              ],
              [
                -71.19869832059278,
                41.57840285087869
              ],
              [
                -71.19862081288281,
                41.57819716458042
              ],
              [
                -71.19860141619188,
                41.57804445929387
              ],
              [
                -71.19863458452836,
                41.57776462166859
              ],
              [
                -71.19873850533678,
                41.577645513884804
              ],
              [
                -71.19877643234646,
                41.577545747010326
              ],
              [
                -71.19883312862646,
                41.57748470769105
              ],
              [
                -71.19895774548199,
                41.57745122036245
              ],
              [
                -71.1993016319519,
                41.577408748137856
              ],
              [
                -71.19937413504512,
                41.57734387736424
              ],
              [
                -71.19942377787278,
                41.577226900476965
              ],
              [
                -71.19945673492123,
                41.576971086788014
              ],
              [
                -71.1997002766009,
                41.576767868675255
              ],
              [
                -71.19983555960016,
                41.576243408131255
              ],
              [
                -71.19995828272785,
                41.57593577863392
              ],
              [
                -71.20003387389218,
                41.57582754429914
              ],
              [
                -71.200019822121,
                41.57538568516993
              ],
              [
                -71.19997250392653,
                41.57535895555208
              ],
              [
                -71.1992682920632,
                41.57525735852471
              ],
              [
                -71.19918182169224,
                41.57522026276866
              ],
              [
                -71.19913908407761,
                41.57509436999706
              ],
              [
                -71.19882383795955,
                41.57519113392206
              ],
              [
                -71.19870831776389,
                41.57519083127755
              ],
              [
                -71.19862805578667,
                41.5751768460586
              ],
              [
                -71.1985123869996,
                41.575092727575985
              ],
              [
                -71.19837956996705,
                41.575085873118226
              ],
              [
                -71.19821168212347,
                41.5751678432546
              ],
              [
                -71.19799112257007,
                41.57539713955037
              ],
              [
                -71.19797357295101,
                41.57544480356028
              ],
              [
                -71.19806510046047,
                41.57563588616652
              ],
              [
                -71.19806471427289,
                41.575718294906586
              ],
              [
                -71.19795426173,
                41.57586981025936
              ],
              [
                -71.19789890801663,
                41.57602292529106
              ],
              [
                -71.19781218761385,
                41.57605176969789
              ],
              [
                -71.19680647462533,
                41.575890666509025
              ],
              [
                -71.19681120022771,
                41.57581629248314
              ],
              [
                -71.19406645256856,
                41.57538315358317
              ],
              [
                -71.1941651455851,
                41.5747055236519
              ],
              [
                -71.19247533529341,
                41.5747360007633
              ],
              [
                -71.19225988770843,
                41.57611088153219
              ],
              [
                -71.19293470506975,
                41.57632181721447
              ],
              [
                -71.19116442861137,
                41.576748052348286
              ],
              [
                -71.19157853262412,
                41.57824170110899
              ],
              [
                -71.1933556155732,
                41.57805387884531
              ],
              [
                -71.19350891260665,
                41.57958025459671
              ],
              [
                -71.19776920350802,
                41.57911274570161
              ],
              [
                -71.19833236618571,
                41.57902402395736
              ],
              [
                -71.19841864469818,
                41.578924978322064
              ],
              [
                -71.19807706357865,
                41.57869538521355
              ],
              [
                -71.19769919209227,
                41.57808453543013
              ],
              [
                -71.19725591796471,
                41.577892789009866
              ],
              [
                -71.19706654105282,
                41.57768265270269
              ],
              [
                -71.19696581990792,
                41.577510864534176
              ],
              [
                -71.19695951859642,
                41.57744476734381
              ],
              [
                -71.19704241618614,
                41.57757928706167
              ],
              [
                -71.19720524659468,
                41.57774099154646
              ],
              [
                -71.19775615700242,
                41.57805081389744
              ],
              [
                -71.19782129157991,
                41.578148498641085
              ],
              [
                -71.19786443916539,
                41.578302594524445
              ],
              [
                -71.19823955351231,
                41.578770900521
              ],
              [
                -71.19871455263508,
                41.57900898402992
              ],
              [
                -71.19912490449128,
                41.57928085683942
              ],
              [
                -71.19902768360745,
                41.580106352460476
              ],
              [
                -71.1993961544743,
                41.580681658643016
              ],
              [
                -71.19939547283326,
                41.58106214255913
              ],
              [
                -71.19857220984913,
                41.58134629352261
              ],
              [
                -71.19875007221279,
                41.581789173220265
              ],
              [
                -71.19919933313602,
                41.582096024567996
              ],
              [
                -71.19926498423163,
                41.582324348109175
              ],
              [
                -71.19909941186232,
                41.582482879091536
              ],
              [
                -71.19861012446975,
                41.582537420016045
              ],
              [
                -71.19730262530013,
                41.581939173147084
              ],
              [
                -71.19774894781858,
                41.58299680580556
              ],
              [
                -71.19714615694004,
                41.58310864453851
              ],
              [
                -71.19737415093697,
                41.58432072541849
              ],
              [
                -71.19757787103248,
                41.58427142021511
              ],
              [
                -71.1973968417124,
                41.584895244011314
              ],
              [
                -71.19744862075014,
                41.585641315693024
              ],
              [
                -71.1977847701124,
                41.586847356447656
              ],
              [
                -71.19798990065769,
                41.58741523660362
              ],
              [
                -71.19944108640829,
                41.58723140100797
              ],
              [
                -71.200867012431,
                41.5861851329028
              ],
              [
                -71.2007913377982,
                41.58607714389227
              ],
              [
                -71.20091482508326,
                41.58588613799615
              ],
              [
                -71.20101755623094,
                41.58546663368895
              ],
              [
                -71.20109985253437,
                41.58537600962297
              ],
              [
                -71.20148755228819,
                41.58520276617542
              ],
              [
                -71.20384925904241,
                41.58549161866076
              ],
              [
                -71.20398796424325,
                41.58493483212488
              ],
              [
                -71.20847982381369,
                41.5854475364824
              ],
              [
                -71.20860508719589,
                41.58538831754548
              ],
              [
                -71.21013633907174,
                41.58558497934573
              ]
            ],
            [
              [
                -71.19649988898426,
                41.57681146957204
              ],
              [
                -71.19685505407853,
                41.57707298830609
              ],
              [
                -71.19688947624414,
                41.57719639245069
              ],
              [
                -71.1966891741555,
                41.5769669816085
              ],
              [
                -71.19649988898426,
                41.57681146957204
              ]
            ]
          ],
          [
            [
              [
                -71.20607677133641,
                41.58722168953636
              ],
              [
                -71.20799572303976,
                41.58751614895538
              ],
              [
                -71.20834045473654,
                41.5860407811536
              ],
              [
                -71.20639790412939,
                41.58580327809252
              ],
              [
                -71.20607677133641,
                41.58722168953636
              ]
            ]
          ],
          [
            [
              [
                -71.20545864757771,
                41.59189067196855
              ],
              [
                -71.2061375449453,
                41.59191750802379
              ],
              [
                -71.20609583736083,
                41.5923370788209
              ],
              [
                -71.2064785147562,
                41.59238390530622
              ],
              [
                -71.20665406182495,
                41.592370694645034
              ],
              [
                -71.20686367812186,
                41.59222255214786
              ],
              [
                -71.20699744218821,
                41.591883923517365
              ],
              [
                -71.20703971185553,
                41.591668404901924
              ],
              [
                -71.20656541946614,
                41.59160698731781
              ],
              [
                -71.2037449309941,
                41.591518770094986
              ],
              [
                -71.20195316580097,
                41.59099778584703
              ],
              [
                -71.20195189526383,
                41.59062005715256
              ],
              [
                -71.2025067597357,
                41.59046438050766
              ],
              [
                -71.20200785455911,
                41.5895146709759
              ],
              [
                -71.20184744539773,
                41.58794187982852
              ],
              [
                -71.20110920777549,
                41.588083999768415
              ],
              [
                -71.20088998527969,
                41.58951703904857
              ],
              [
                -71.2005259477244,
                41.59097833326782
              ],
              [
                -71.20027836873498,
                41.5910432615532
              ],
              [
                -71.2008428923058,
                41.59116027964121
              ],
              [
                -71.20112776458791,
                41.5913016185875
              ],
              [
                -71.20185648489061,
                41.59156481832533
              ],
              [
                -71.20255212924239,
                41.59171408084822
              ],
              [
                -71.20410242039765,
                41.59219167029758
              ],
              [
                -71.20446464572348,
                41.59225254801944
              ],
              [
                -71.20474420597904,
                41.5922829714489
              ],
              [
                -71.20485292794093,
                41.59226526560783
              ],
              [
                -71.2048944285718,
                41.591847860132795
              ],
              [
                -71.20545864757771,
                41.59189067196855
              ]
            ]
          ]
        ]
      }
    }
  ],
  "bbox": [
    -71.21486533463155,
    41.5747055236519,
    -71.19116442861137,
    41.59238390530622
  ]
}
