{
  "$schema": "https://ripota.org/schemas/v2/display-geojson.schema.json",
  "type": "FeatureCollection",
  "properties": {
    "schemaVersion": 2,
    "geometryRole": "display",
    "geometryKind": "boundary",
    "potaReference": "US-10546",
    "potaName": "Eight Rod Farm Wildlife Management Area",
    "sourceName": "Rhode Island DEM State Conservation Land",
    "sourceUrl": "https://risegis.ri.gov/hosting/rest/services/RIDEM/State_Conservation_Land/MapServer/0",
    "sourceQuery": "DEM_AREA = 'Eight Rod Farm Management Area'",
    "sourceFeatureIds": [
      227,
      228,
      25549
    ]
  },
  "features": [
    {
      "type": "Feature",
      "properties": {
        "potaReference": "US-10546",
        "potaName": "Eight Rod Farm Wildlife Management Area",
        "geometryKind": "boundary",
        "geometryRole": "display"
      },
      "geometry": {
        "type": "MultiPolygon",
        "coordinates": [
          [
            [
              [
                -71.169409918753,
                41.565695042691125
              ],
              [
                -71.17382181523583,
                41.56445023807662
              ],
              [
                -71.17254836579858,
                41.562230417233174
              ],
              [
                -71.17370536649648,
                41.55988049940923
              ],
              [
                -71.17532839831853,
                41.559282612462326
              ],
              [
                -71.17445308039115,
                41.5534867477686
              ],
              [
                -71.17389300896801,
                41.553568099388315
              ],
              [
                -71.16778205464776,
                41.55484445912097
              ],
              [
                -71.16777081360831,
                41.55477771475377
              ],
              [
                -71.16539579805915,
                41.55529355054246
              ],
              [
                -71.16696168087948,
                41.56483322029063
              ],
              [
                -71.16909630494206,
                41.56436379658698
              ],
              [
                -71.169409918753,
                41.565695042691125
              ]
            ]
          ],
          [
            [
              [
                -71.18176838117971,
                41.54782807644721
              ],
              [
                -71.17402908163625,
                41.548695616281776
              ],
              [
                -71.1740738233488,
                41.549387567392785
              ],
              [
                -71.17407261686175,
                41.549627780321416
              ],
              [
                -71.17406937232415,
                41.550273756895045
              ],
              [
                -71.173996701017,
                41.55099605728543
              ],
              [
                -71.17389830458204,
                41.55197400719974
              ],
              [
                -71.1738960838596,
                41.55264244460713
              ],
              [
                -71.17389343106821,
                41.55344118921811
              ],
              [
                -71.17619715245945,
                41.55299173660437
              ],
              [
                -71.1763841888405,
                41.55419931260942
              ],
              [
                -71.1748095107963,
                41.55455448859438
              ],
              [
                -71.17501150015185,
                41.55585675951937
              ],
              [
                -71.1779426818503,
                41.55521967662331
              ],
              [
                -71.17818121702244,
                41.55657594639756
              ],
              [
                -71.17669757117378,
                41.556903348739205
              ],
              [
                -71.17683665625283,
                41.557856655254845
              ],
              [
                -71.1763623711609,
                41.55803601413667
              ],
              [
                -71.17649431660894,
                41.558857041273555
              ],
              [
                -71.1775617905617,
                41.55845852765805
              ],
              [
                -71.1782907208368,
                41.55817970837043
              ],
              [
                -71.17867260725643,
                41.55804671135755
              ],
              [
                -71.1792213802396,
                41.557836052761964
              ],
              [
                -71.17966166443006,
                41.557654587615055
              ],
              [
                -71.18090407076394,
                41.55718876293128
              ],
              [
                -71.18284893435461,
                41.55651205404392
              ],
              [
                -71.1848264804767,
                41.55579760916253
              ],
              [
                -71.18600285994012,
                41.55538802906637
              ],
              [
                -71.18698846048257,
                41.55522868725606
              ],
              [
                -71.18923139776274,
                41.55493638101972
              ],
              [
                -71.1900318341852,
                41.55485721726188
              ],
              [
                -71.190263971998,
                41.55473955255592
              ],
              [
                -71.19062115285186,
                41.55461067918674
              ],
              [
                -71.19105782356017,
                41.554488300250014
              ],
              [
                -71.19156855908037,
                41.554339289685764
              ],
              [
                -71.19164712774379,
                41.55432273170454
              ],
              [
                -71.19134859504446,
                41.55358792500933
              ],
              [
                -71.19265409532031,
                41.553303867046914
              ],
              [
                -71.19282568725302,
                41.553281972684545
              ],
              [
                -71.19295874002512,
                41.55329784429245
              ],
              [
                -71.19310912545907,
                41.553330413650976
              ],
              [
                -71.19364439241978,
                41.55345266034832
              ],
              [
                -71.19373730671991,
                41.55322317564078
              ],
              [
                -71.1939254388954,
                41.55283624799064
              ],
              [
                -71.19410899012532,
                41.55253523929287
              ],
              [
                -71.19432356693414,
                41.55226001774405
              ],
              [
                -71.19059056354465,
                41.55299931038229
              ],
              [
                -71.19040624141925,
                41.55184941749098
              ],
              [
                -71.18588635602373,
                41.552747950180276
              ],
              [
                -71.18563789322354,
                41.55107834187018
              ],
              [
                -71.18192615091671,
                41.55187401753447
              ],
              [
                -71.18191982158713,
                41.55079508947545
              ],
              [
                -71.18191850269316,
                41.55057023237444
              ],
              [
                -71.18192384967585,
                41.55079419573423
              ],
              [
                -71.18223091578001,
                41.55073574107132
              ],
              [
                -71.183091980493,
                41.550571466619644
              ],
              [
                -71.1836938097601,
                41.55045664488735
              ],
              [
                -71.18377590507585,
                41.54951735509332
              ],
              [
                -71.18624838884963,
                41.54914862534198
              ],
              [
                -71.18714445475686,
                41.54904811166281
              ],
              [
                -71.1870810569224,
                41.548143729085005
              ],
              [
                -71.18701766077753,
                41.54723934633587
              ],
              [
                -71.1861216196725,
                41.54733985914507
              ],
              [
                -71.18373588927531,
                41.54760744107774
              ],
              [
                -71.18176838117971,
                41.54782807644721
              ]
            ]
          ]
        ]
      }
    }
  ],
  "bbox": [
    -71.19432356693414,
    41.54723934633587,
    -71.16539579805915,
    41.565695042691125
  ]
}
