{
  "$schema": "https://ripota.org/schemas/v2/display-geojson.schema.json",
  "type": "FeatureCollection",
  "properties": {
    "schemaVersion": 2,
    "geometryRole": "display",
    "geometryKind": "boundary",
    "potaReference": "US-2873",
    "potaName": "Fishermen's Memorial State Park",
    "sourceName": "Rhode Island DEM State Conservation Land",
    "sourceUrl": "https://risegis.ri.gov/hosting/rest/services/RIDEM/State_Conservation_Land/MapServer/0",
    "sourceQuery": "DEM_AREA = 'Fishermans Memorial State Park Campground'",
    "sourceFeatureIds": [
      258,
      275,
      339
    ]
  },
  "features": [
    {
      "type": "Feature",
      "properties": {
        "potaReference": "US-2873",
        "potaName": "Fishermen's Memorial State Park",
        "geometryKind": "boundary",
        "geometryRole": "display"
      },
      "geometry": {
        "type": "Polygon",
        "coordinates": [
          [
            [
              -71.49283695275876,
              41.382029685218306
            ],
            [
              -71.49234249915771,
              41.383390635632686
            ],
            [
              -71.49265940226418,
              41.38346143384476
            ],
            [
              -71.49332748722223,
              41.38360632963982
            ],
            [
              -71.49375405234595,
              41.38370365179084
            ],
            [
              -71.49794813830201,
              41.38453543787796
            ],
            [
              -71.49809071692833,
              41.38432531636257
            ],
            [
              -71.49806748843535,
              41.38425449789891
            ],
            [
              -71.49802421692557,
              41.38421796036422
            ],
            [
              -71.49797354441297,
              41.384202694848554
            ],
            [
              -71.49791626488691,
              41.38420258757882
            ],
            [
              -71.49785249319005,
              41.384214271917585
            ],
            [
              -71.49778359934731,
              41.384238540240325
            ],
            [
              -71.49763954788354,
              41.384225887531755
            ],
            [
              -71.49750005577611,
              41.38410105547007
            ],
            [
              -71.49741886666821,
              41.383952123305704
            ],
            [
              -71.49745133142683,
              41.383737864462034
            ],
            [
              -71.49738391818147,
              41.383638311008646
            ],
            [
              -71.4972740362724,
              41.38348442762499
            ],
            [
              -71.4970764749187,
              41.38325511015454
            ],
            [
              -71.49706702885585,
              41.38318047408934
            ],
            [
              -71.49708958102414,
              41.38302279768744
            ],
            [
              -71.49720539874262,
              41.38289569607539
            ],
            [
              -71.4973267893796,
              41.38280067245657
            ],
            [
              -71.49742107855633,
              41.382736607779826
            ],
            [
              -71.49749714629758,
              41.38271546874629
            ],
            [
              -71.49760304622751,
              41.38271026303042
            ],
            [
              -71.49779162625414,
              41.382644892577595
            ],
            [
              -71.49776578103801,
              41.38248884303089
            ],
            [
              -71.49780666244486,
              41.38238835092446
            ],
            [
              -71.49779368483478,
              41.38232880930377
            ],
            [
              -71.49783126270978,
              41.38227070479661
            ],
            [
              -71.4979057382831,
              41.382220855006274
            ],
            [
              -71.49810501401171,
              41.382153406083155
            ],
            [
              -71.49811947921722,
              41.382083400386065
            ],
            [
              -71.4980677835125,
              41.382037238239455
            ],
            [
              -71.4979673131101,
              41.38197744842245
            ],
            [
              -71.49791592377986,
              41.381964540134824
            ],
            [
              -71.49785945638101,
              41.381903184297734
            ],
            [
              -71.49782740834031,
              41.381804961628646
            ],
            [
              -71.49779484678105,
              41.381693468703695
            ],
            [
              -71.49776308003882,
              41.381555707235115
            ],
            [
              -71.49775090010233,
              41.38142446690445
            ],
            [
              -71.49776217991334,
              41.38127401678914
            ],
            [
              -71.49779987476396,
              41.38116859125771
            ],
            [
              -71.49786500701427,
              41.38109987412255
            ],
            [
              -71.49791534074623,
              41.38105319780991
            ],
            [
              -71.49797460862011,
              41.38099428956754
            ],
            [
              -71.49799846693834,
              41.380913124359175
            ],
            [
              -71.4980158965339,
              41.38077212951403
            ],
            [
              -71.49803343722593,
              41.38059163729356
            ],
            [
              -71.49811019044567,
              41.380460827056986
            ],
            [
              -71.49815511412505,
              41.38036748591143
            ],
            [
              -71.49825617218268,
              41.380315351060275
            ],
            [
              -71.49832654474751,
              41.380312116931144
            ],
            [
              -71.49838678086397,
              41.38031132452882
            ],
            [
              -71.49842299033045,
              41.3802656355387
            ],
            [
              -71.49849892166392,
              41.38016240367455
            ],
            [
              -71.49851075056223,
              41.3801204537374
            ],
            [
              -71.49859386345742,
              41.37981688882555
            ],
            [
              -71.49861691791716,
              41.379703089909306
            ],
            [
              -71.48935178589099,
              41.37814227371148
            ],
            [
              -71.48894938387991,
              41.37807278715463
            ],
            [
              -71.48884258182758,
              41.37806651630056
            ],
            [
              -71.48874396968024,
              41.37808100060086
            ],
            [
              -71.48863408365293,
              41.37812839549295
            ],
            [
              -71.48855857848507,
              41.37818683633124
            ],
            [
              -71.48822688170273,
              41.38014728788401
            ],
            [
              -71.48821314582662,
              41.38053125179808
            ],
            [
              -71.48790135383027,
              41.381257533980126
            ],
            [
              -71.48906336844821,
              41.38143880635499
            ],
            [
              -71.4900584619844,
              41.38159427937302
            ],
            [
              -71.49213166755182,
              41.38191813696716
            ],
            [
              -71.49221447099842,
              41.38193118682905
            ],
            [
              -71.49283695275876,
              41.382029685218306
            ]
          ]
        ]
      }
    }
  ],
  "bbox": [
    -71.49861691791716,
    41.37806651630056,
    -71.48790135383027,
    41.38453543787796
  ]
}
