{
  "$schema": "https://ripota.org/schemas/v3/display-geojson.schema.json",
  "type": "FeatureCollection",
  "properties": {
    "schemaVersion": 3,
    "geometryRole": "display",
    "geometryKind": "boundary",
    "potaReference": "US-2874",
    "potaName": "Fort Adams State Park",
    "sourceName": "Rhode Island DEM State Conservation Land",
    "sourceUrl": "https://risegis.ri.gov/hosting/rest/services/RIDEM/State_Conservation_Land/MapServer/0",
    "sourceQuery": "DEM_AREA = 'Fort Adams State Park'",
    "sourceFeatureIds": [
      223,
      483,
      484,
      485,
      486,
      487,
      690,
      691
    ],
    "status": "available",
    "fidelity": "reviewed-display"
  },
  "features": [
    {
      "type": "Feature",
      "properties": {
        "potaReference": "US-2874",
        "potaName": "Fort Adams State Park",
        "geometryKind": "boundary",
        "geometryRole": "display"
      },
      "geometry": {
        "type": "Polygon",
        "coordinates": [
          [
            [
              -71.3417969016738,
              41.47057339927789
            ],
            [
              -71.3407544820337,
              41.47026185404354
            ],
            [
              -71.34017425477293,
              41.470104516547046
            ],
            [
              -71.33975171808846,
              41.47002189279907
            ],
            [
              -71.3373462485753,
              41.46955102429059
            ],
            [
              -71.33746992683996,
              41.46968602248503
            ],
            [
              -71.33758267583582,
              41.46983163517885
            ],
            [
              -71.33748570150344,
              41.47005163224005
            ],
            [
              -71.33737921673298,
              41.47015420783943
            ],
            [
              -71.33716623310198,
              41.47036506542095
            ],
            [
              -71.3369840561777,
              41.47039334272143
            ],
            [
              -71.33680942469474,
              41.47043875055053
            ],
            [
              -71.33675600910713,
              41.47055852185191
            ],
            [
              -71.33653557811544,
              41.47071229793998
            ],
            [
              -71.33651916316666,
              41.47079756903765
            ],
            [
              -71.33650485994114,
              41.47087187001867
            ],
            [
              -71.33642827308448,
              41.471140170700025
            ],
            [
              -71.33637723697136,
              41.47172189912675
            ],
            [
              -71.33639997920864,
              41.47180139852702
            ],
            [
              -71.33672186382273,
              41.47207082902525
            ],
            [
              -71.33741140926593,
              41.47245417457905
            ],
            [
              -71.33765332648987,
              41.47281405739564
            ],
            [
              -71.33765260030805,
              41.47310511256837
            ],
            [
              -71.33751492412227,
              41.473388546107145
            ],
            [
              -71.33739376568383,
              41.47344146037263
            ],
            [
              -71.33662530642339,
              41.474262178774595
            ],
            [
              -71.33617796257118,
              41.47411886784415
            ],
            [
              -71.33611702806938,
              41.474210092758824
            ],
            [
              -71.33655755607687,
              41.474384187732035
            ],
            [
              -71.33654308493058,
              41.47457554421655
            ],
            [
              -71.33653312989942,
              41.4747071938515
            ],
            [
              -71.33649442823877,
              41.47500961014717
            ],
            [
              -71.3361218416672,
              41.47531155033099
            ],
            [
              -71.33531629744692,
              41.4757783735371
            ],
            [
              -71.33530210964588,
              41.475864740651744
            ],
            [
              -71.33511982092656,
              41.47605262049007
            ],
            [
              -71.33509913283348,
              41.47620615126766
            ],
            [
              -71.33509295028057,
              41.47630536944662
            ],
            [
              -71.33513631070298,
              41.47697094982265
            ],
            [
              -71.33529651772764,
              41.47883598341048
            ],
            [
              -71.33514906103339,
              41.478888446118674
            ],
            [
              -71.33517693223799,
              41.478969818628066
            ],
            [
              -71.3353524543248,
              41.47948226527353
            ],
            [
              -71.33578477042812,
              41.47957990157996
            ],
            [
              -71.33603165719687,
              41.48034823640514
            ],
            [
              -71.3361706562203,
              41.48046887380096
            ],
            [
              -71.3363446974056,
              41.480488143261326
            ],
            [
              -71.33656608191657,
              41.480613499271406
            ],
            [
              -71.33664473378649,
              41.48099326911312
            ],
            [
              -71.33669154643927,
              41.48158514796895
            ],
            [
              -71.33668337694779,
              41.481713005733134
            ],
            [
              -71.3366782321912,
              41.48179353050948
            ],
            [
              -71.3372838499718,
              41.481800118001296
            ],
            [
              -71.33735611535707,
              41.481800903602284
            ],
            [
              -71.33776290090756,
              41.48109932607633
            ],
            [
              -71.33829211235856,
              41.48088205088972
            ],
            [
              -71.33844613825448,
              41.48066424783463
            ],
            [
              -71.33861814014712,
              41.48007455321032
            ],
            [
              -71.33888035514025,
              41.479425678429735
            ],
            [
              -71.3392201294042,
              41.47891770148749
            ],
            [
              -71.33926066093917,
              41.47885710580483
            ],
            [
              -71.33930136673045,
              41.47882578215371
            ],
            [
              -71.33973478966875,
              41.47849226328822
            ],
            [
              -71.33996120729199,
              41.478259890629396
            ],
            [
              -71.34016219877684,
              41.478053611619465
            ],
            [
              -71.34052631421919,
              41.47767691404594
            ],
            [
              -71.34057678831763,
              41.47762455946972
            ],
            [
              -71.34074767975406,
              41.47747731164464
            ],
            [
              -71.34098683593135,
              41.47730771562632
            ],
            [
              -71.34109571613847,
              41.477257233326476
            ],
            [
              -71.3411036218635,
              41.47721838594012
            ],
            [
              -71.34119610145738,
              41.47715731386325
            ],
            [
              -71.34123486187825,
              41.476997058499954
            ],
            [
              -71.3413036990351,
              41.4767406600121
            ],
            [
              -71.34150915166046,
              41.47640429399027
            ],
            [
              -71.3416214169225,
              41.47629134829767
            ],
            [
              -71.3416587289744,
              41.47625381000593
            ],
            [
              -71.34189806526132,
              41.47600726370763
            ],
            [
              -71.34210316235028,
              41.475815174375896
            ],
            [
              -71.34223160830997,
              41.47558771202197
            ],
            [
              -71.3424152947784,
              41.475434067503286
            ],
            [
              -71.34266286481548,
              41.4753061587177
            ],
            [
              -71.3430001132725,
              41.475114249339654
            ],
            [
              -71.34323957159901,
              41.4748131949852
            ],
            [
              -71.3433476753693,
              41.47470134758745
            ],
            [
              -71.34350881497825,
              41.474534623873325
            ],
            [
              -71.34367532831493,
              41.47442904672133
            ],
            [
              -71.34406386182592,
              41.474190149255634
            ],
            [
              -71.34425197360164,
              41.47395531467893
            ],
            [
              -71.34459821790595,
              41.47356142271019
            ],
            [
              -71.34469488509521,
              41.473455722671524
            ],
            [
              -71.344756361348,
              41.47338850295172
            ],
            [
              -71.34506785585032,
              41.473263881497815
            ],
            [
              -71.34561395556729,
              41.47307865719569
            ],
            [
              -71.34608369914721,
              41.47273301916172
            ],
            [
              -71.3462734592194,
              41.472569402851846
            ],
            [
              -71.34648095921064,
              41.47239048878142
            ],
            [
              -71.34670329507298,
              41.47210864204881
            ],
            [
              -71.34620451542293,
              41.47191010548753
            ],
            [
              -71.3429344812772,
              41.47091337164332
            ],
            [
              -71.3417969016738,
              41.47057339927789
            ]
          ],
          [
            [
              -71.34004729276964,
              41.47693209126646
            ],
            [
              -71.33990956168803,
              41.476860709103526
            ],
            [
              -71.3393682560722,
              41.477186377056384
            ],
            [
              -71.33866387915381,
              41.476766147982204
            ],
            [
              -71.33782431780706,
              41.47712102733761
            ],
            [
              -71.33709380477241,
              41.477140341306466
            ],
            [
              -71.336011305052,
              41.477271053951014
            ],
            [
              -71.33551358093642,
              41.476171644581285
            ],
            [
              -71.33546499977474,
              41.47605661997203
            ],
            [
              -71.33574921599742,
              41.47574616683565
            ],
            [
              -71.33588069709393,
              41.475715802321595
            ],
            [
              -71.33592992051832,
              41.475750564731946
            ],
            [
              -71.33628419553438,
              41.47621511017867
            ],
            [
              -71.3364122824017,
              41.47639790045192
            ],
            [
              -71.33611643495041,
              41.476567812306435
            ],
            [
              -71.33658371129489,
              41.4766192278013
            ],
            [
              -71.3372174715964,
              41.476592092625964
            ],
            [
              -71.33773104484646,
              41.47657010130564
            ],
            [
              -71.33838862755758,
              41.476252018290886
            ],
            [
              -71.33843402368059,
              41.47618469475653
            ],
            [
              -71.33874996383263,
              41.47571613620868
            ],
            [
              -71.33911650195714,
              41.475172526727064
            ],
            [
              -71.34035288209476,
              41.473167584072115
            ],
            [
              -71.34103570272799,
              41.47338176116912
            ],
            [
              -71.34119171550233,
              41.473430696115074
            ],
            [
              -71.3416380525547,
              41.47357069343765
            ],
            [
              -71.34189877070018,
              41.47326233374309
            ],
            [
              -71.34263573016906,
              41.47350673805848
            ],
            [
              -71.34302139859668,
              41.47364040276507
            ],
            [
              -71.34217731781466,
              41.47470188265036
            ],
            [
              -71.34255087200691,
              41.47488991881408
            ],
            [
              -71.34208991390808,
              41.475244931946165
            ],
            [
              -71.34170997868503,
              41.47573272062907
            ],
            [
              -71.34120889962225,
              41.475614729349154
            ],
            [
              -71.34112542293653,
              41.475763070200905
            ],
            [
              -71.34081072745569,
              41.476108550404554
            ],
            [
              -71.34036286083439,
              41.47654313167916
            ],
            [
              -71.34021877283975,
              41.47670724275716
            ],
            [
              -71.34010796259756,
              41.47694541410821
            ],
            [
              -71.34004729276964,
              41.47693209126646
            ]
          ]
        ]
      }
    }
  ],
  "bbox": [
    -71.34670329507298,
    41.46955102429059,
    -71.33509295028057,
    41.481800903602284
  ]
}
