{
  "$schema": "https://ripota.org/schemas/v3/display-geojson.schema.json",
  "type": "FeatureCollection",
  "properties": {
    "schemaVersion": 3,
    "geometryRole": "display",
    "geometryKind": "boundary",
    "potaReference": "US-6986",
    "potaName": "Simmons Mill Wildlife Management Area",
    "sourceName": "Rhode Island DEM State Conservation Land",
    "sourceUrl": "https://risegis.ri.gov/hosting/rest/services/RIDEM/State_Conservation_Land/MapServer/0",
    "sourceQuery": "DEM_AREA = 'Simmons Mill Management Area'",
    "sourceFeatureIds": [
      170,
      188,
      194,
      634
    ],
    "status": "available",
    "fidelity": "reviewed-display"
  },
  "features": [
    {
      "type": "Feature",
      "properties": {
        "potaReference": "US-6986",
        "potaName": "Simmons Mill Wildlife Management Area",
        "geometryKind": "boundary",
        "geometryRole": "display"
      },
      "geometry": {
        "type": "MultiPolygon",
        "coordinates": [
          [
            [
              [
                -71.14151459510998,
                41.531020606883736
              ],
              [
                -71.13721632059487,
                41.53151324987238
              ],
              [
                -71.13457496313765,
                41.53184690778304
              ],
              [
                -71.13483732017872,
                41.53277932754442
              ],
              [
                -71.13519517582276,
                41.534051107808466
              ],
              [
                -71.13550256206632,
                41.535143485659596
              ],
              [
                -71.1335817077794,
                41.53537705257049
              ],
              [
                -71.13417853917,
                41.537635563543716
              ],
              [
                -71.13451545941577,
                41.537594810243164
              ],
              [
                -71.13473195678041,
                41.53788708705908
              ],
              [
                -71.13525221725949,
                41.53783918761202
              ],
              [
                -71.13539917343421,
                41.5378682407796
              ],
              [
                -71.13550273038989,
                41.53794670787397
              ],
              [
                -71.13807047915131,
                41.53763840446811
              ],
              [
                -71.13947977784525,
                41.537364106024384
              ],
              [
                -71.14009794794296,
                41.5387599537028
              ],
              [
                -71.13712313213554,
                41.53910118802852
              ],
              [
                -71.13737549427694,
                41.539900936705784
              ],
              [
                -71.13705830242367,
                41.5399213768685
              ],
              [
                -71.13707859917197,
                41.53997742400393
              ],
              [
                -71.13716423572266,
                41.5399729294087
              ],
              [
                -71.13738557036615,
                41.54065138228115
              ],
              [
                -71.13719984222058,
                41.54069367719407
              ],
              [
                -71.1377348683236,
                41.54176998360035
              ],
              [
                -71.14431186507176,
                41.54099072829857
              ],
              [
                -71.14835069919958,
                41.54041653145978
              ],
              [
                -71.14959297910909,
                41.54023988683752
              ],
              [
                -71.15427564533391,
                41.53965050284664
              ],
              [
                -71.1542806754343,
                41.539889167098
              ],
              [
                -71.15475185942815,
                41.5397811420443
              ],
              [
                -71.15502605358229,
                41.539703908930015
              ],
              [
                -71.15522728566148,
                41.53960537217581
              ],
              [
                -71.15540806756194,
                41.53946149264211
              ],
              [
                -71.15551857594484,
                41.539335741330454
              ],
              [
                -71.15561120446549,
                41.53912970145487
              ],
              [
                -71.15562834822201,
                41.53891809800715
              ],
              [
                -71.15425923567183,
                41.53910666555803
              ],
              [
                -71.15416332305253,
                41.53879530120265
              ],
              [
                -71.15354496681498,
                41.5389101223565
              ],
              [
                -71.15339207007777,
                41.53826033252348
              ],
              [
                -71.15368697885813,
                41.53822000597764
              ],
              [
                -71.15361573969327,
                41.53794257252146
              ],
              [
                -71.15310021467533,
                41.53801153205985
              ],
              [
                -71.15263205865062,
                41.537272248727895
              ],
              [
                -71.15239419571752,
                41.53689662578463
              ],
              [
                -71.15209957722846,
                41.536431367670595
              ],
              [
                -71.15174628406834,
                41.5346172756955
              ],
              [
                -71.14866580521652,
                41.53504044825193
              ],
              [
                -71.14799379145069,
                41.53383981901259
              ],
              [
                -71.15204819049755,
                41.533373614582764
              ],
              [
                -71.15165555609518,
                41.53222958237175
              ],
              [
                -71.15111396541928,
                41.5322916472523
              ],
              [
                -71.15103195541084,
                41.532006685352954
              ],
              [
                -71.15307330021113,
                41.531596694271336
              ],
              [
                -71.1530121089846,
                41.53142947763123
              ],
              [
                -71.15101011115034,
                41.53182366106361
              ],
              [
                -71.15083070468653,
                41.53114614842269
              ],
              [
                -71.14980066293494,
                41.53126648604868
              ],
              [
                -71.1496032925504,
                41.53071129243292
              ],
              [
                -71.15083347333672,
                41.53057644333617
              ],
              [
                -71.15053918617961,
                41.52963503788943
              ],
              [
                -71.14982925445284,
                41.529721035033745
              ],
              [
                -71.1497451488281,
                41.529467909605245
              ],
              [
                -71.1460031159097,
                41.5299170686396
              ],
              [
                -71.14520045035574,
                41.52918321214122
              ],
              [
                -71.144455165398,
                41.52717774967334
              ],
              [
                -71.14384757732527,
                41.52724953011198
              ],
              [
                -71.14167987177366,
                41.52752072724516
              ],
              [
                -71.14215433735137,
                41.528603335694825
              ],
              [
                -71.14052114631569,
                41.5287884574096
              ],
              [
                -71.14073788152075,
                41.52944281809871
              ],
              [
                -71.14091780034667,
                41.52977919267309
              ],
              [
                -71.14151459510998,
                41.531020606883736
              ]
            ]
          ],
          [
            [
              [
                -71.14946426973711,
                41.54360513705327
              ],
              [
                -71.15043547933917,
                41.543598851910666
              ],
              [
                -71.15063918190504,
                41.54345323269316
              ],
              [
                -71.15003816811083,
                41.54308132388571
              ],
              [
                -71.14998322557555,
                41.543038276871506
              ],
              [
                -71.14993777319535,
                41.54299954543961
              ],
              [
                -71.14991324798348,
                41.54296087770055
              ],
              [
                -71.14990581522152,
                41.54292798032032
              ],
              [
                -71.14971667414777,
                41.54272157608687
              ],
              [
                -71.15028101720746,
                41.54265772247815
              ],
              [
                -71.1507528003243,
                41.54260391421333
              ],
              [
                -71.15118275355665,
                41.5420487100325
              ],
              [
                -71.15211748042974,
                41.54194566646389
              ],
              [
                -71.1524926194848,
                41.54147597186345
              ],
              [
                -71.15200808696636,
                41.541520269479165
              ],
              [
                -71.15195458885566,
                41.541236893194146
              ],
              [
                -71.14897818334211,
                41.541628723657965
              ],
              [
                -71.14888146332885,
                41.54198307816576
              ],
              [
                -71.14552866189558,
                41.542433935564866
              ],
              [
                -71.14585123438398,
                41.54345603473412
              ],
              [
                -71.14605810383283,
                41.54398506709107
              ],
              [
                -71.14701731300305,
                41.54387808597574
              ],
              [
                -71.14810688139868,
                41.54375655579542
              ],
              [
                -71.14834551910806,
                41.54372993578703
              ],
              [
                -71.14946426973711,
                41.54360513705327
              ]
            ],
            [
              [
                -71.15013020462504,
                41.54330172575041
              ],
              [
                -71.15021175979417,
                41.543349143064525
              ],
              [
                -71.1504297970337,
                41.54348988300843
              ],
              [
                -71.15013020462504,
                41.54330172575041
              ]
            ]
          ],
          [
            [
              [
                -71.15091205033589,
                41.54344757859852
              ],
              [
                -71.1501233963761,
                41.54401135643056
              ],
              [
                -71.15259911012167,
                41.54371212903096
              ],
              [
                -71.15240572895569,
                41.543275643596374
              ],
              [
                -71.15091205033589,
                41.54344757859852
              ]
            ]
          ],
          [
            [
              [
                -71.14552468004075,
                41.54242131974153
              ],
              [
                -71.1454222457584,
                41.54209674030503
              ],
              [
                -71.14541139946667,
                41.54206237078583
              ],
              [
                -71.13819198680353,
                41.542933671918284
              ],
              [
                -71.13830768384385,
                41.54326479388846
              ],
              [
                -71.14070194624331,
                41.542985020952706
              ],
              [
                -71.14552468004075,
                41.54242131974153
              ]
            ]
          ],
          [
            [
              [
                -71.13624804093661,
                41.54512460326586
              ],
              [
                -71.13626420826122,
                41.54517407365097
              ],
              [
                -71.13645827952331,
                41.545767871328536
              ],
              [
                -71.13902560924079,
                41.545476004932745
              ],
              [
                -71.14232357708165,
                41.54510098906048
              ],
              [
                -71.14223021456753,
                41.545463573153675
              ],
              [
                -71.14513409318232,
                41.54512294103625
              ],
              [
                -71.14563930401022,
                41.54506367007438
              ],
              [
                -71.14544941228064,
                41.54446576157885
              ],
              [
                -71.14532279341482,
                41.54406707099704
              ],
              [
                -71.14266206332562,
                41.54436376254554
              ],
              [
                -71.14117027906225,
                41.54453007998702
              ],
              [
                -71.13878779866904,
                41.54472034939601
              ],
              [
                -71.13624804093661,
                41.54512460326586
              ]
            ]
          ]
        ]
      }
    }
  ],
  "bbox": [
    -71.15562834822201,
    41.52717774967334,
    -71.1335817077794,
    41.545767871328536
  ]
}
