{
  "$schema": "https://ripota.org/schemas/v3/display-geojson.schema.json",
  "type": "FeatureCollection",
  "properties": {
    "schemaVersion": 3,
    "geometryRole": "display",
    "geometryKind": "boundary",
    "potaReference": "US-7715",
    "potaName": "Durfee Hill Wildlife Management Area",
    "sourceName": "Rhode Island DEM State Conservation Land",
    "sourceUrl": "https://risegis.ri.gov/hosting/rest/services/RIDEM/State_Conservation_Land/MapServer/0",
    "sourceQuery": "DEM_AREA = 'Durfee Hill Management Area'",
    "sourceFeatureIds": [
      40,
      63,
      64,
      287,
      324,
      356,
      506,
      514,
      532,
      551,
      552,
      553,
      631,
      772,
      773,
      791,
      922,
      16027,
      16031,
      16069
    ],
    "status": "available",
    "fidelity": "reviewed-display"
  },
  "features": [
    {
      "type": "Feature",
      "properties": {
        "potaReference": "US-7715",
        "potaName": "Durfee Hill Wildlife Management Area",
        "geometryKind": "boundary",
        "geometryRole": "display"
      },
      "geometry": {
        "type": "MultiPolygon",
        "coordinates": [
          [
            [
              [
                -71.78133903985301,
                41.903246996631665
              ],
              [
                -71.78119337880544,
                41.9033298629117
              ],
              [
                -71.78092784040624,
                41.903493687972045
              ],
              [
                -71.7806752439207,
                41.90370035882165
              ],
              [
                -71.78032290013404,
                41.90406687528072
              ],
              [
                -71.7793141839448,
                41.90528302150536
              ],
              [
                -71.77876859869598,
                41.90594657574846
              ],
              [
                -71.77831368659882,
                41.9065646482244
              ],
              [
                -71.7790834010939,
                41.906840296550534
              ],
              [
                -71.77952151335919,
                41.907123894144306
              ],
              [
                -71.78046306452099,
                41.90767782229484
              ],
              [
                -71.78463716390449,
                41.90584165951635
              ],
              [
                -71.78464012061119,
                41.90579397272796
              ],
              [
                -71.79026046596236,
                41.905825941054566
              ],
              [
                -71.7905450224953,
                41.90581221442417
              ],
              [
                -71.79061354288899,
                41.90730308490103
              ],
              [
                -71.79398902035882,
                41.90710497867126
              ],
              [
                -71.7954754493858,
                41.907017717760276
              ],
              [
                -71.79549984410161,
                41.90553647058776
              ],
              [
                -71.79693586779635,
                41.90545653027991
              ],
              [
                -71.79688587075884,
                41.904213040209406
              ],
              [
                -71.79679744639006,
                41.9020136484678
              ],
              [
                -71.79671887962759,
                41.90005933438833
              ],
              [
                -71.79671750841509,
                41.89992427361816
              ],
              [
                -71.79611088847987,
                41.89911055390918
              ],
              [
                -71.79497996656158,
                41.89758906055479
              ],
              [
                -71.79406976075973,
                41.897906206974696
              ],
              [
                -71.79390889146535,
                41.89879462303842
              ],
              [
                -71.79316657141838,
                41.89874369474563
              ],
              [
                -71.79325695068603,
                41.89789953705297
              ],
              [
                -71.79102929450688,
                41.89744932178664
              ],
              [
                -71.79089197781272,
                41.89773110657088
              ],
              [
                -71.79075995926691,
                41.89795033654221
              ],
              [
                -71.79058824470783,
                41.898136094514676
              ],
              [
                -71.79043977975364,
                41.89829627725634
              ],
              [
                -71.79021048829935,
                41.89847009337171
              ],
              [
                -71.78997932593636,
                41.898627798796376
              ],
              [
                -71.7892655148251,
                41.89898009996504
              ],
              [
                -71.78909174081056,
                41.89910945807798
              ],
              [
                -71.78891094485074,
                41.89927643484479
              ],
              [
                -71.788737550435,
                41.89949039517729
              ],
              [
                -71.78862157832742,
                41.899682723731914
              ],
              [
                -71.78855225566345,
                41.89985613432969
              ],
              [
                -71.78849539415869,
                41.90000265502689
              ],
              [
                -71.78832266090913,
                41.900364334157544
              ],
              [
                -71.78816012459923,
                41.90059572365267
              ],
              [
                -71.78812435008464,
                41.90063475794939
              ],
              [
                -71.78784000231174,
                41.900960457452946
              ],
              [
                -71.78746062291812,
                41.901340110349715
              ],
              [
                -71.78697735368205,
                41.901803282041115
              ],
              [
                -71.78681251923317,
                41.90192455638587
              ],
              [
                -71.78666549657964,
                41.90200952718021
              ],
              [
                -71.78637139251066,
                41.90216603997845
              ],
              [
                -71.78609149889236,
                41.90228491448356
              ],
              [
                -71.78577737863405,
                41.902387757643524
              ],
              [
                -71.7854290078909,
                41.90246919969071
              ],
              [
                -71.78527441045448,
                41.90249386385452
              ],
              [
                -71.78511062698982,
                41.90251171173817
              ],
              [
                -71.78489722212792,
                41.90253766570171
              ],
              [
                -71.78365228744511,
                41.90267761880149
              ],
              [
                -71.78296353405048,
                41.90275890508856
              ],
              [
                -71.78267912659099,
                41.90280345594668
              ],
              [
                -71.78239455394478,
                41.90286995916495
              ],
              [
                -71.78211723084519,
                41.9029492978273
              ],
              [
                -71.78172206216341,
                41.903068392598094
              ],
              [
                -71.78141500846849,
                41.90319334280484
              ],
              [
                -71.78133903985301,
                41.903246996631665
              ]
            ]
          ],
          [
            [
              [
                -71.78110617490776,
                41.90170658163832
              ],
              [
                -71.78114477007206,
                41.90178223793082
              ],
              [
                -71.78124760370271,
                41.90210928993257
              ],
              [
                -71.78111525515236,
                41.90246836079541
              ],
              [
                -71.78117469434352,
                41.902934157606715
              ],
              [
                -71.78124088544209,
                41.90312085195318
              ],
              [
                -71.78187064735573,
                41.90284972493878
              ],
              [
                -71.78225775389302,
                41.902735465315864
              ],
              [
                -71.78276013721042,
                41.90264819958378
              ],
              [
                -71.78470556296898,
                41.902465139871246
              ],
              [
                -71.78519432186748,
                41.90242267320186
              ],
              [
                -71.7856001347976,
                41.902355485237344
              ],
              [
                -71.7858804882735,
                41.90227485755399
              ],
              [
                -71.78627209925793,
                41.90211917796907
              ],
              [
                -71.78661986909728,
                41.90193610330533
              ],
              [
                -71.78676435966405,
                41.90183174675873
              ],
              [
                -71.78699931895859,
                41.90163434209489
              ],
              [
                -71.7872639864697,
                41.90139217042025
              ],
              [
                -71.78748958876182,
                41.9011612680866
              ],
              [
                -71.78779989540992,
                41.900835612444084
              ],
              [
                -71.78801850213097,
                41.900584959910844
              ],
              [
                -71.78813390562726,
                41.90040933898257
              ],
              [
                -71.78829686038864,
                41.90006342420039
              ],
              [
                -71.78845747033186,
                41.89970806072515
              ],
              [
                -71.78855903581744,
                41.89952559830754
              ],
              [
                -71.78869298563343,
                41.89938173062814
              ],
              [
                -71.78882564964958,
                41.89920778430057
              ],
              [
                -71.78893904242507,
                41.89909748720034
              ],
              [
                -71.78917175311842,
                41.898915553983535
              ],
              [
                -71.78947356429552,
                41.89875063516728
              ],
              [
                -71.78964918023368,
                41.89866338641935
              ],
              [
                -71.79004166969762,
                41.8984544049301
              ],
              [
                -71.79027909772228,
                41.89829910091575
              ],
              [
                -71.79039600777661,
                41.89820426379078
              ],
              [
                -71.79057568931516,
                41.89799925586229
              ],
              [
                -71.79077025816265,
                41.897779598542776
              ],
              [
                -71.7908836612875,
                41.89757169860824
              ],
              [
                -71.79093841327938,
                41.897430953112796
              ],
              [
                -71.79019833477173,
                41.897281286255975
              ],
              [
                -71.78982183176599,
                41.89710106154029
              ],
              [
                -71.7889535368328,
                41.89667409785069
              ],
              [
                -71.78765658708761,
                41.89685727264793
              ],
              [
                -71.7853767255377,
                41.89681442066323
              ],
              [
                -71.78511477918269,
                41.897637303288356
              ],
              [
                -71.78505291729272,
                41.89571522737979
              ],
              [
                -71.7848424779317,
                41.89566584079488
              ],
              [
                -71.78445133680009,
                41.89555515440332
              ],
              [
                -71.78398250186551,
                41.89538300170215
              ],
              [
                -71.7792533511096,
                41.89526888190214
              ],
              [
                -71.78049223967314,
                41.896678010027266
              ],
              [
                -71.7795609840862,
                41.8989972468325
              ],
              [
                -71.77729781865253,
                41.89956121413719
              ],
              [
                -71.7777159614248,
                41.902240087429156
              ],
              [
                -71.77677781638668,
                41.902820016302044
              ],
              [
                -71.77614658223531,
                41.90432822581464
              ],
              [
                -71.77139795097943,
                41.9030591586572
              ],
              [
                -71.77137030019043,
                41.90405971348843
              ],
              [
                -71.7716973507229,
                41.90598845521166
              ],
              [
                -71.77238058829397,
                41.905432994756346
              ],
              [
                -71.77880553557998,
                41.90532229006696
              ],
              [
                -71.77896710487919,
                41.90507892218056
              ],
              [
                -71.77935506212148,
                41.90483262038083
              ],
              [
                -71.78007513703666,
                41.90396854028542
              ],
              [
                -71.7807037955961,
                41.90335003599105
              ],
              [
                -71.78025765317027,
                41.903413060942746
              ],
              [
                -71.77979910647008,
                41.90282579604461
              ],
              [
                -71.78110617490776,
                41.90170658163832
              ]
            ]
          ],
          [
            [
              [
                -71.75891594122251,
                41.888398948367566
              ],
              [
                -71.75775382629139,
                41.88798697282029
              ],
              [
                -71.75778620317018,
                41.888104557831234
              ],
              [
                -71.75790112875424,
                41.888500837945294
              ],
              [
                -71.75799370767936,
                41.88884811550803
              ],
              [
                -71.75801801145799,
                41.8889127207184
              ],
              [
                -71.75804278004948,
                41.88897874109561
              ],
              [
                -71.7580643118408,
                41.8890461399411
              ],
              [
                -71.75808130766188,
                41.88911993860876
              ],
              [
                -71.75809414266543,
                41.889193660192575
              ],
              [
                -71.75810625836706,
                41.889266782871395
              ],
              [
                -71.75812677314185,
                41.88938799663447
              ],
              [
                -71.75814562505758,
                41.88950947072288
              ],
              [
                -71.75816235538773,
                41.88963129350055
              ],
              [
                -71.75817443603783,
                41.88973846217331
              ],
              [
                -71.75818485205714,
                41.8898454626225
              ],
              [
                -71.75819543817262,
                41.88995220519233
              ],
              [
                -71.75820783161261,
                41.8900658050998
              ],
              [
                -71.75822051186375,
                41.8901794034584
              ],
              [
                -71.7582330763158,
                41.890292659948884
              ],
              [
                -71.75833006127691,
                41.890934500296595
              ],
              [
                -71.7583821221927,
                41.891336409528144
              ],
              [
                -71.75918325444505,
                41.891286237676944
              ],
              [
                -71.76007654911288,
                41.89324546792047
              ],
              [
                -71.75872546419107,
                41.89325675241561
              ],
              [
                -71.75556540361988,
                41.89335310047705
              ],
              [
                -71.75602368534727,
                41.89209883543327
              ],
              [
                -71.75612555259741,
                41.89182006740841
              ],
              [
                -71.7563851656269,
                41.891109599866034
              ],
              [
                -71.75580212885222,
                41.88806028483415
              ],
              [
                -71.75173766996706,
                41.88803745052862
              ],
              [
                -71.75084541383936,
                41.88804654886456
              ],
              [
                -71.75084007758073,
                41.888156243996825
              ],
              [
                -71.75010606371141,
                41.88813630545701
              ],
              [
                -71.75009214267162,
                41.8884224269998
              ],
              [
                -71.7500793770946,
                41.88868478182986
              ],
              [
                -71.75006603242036,
                41.888959020447516
              ],
              [
                -71.75080005570122,
                41.88897896011502
              ],
              [
                -71.75078671405467,
                41.88925319879411
              ],
              [
                -71.7500526888426,
                41.889233259048176
              ],
              [
                -71.75003934515641,
                41.889507497634476
              ],
              [
                -71.75077337229617,
                41.88952743655852
              ],
              [
                -71.75076003284259,
                41.88980167520359
              ],
              [
                -71.75075469630644,
                41.88991137029905
              ],
              [
                -71.75056973810739,
                41.88990634683045
              ],
              [
                -71.750543053579,
                41.89045482043444
              ],
              [
                -71.75033055701428,
                41.89044904816372
              ],
              [
                -71.75015785798801,
                41.89040833259235
              ],
              [
                -71.74975069586783,
                41.89046701450092
              ],
              [
                -71.74939007997739,
                41.890518988182066
              ],
              [
                -71.74902010759922,
                41.890572308104275
              ],
              [
                -71.74917846896152,
                41.89116895534929
              ],
              [
                -71.74769916753587,
                41.89139756637179
              ],
              [
                -71.74752239233437,
                41.89078814601886
              ],
              [
                -71.74744274565268,
                41.89079962398704
              ],
              [
                -71.74705775884749,
                41.890857621034186
              ],
              [
                -71.7469260194456,
                41.890322986740856
              ],
              [
                -71.74656842249958,
                41.890385528435324
              ],
              [
                -71.7466980989618,
                41.890911800813
              ],
              [
                -71.74631885985806,
                41.890968928623415
              ],
              [
                -71.74632763255093,
                41.891184576303324
              ],
              [
                -71.74707178739318,
                41.89121705782316
              ],
              [
                -71.74683022251052,
                41.89371187564607
              ],
              [
                -71.74681013617254,
                41.89391931029503
              ],
              [
                -71.74663937577506,
                41.89568915559791
              ],
              [
                -71.74654847106966,
                41.896629498227206
              ],
              [
                -71.74435463545365,
                41.89668281133488
              ],
              [
                -71.74430057345964,
                41.89686370134645
              ],
              [
                -71.74260811681624,
                41.896862572560394
              ],
              [
                -71.73558814691253,
                41.89686423837994
              ],
              [
                -71.73526985970213,
                41.89686446415416
              ],
              [
                -71.72925107965528,
                41.89686900437813
              ],
              [
                -71.73128466434517,
                41.90583932523065
              ],
              [
                -71.73125680542489,
                41.90737681977193
              ],
              [
                -71.73125000307638,
                41.907750215789854
              ],
              [
                -71.73590150697933,
                41.91136704025481
              ],
              [
                -71.73659811340508,
                41.91200766329672
              ],
              [
                -71.73686883420653,
                41.91225665554209
              ],
              [
                -71.73718529161842,
                41.912547659085874
              ],
              [
                -71.73787420445333,
                41.913181088432076
              ],
              [
                -71.73672338853655,
                41.91925130816113
              ],
              [
                -71.7383186591058,
                41.9195448965073
              ],
              [
                -71.73825417505162,
                41.91974209956541
              ],
              [
                -71.73819235533196,
                41.92022374632971
              ],
              [
                -71.73819525851792,
                41.92097359041729
              ],
              [
                -71.7389361121953,
                41.921037056385416
              ],
              [
                -71.73952966038114,
                41.92113375159345
              ],
              [
                -71.74019845831056,
                41.9212725511466
              ],
              [
                -71.74081007378585,
                41.92140446041557
              ],
              [
                -71.7412924856332,
                41.921508501081796
              ],
              [
                -71.74202364572787,
                41.92161672978522
              ],
              [
                -71.74253991192234,
                41.92163476424372
              ],
              [
                -71.74298315717635,
                41.921624052331964
              ],
              [
                -71.74340689058155,
                41.921570414821495
              ],
              [
                -71.74377321915631,
                41.92148894167761
              ],
              [
                -71.74413718131959,
                41.92141973390531
              ],
              [
                -71.74458089471898,
                41.92024157206977
              ],
              [
                -71.74560440768057,
                41.917523711718324
              ],
              [
                -71.74608589710861,
                41.91770199485449
              ],
              [
                -71.74741482744598,
                41.91817900479489
              ],
              [
                -71.74655381694093,
                41.920902264490906
              ],
              [
                -71.74771068787643,
                41.920787949915095
              ],
              [
                -71.74834957547394,
                41.92068856693388
              ],
              [
                -71.74870109980031,
                41.92063559542709
              ],
              [
                -71.75073721905441,
                41.92038947361752
              ],
              [
                -71.75047949650906,
                41.91889170787009
              ],
              [
                -71.75008781244212,
                41.91737013400252
              ],
              [
                -71.75620579377258,
                41.912951184918924
              ],
              [
                -71.7550132176579,
                41.90977228361783
              ],
              [
                -71.75445958007556,
                41.9073840887395
              ],
              [
                -71.75451298326864,
                41.90737583954591
              ],
              [
                -71.75826524909762,
                41.906796139202235
              ],
              [
                -71.75854676788624,
                41.908198047730146
              ],
              [
                -71.76218662920769,
                41.90559215370836
              ],
              [
                -71.76270490693173,
                41.905221102613844
              ],
              [
                -71.76296702004407,
                41.90519041557325
              ],
              [
                -71.76616990326625,
                41.90481538449937
              ],
              [
                -71.7660191390821,
                41.903907919549205
              ],
              [
                -71.76581731798235,
                41.90307466392225
              ],
              [
                -71.76622465080037,
                41.90319686515975
              ],
              [
                -71.76622520624714,
                41.90207320230351
              ],
              [
                -71.76680598955855,
                41.90132860317177
              ],
              [
                -71.76426008777415,
                41.90141501532271
              ],
              [
                -71.76345731837593,
                41.90137612548863
              ],
              [
                -71.76350893097934,
                41.90167280968468
              ],
              [
                -71.7637752822514,
                41.90165444643984
              ],
              [
                -71.76396762900693,
                41.90252203010219
              ],
              [
                -71.76364412272537,
                41.90322786132017
              ],
              [
                -71.76290631148007,
                41.9033870001712
              ],
              [
                -71.7627377085449,
                41.89891348110973
              ],
              [
                -71.76398992632494,
                41.898850236030135
              ],
              [
                -71.7632111510065,
                41.89345091607128
              ],
              [
                -71.76342643036612,
                41.89224764529656
              ],
              [
                -71.76469215240485,
                41.88772395470664
              ],
              [
                -71.76127874420082,
                41.88628488774928
              ],
              [
                -71.7607767182803,
                41.887146509369714
              ],
              [
                -71.75891594122251,
                41.888398948367566
              ]
            ]
          ],
          [
            [
              [
                -71.75966846908211,
                41.91739723543248
              ],
              [
                -71.75980404649324,
                41.91786665763676
              ],
              [
                -71.75990085342676,
                41.918202044311066
              ],
              [
                -71.76002698387508,
                41.918401057212186
              ],
              [
                -71.76029074237692,
                41.91824879822324
              ],
              [
                -71.76054804910942,
                41.91807901855088
              ],
              [
                -71.76079669129886,
                41.91792383782713
              ],
              [
                -71.76108704121393,
                41.917755182018425
              ],
              [
                -71.76135707397904,
                41.917616584025644
              ],
              [
                -71.761221787803,
                41.91739799873087
              ],
              [
                -71.76143165692098,
                41.91728072293693
              ],
              [
                -71.76170070080019,
                41.91746311449668
              ],
              [
                -71.76202852793914,
                41.91733420482468
              ],
              [
                -71.76234954953964,
                41.91720599581066
              ],
              [
                -71.76262292477041,
                41.917029181931106
              ],
              [
                -71.76294272065753,
                41.91687554979749
              ],
              [
                -71.7631733042449,
                41.916771296986894
              ],
              [
                -71.76342885869536,
                41.91668757234529
              ],
              [
                -71.76378616003778,
                41.91659482087517
              ],
              [
                -71.7641348606684,
                41.91651868375619
              ],
              [
                -71.764504310154,
                41.91645587390475
              ],
              [
                -71.7648775962292,
                41.91640454575518
              ],
              [
                -71.76525708604977,
                41.91636109070384
              ],
              [
                -71.76551230301547,
                41.91657767891054
              ],
              [
                -71.76589893269711,
                41.91648591092913
              ],
              [
                -71.76654488265149,
                41.91632363610204
              ],
              [
                -71.76683142112653,
                41.91627207437698
              ],
              [
                -71.76636908170818,
                41.91275697472546
              ],
              [
                -71.76495515889087,
                41.91195739813256
              ],
              [
                -71.76507793993045,
                41.912801812323295
              ],
              [
                -71.7636388035374,
                41.91373746504232
              ],
              [
                -71.7604628557205,
                41.91168322333871
              ],
              [
                -71.76004648130396,
                41.910235485990036
              ],
              [
                -71.75908075464213,
                41.91092011735493
              ],
              [
                -71.75763263630625,
                41.911946875121345
              ],
              [
                -71.75771541534631,
                41.91206168880092
              ],
              [
                -71.75829303824653,
                41.91173932061414
              ],
              [
                -71.75844158272264,
                41.91191337127362
              ],
              [
                -71.75863457262327,
                41.91213941805163
              ],
              [
                -71.75867901163392,
                41.91219150079595
              ],
              [
                -71.75881091497081,
                41.91241571314838
              ],
              [
                -71.75904320179842,
                41.91266405182164
              ],
              [
                -71.75925278229364,
                41.912889635147366
              ],
              [
                -71.75946236305056,
                41.9131152153793
              ],
              [
                -71.75967194648352,
                41.913340793412345
              ],
              [
                -71.75988152692733,
                41.913566458391415
              ],
              [
                -71.76029349962661,
                41.91322001388336
              ],
              [
                -71.76056817675806,
                41.91340221990422
              ],
              [
                -71.76146797666303,
                41.9139990949786
              ],
              [
                -71.76118212826917,
                41.91455553399464
              ],
              [
                -71.7608925649826,
                41.91511913916947
              ],
              [
                -71.76074220401333,
                41.91528528807943
              ],
              [
                -71.76043977447621,
                41.91556549818938
              ],
              [
                -71.76030915369333,
                41.91575870241583
              ],
              [
                -71.7601390002848,
                41.91607736984331
              ],
              [
                -71.75990081669238,
                41.91652362742401
              ],
              [
                -71.75977290840508,
                41.91676326000184
              ],
              [
                -71.75960741159405,
                41.916936905311545
              ],
              [
                -71.75966846908211,
                41.91739723543248
              ]
            ]
          ],
          [
            [
              [
                -71.71684055656526,
                41.9098003780852
              ],
              [
                -71.71852330088672,
                41.91075233829066
              ],
              [
                -71.71652145477049,
                41.91266369142121
              ],
              [
                -71.71833583829107,
                41.913653223730726
              ],
              [
                -71.71861569880095,
                41.91333548058497
              ],
              [
                -71.71963590594974,
                41.9113931290938
              ],
              [
                -71.72270279793578,
                41.90559018526763
              ],
              [
                -71.72340545036187,
                41.905553308839934
              ],
              [
                -71.72295018541207,
                41.901601775499614
              ],
              [
                -71.72321466850426,
                41.90173059638115
              ],
              [
                -71.72337003894013,
                41.90184357521221
              ],
              [
                -71.7272872790789,
                41.89939234410768
              ],
              [
                -71.72669534717546,
                41.89702929633029
              ],
              [
                -71.72540820249709,
                41.89619938694575
              ],
              [
                -71.72231285743047,
                41.89420344070288
              ],
              [
                -71.72129075502248,
                41.893544321794835
              ],
              [
                -71.7199262871949,
                41.891833013815905
              ],
              [
                -71.71768905416205,
                41.89315921357984
              ],
              [
                -71.71576433210137,
                41.89430006061036
              ],
              [
                -71.71520919054457,
                41.894857231433775
              ],
              [
                -71.71591840294307,
                41.89638982592831
              ],
              [
                -71.71157013935179,
                41.89704257479718
              ],
              [
                -71.7112419568605,
                41.89714057462428
              ],
              [
                -71.71097981761815,
                41.89725168251195
              ],
              [
                -71.71086326752584,
                41.89734279817793
              ],
              [
                -71.71009813764432,
                41.897730616745385
              ],
              [
                -71.71154485683095,
                41.89939832596731
              ],
              [
                -71.71419755852111,
                41.89874466233862
              ],
              [
                -71.71518525430018,
                41.90099271946928
              ],
              [
                -71.71594391655418,
                41.90145673655198
              ],
              [
                -71.71690148081797,
                41.9020423907812
              ],
              [
                -71.717346849318,
                41.902314772726236
              ],
              [
                -71.71793962638988,
                41.90267730569814
              ],
              [
                -71.7184435172217,
                41.902985469204935
              ],
              [
                -71.71882246839675,
                41.903217223808774
              ],
              [
                -71.71893503728971,
                41.90741014931131
              ],
              [
                -71.71684055656526,
                41.9098003780852
              ]
            ]
          ],
          [
            [
              [
                -71.75821244169316,
                41.917251239654284
              ],
              [
                -71.75822209147451,
                41.91730752333745
              ],
              [
                -71.75828998305197,
                41.91735031881504
              ],
              [
                -71.75874582797397,
                41.91726386527266
              ],
              [
                -71.7587175268437,
                41.91717226251951
              ],
              [
                -71.75821244169316,
                41.917251239654284
              ]
            ]
          ],
          [
            [
              [
                -71.78473413890809,
                41.90940117517628
              ],
              [
                -71.78474506302192,
                41.90971510143141
              ],
              [
                -71.78665726569999,
                41.909706999125845
              ],
              [
                -71.78736358676107,
                41.90970403269826
              ],
              [
                -71.78734153722182,
                41.90934391273715
              ],
              [
                -71.78473413890809,
                41.90940117517628
              ]
            ]
          ]
        ]
      }
    }
  ],
  "bbox": [
    -71.79693586779635,
    41.88628488774928,
    -71.71009813764432,
    41.92163476424372
  ]
}
